{"type": "FeatureCollection", "features": [{"id": "0", "type": "Feature", "properties": {"NAME": "Amery", "Regions": "East", "TYPE": "FL"}, "geometry": {"type": "Polygon", "coordinates": [[[73.84270422948616, -69.74993071959473], [73.80811309814453, -69.77667236328111], [73.76258087158203, -69.7921295166014], [73.68753051757812, -69.80988311767561], [73.6619644165039, -69.81961059570295], [73.6359634399414, -69.81662750244126], [73.58147430419922, -69.79806518554672], [73.52359008789062, -69.78476715087875], [73.46015167236328, -69.78038024902327], [73.42925262451172, -69.78671264648422], [73.40348815917969, -69.79532623291001], [73.360107421875, -69.81739044189437], [73.24955749511719, -69.85588073730453], [73.21150970458984, -69.89445495605455], [73.09745788574219, -69.89528656005844], [73.06578826904297, -69.90202331542955], [73.0733871459961, -69.92012023925766], [73.1096420288086, -69.95814514160142], [73.08789825439453, -69.96294403076158], [73.07208251953125, -69.96800231933578], [73.05543518066406, -69.9704971313475], [73.04318237304688, -69.96921539306625], [73.02815246582031, -69.96411895751937], [73.00936126708984, -69.95861816406234], [73.03778076171875, -69.99368286132797], [72.89191436767578, -70.0304565429686], [72.79896545410156, -70.03412628173814], [72.78630828857422, -70.05117034912095], [72.73871612548828, -70.07136535644518], [72.72932434082031, -70.10443878173817], [72.6822738647461, -70.12762451171861], [72.61238098144531, -70.14984130859361], [72.56952667236328, -70.15984344482409], [72.54637908935547, -70.17514038085925], [72.53773498535156, -70.20907592773426], [72.56663513183594, -70.22637176513659], [72.5601577758789, -70.23561096191395], [72.65606689453125, -70.28366851806628], [72.66246795654297, -70.29036712646473], [72.66300964355469, -70.29998779296862], [72.69689178466797, -70.31558990478503], [72.76306915283203, -70.32358551025378], [72.87593841552734, -70.3357009887694], [72.87992095947266, -70.33823394775378], [72.87865447998047, -70.34765624999989], [72.80584716796875, -70.37194824218739], [72.79901123046875, -70.37937927246081], [72.75482177734375, -70.40098571777331], [72.76610565185547, -70.40818023681628], [72.76172637939453, -70.4197616577147], [72.77999877929688, -70.42626953124987], [72.8009262084961, -70.45393371582021], [72.78997802734375, -70.47263336181628], [72.75604248046875, -70.47725677490223], [72.70076751708984, -70.47859954833972], [72.64832305908203, -70.46781158447254], [72.60363006591797, -70.43973541259754], [72.57185363769531, -70.41831207275378], [72.49207305908203, -70.40422058105456], [72.4500961303711, -70.40615081787097], [72.44649505615234, -70.41109466552722], [72.44865417480469, -70.42338562011709], [72.44981384277344, -70.42776489257801], [72.43038940429688, -70.44273376464834], [72.43258666992188, -70.45609283447254], [72.45454406738281, -70.50915527343739], [72.4789047241211, -70.52946472167956], [72.5035629272461, -70.54164123535145], [72.56988525390625, -70.55142974853504], [72.58090209960938, -70.55329132080067], [72.54865264892578, -70.56942749023428], [72.54127502441406, -70.5761032104491], [72.53865051269531, -70.60031127929676], [72.5142593383789, -70.61478424072253], [72.48967742919922, -70.63279724121082], [72.42611694335938, -70.66802215576162], [72.33116149902344, -70.70101165771476], [72.3080062866211, -70.7049636840819], [72.28034973144531, -70.70133209228506], [72.26030731201172, -70.69317626953114], [72.26692199707031, -70.67965698242176], [72.28862762451172, -70.66383361816395], [72.2955093383789, -70.65780639648426], [72.28022766113283, -70.63806915283192], [72.25469970703125, -70.61901855468739], [72.24694061279298, -70.60042572021473], [72.24458312988281, -70.57956695556629], [72.23661041259766, -70.57231903076162], [72.21668243408203, -70.56308746337879], [72.15614318847656, -70.54843139648425], [72.14300537109375, -70.53884124755847], [72.11795806884766, -70.51624298095692], [72.1190872192383, -70.49965667724598], [72.08718872070312, -70.48092651367176], [72.05870819091797, -70.43126678466784], [72.0344467163086, -70.40480804443347], [71.95916748046875, -70.33933258056628], [71.9177474975586, -70.30046081542956], [71.90546417236328, -70.28363037109364], [71.85211944580078, -70.25283050537095], [71.82321166992188, -70.24250793457017], [71.77686309814453, -70.25229644775378], [71.7415542602539, -70.26367187499986], [71.71503448486328, -70.27032470703111], [71.64655303955078, -70.31562805175767], [71.63520812988281, -70.33549499511707], [71.61653900146486, -70.36084747314442], [71.64498138427734, -70.39644622802722], [71.67876434326172, -70.45258331298817], [71.71007537841797, -70.49524688720692], [71.70216369628906, -70.50862884521473], [71.7173080444336, -70.51920318603504], [71.73770141601562, -70.54069519042957], [71.82949829101562, -70.63410186767568], [71.94185638427734, -70.65626525878896], [71.95794677734375, -70.66939544677724], [71.941650390625, -70.67831420898429], [71.9255142211914, -70.69686889648425], [71.8164291381836, -70.71890258789053], [71.7462158203125, -70.76224517822254], [71.68311309814453, -70.7730026245116], [71.68073272705078, -70.77899932861318], [71.69965362548828, -70.78926849365224], [71.72178649902344, -70.79203033447254], [71.77186584472656, -70.79176330566396], [71.79605102539062, -70.80115509033192], [71.80078125, -70.81485748291004], [71.80950927734375, -70.8354034423827], [71.81192779541016, -70.84600830078116], [71.80816650390625, -70.85736083984366], [71.84654998779297, -70.87111663818348], [71.82644653320312, -70.88143157958976], [71.80601501464844, -70.89313507080067], [71.79000854492189, -70.89498138427724], [71.76775360107422, -70.89329528808585], [71.72833251953126, -70.88214874267567], [71.70674133300781, -70.8674316406249], [71.67898559570312, -70.8669204711913], [71.66104888916016, -70.87174987792962], [71.65194702148438, -70.87967681884757], [71.64092254638672, -70.9023895263671], [71.65641784667969, -70.92584228515618], [71.6672592163086, -70.93237304687491], [71.6626968383789, -70.93687438964834], [71.6482925415039, -70.94137573242179], [71.6282958984375, -70.94063568115224], [71.6181411743164, -70.94309997558582], [71.5951919555664, -70.94418334960928], [71.54962921142578, -70.9331512451171], [71.53587341308594, -70.93057250976553], [71.51390075683594, -70.93817901611318], [71.49550628662111, -70.94866943359366], [71.48335266113281, -70.95305633544913], [71.47054290771484, -70.95594024658195], [71.45345306396484, -70.96192932128896], [71.44813537597656, -70.97242736816395], [71.46942138671875, -70.98261260986317], [71.4983139038086, -70.98970031738273], [71.46004486083984, -71.0151824951171], [71.3463134765625, -71.11537933349602], [71.33605194091797, -71.1421585083007], [71.3239974975586, -71.15157318115227], [71.32545471191406, -71.16711425781241], [71.31539916992188, -71.17460632324209], [71.32489776611328, -71.1845932006835], [71.4132080078125, -71.18918609619132], [71.46370697021484, -71.18858337402335], [71.52979278564453, -71.19964599609366], [71.53144836425781, -71.20447540283195], [71.5184555053711, -71.21379852294913], [71.51411437988281, -71.2211914062499], [71.49144744873047, -71.23018646240226], [71.43507385253906, -71.24484252929679], [71.36226654052734, -71.26021575927726], [71.31977081298828, -71.27098846435538], [71.25098419189453, -71.29286193847646], [71.2001724243164, -71.32815551757804], [71.17724609375, -71.33604431152337], [71.1419448852539, -71.35655212402335], [71.07931518554688, -71.36690521240226], [71.01498413085938, -71.36414337158196], [70.99099731445312, -71.36975860595696], [70.95556640625, -71.38594055175771], [70.91751861572266, -71.39824676513665], [70.87709045410156, -71.41890716552724], [70.83647155761719, -71.42518615722648], [70.83057403564453, -71.42955780029287], [70.84041595458984, -71.43603515624991], [70.89396667480469, -71.44482421874993], [70.93521118164062, -71.45044708251946], [70.99614715576172, -71.45247650146476], [71.05354309082031, -71.46090698242179], [71.30534362792969, -71.5365447998046], [71.32723236083984, -71.54570007324212], [71.31819152832031, -71.56263732910149], [71.29438018798828, -71.56797027587886], [71.22567749023438, -71.57815551757804], [71.18817138671875, -71.58666992187493], [71.1417007446289, -71.59922790527337], [71.06649780273438, -71.60365295410148], [71.02507781982422, -71.62499999999991], [71.01016235351562, -71.65640258789055], [70.98270416259766, -71.68357849121087], [71.06326293945312, -71.70808410644524], [71.04356384277344, -71.72713470458977], [71.02892303466797, -71.74781799316398], [71.01236724853516, -71.75141906738276], [70.98976135253906, -71.75112915039057], [70.95551300048828, -71.74060821533195], [70.9414291381836, -71.74195098876946], [70.9427261352539, -71.76364898681634], [70.88497161865234, -71.78577423095696], [70.82718099618545, -71.79720013800927], [70.79099201713863, -71.81700624249116], [70.75381469726562, -71.82400512695305], [70.71541595458984, -71.82845306396477], [70.59196472167969, -71.82032012939446], [70.56306457519531, -71.82038116455072], [70.51461791992188, -71.84277343749991], [70.5063705444336, -71.85411071777335], [70.51856994628906, -71.8576126098632], [70.53224182128906, -71.85372161865227], [70.55152893066406, -71.84179687499993], [70.57550048828125, -71.83183288574212], [70.5954818725586, -71.83151245117185], [70.67831420898438, -71.84095001220697], [70.73829650878906, -71.84713745117182], [70.78720092773438, -71.86324310302727], [70.78333282470703, -71.87289428710932], [70.76600646972656, -71.88216400146477], [70.7325668334961, -71.89022064208979], [70.6764144897461, -71.89292907714838], [70.61966705322266, -71.89500427246088], [70.60773468017578, -71.89838409423822], [70.61338806152344, -71.90260314941399], [70.68174743652345, -71.9107818603515], [70.73494720458984, -71.91908264160149], [70.75365447998047, -71.92615509033199], [70.74954986572266, -71.9401016235351], [70.71043395996094, -71.95420837402338], [70.68724060058594, -71.97473144531241], [70.65642547607422, -71.99370574951165], [70.61690521240234, -71.9987716674804], [70.55352783203125, -72.00122833251946], [70.50431060791016, -72.01062774658197], [70.49896240234375, -72.0244522094726], [70.504150390625, -72.04232025146479], [70.46702575683594, -72.05123901367182], [70.40172576904297, -72.05310058593744], [70.34799194335938, -72.06919860839838], [70.32341766357422, -72.07624053955071], [70.31132507324219, -72.07454681396479], [70.26643371582031, -72.07283782958979], [70.19406127929688, -72.06555175781244], [70.1447982788086, -72.06657409667962], [70.04578399658205, -72.07396697998043], [70.00081634521484, -72.07724761962885], [69.94718170166016, -72.07592773437493], [69.91602325439453, -72.08435821533197], [69.90813446044923, -72.0939636230468], [69.93647003173828, -72.10872650146479], [69.93238067626953, -72.11514282226557], [69.92301177978516, -72.11807250976557], [69.88977813720703, -72.11433410644523], [69.8628158569336, -72.11817932128899], [69.83673858642578, -72.12718200683588], [69.81544494628906, -72.13709259033199], [69.78346252441406, -72.14506530761712], [69.74559783935547, -72.1451339721679], [69.71212768554688, -72.1435165405273], [69.68605041503906, -72.1514282226562], [69.68836212158203, -72.15930175781244], [69.72930145263672, -72.16357421874996], [69.763916015625, -72.16821289062494], [69.78961181640625, -72.1743774414062], [69.79767608642578, -72.18144226074212], [69.81150817871095, -72.19060516357416], [69.87136840820314, -72.20384216308588], [69.8885269165039, -72.20829772949213], [69.89682006835938, -72.21719360351557], [69.88636016845703, -72.23086547851558], [69.83534240722656, -72.26245117187494], [69.79521179199219, -72.27896118164057], [69.72914123535158, -72.28930664062494], [69.68464660644531, -72.29553222656244], [69.64039611816406, -72.30250549316402], [69.60482788085938, -72.30429077148432], [69.54561614990234, -72.31464385986322], [69.51531219482422, -72.33152770996088], [69.49833679199217, -72.3492050170898], [69.51532745361328, -72.36746978759761], [69.52376556396484, -72.3742294311523], [69.50543212890625, -72.39103698730466], [69.46586608886719, -72.3978118896484], [69.43824005126953, -72.39685821533197], [69.40641021728517, -72.39541625976558], [69.37225341796875, -72.38716888427729], [69.3201904296875, -72.36923217773432], [69.27367401123047, -72.35845184326166], [69.26077270507814, -72.36206054687493], [69.26632690429688, -72.37106323242183], [69.2852783203125, -72.38086700439447], [69.29073333740234, -72.38803863525386], [69.29145050048828, -72.39611816406244], [69.27045440673828, -72.4042587280273], [69.23243713378906, -72.41445159912102], [69.201416015625, -72.41998291015621], [69.17536926269531, -72.41772460937496], [69.14472961425781, -72.41529083251947], [69.12865447998047, -72.41561889648432], [69.09435272216797, -72.41894531249993], [69.05564880371094, -72.41811370849604], [68.99732208251953, -72.41754150390622], [68.94003295898438, -72.42655944824214], [68.51776885986328, -72.46234893798822], [68.34600067138672, -72.48870849609371], [68.2325439453125, -72.51100158691402], [68.15791320800783, -72.53500366210933], [68.13282775878906, -72.54737854003903], [68.045166015625, -72.58081817626953], [68.01976013183594, -72.60967254638668], [67.9240493774414, -72.74631500244135], [67.9246597290039, -72.76506042480464], [67.94316101074219, -72.8138046264648], [67.96905517578125, -72.86151123046871], [67.97345733642578, -72.8881683349609], [68.03066253662111, -72.95953369140624], [68.05795288085938, -73.00222778320308], [68.0675582885742, -73.01804351806636], [68.0570297241211, -73.034797668457], [68.02228546142578, -73.06266784667966], [67.95301055908203, -73.08415222167963], [67.88951110839844, -73.12017059326169], [67.89159393310547, -73.13464355468746], [67.86985778808595, -73.15525054931638], [67.8203353881836, -73.17169189453125], [67.77535247802734, -73.1806259155273], [67.73928833007812, -73.18259429931636], [67.67946624755858, -73.19423675537107], [67.63998413085938, -73.2056198120117], [67.60588836669922, -73.21622467041011], [67.54170227050781, -73.23056793212886], [67.51177215576172, -73.23797607421871], [67.50212097167969, -73.2426605224609], [67.46728515625, -73.25746154785152], [67.43455505371094, -73.2622146606445], [67.41036224365234, -73.26464080810544], [67.39556121826172, -73.26850128173825], [67.39208221435547, -73.2731552124023], [67.39349365234375, -73.28481292724605], [67.37199401855469, -73.29354858398432], [67.34564971923828, -73.29988098144526], [67.32247924804688, -73.30476379394527], [67.2944564819336, -73.30925750732418], [67.24698638916016, -73.31156921386716], [67.20124053955078, -73.31137084960932], [67.1771011352539, -73.30683135986324], [67.14521026611328, -73.30345916748044], [67.09305572509766, -73.308609008789], [67.07344055175783, -73.3045959472656], [67.05943298339845, -73.29662322998041], [66.99756622314453, -73.28247070312497], [66.93757629394531, -73.2769088745117], [66.90584564208986, -73.27056121826172], [66.86820220947264, -73.25860595703124], [66.8545913696289, -73.25191497802733], [66.82672119140626, -73.236457824707], [66.81851196289062, -73.2224960327148], [66.8170394897461, -73.21195220947261], [66.81939697265625, -73.19926452636714], [66.8458480834961, -73.18128204345697], [66.85126495361328, -73.16701507568355], [66.84856414794922, -73.14669799804683], [66.88053894042969, -73.13016510009764], [66.89334106445312, -73.11264038085932], [66.88584130325327, -73.09396737355999], [66.87493133544922, -73.07920837402341], [66.87833055939326, -73.06111156345025], [66.91053009033203, -73.02365875244135], [66.92597961425781, -73.0027694702148], [66.95613861083984, -72.95542144775386], [66.9654537900669, -72.93946912297804], [66.99137115478516, -72.89481353759763], [67.0188217163086, -72.82292938232418], [67.0538101196289, -72.66163635253903], [67.06639099121094, -72.60299682617183], [67.14559936523438, -72.52069091796871], [67.16898345947266, -72.4830169677734], [67.27638244628906, -72.3985443115234], [67.34972381591797, -72.33301544189447], [67.38562774658203, -72.29004669189447], [67.40532684326172, -72.24466705322261], [67.3650131225586, -72.20063781738274], [67.35245513916016, -72.15704345703118], [67.34365844726561, -72.11409759521479], [67.37486267089844, -72.09046936035152], [67.41488647460938, -72.06826782226557], [67.49456787109375, -72.0271606445312], [67.5176773071289, -71.98415374755852], [67.52351379394531, -71.96468353271476], [67.53950500488281, -71.95092010498041], [67.55799865722656, -71.9459381103515], [67.5768280029297, -71.94247436523433], [67.60774993896484, -71.93614196777337], [67.62662506103516, -71.93083953857415], [67.64334106445312, -71.92269134521477], [67.66576385498047, -71.92004394531243], [67.70288848876953, -71.90715026855462], [67.71149444580078, -71.90421295166009], [67.7269058227539, -71.89699554443351], [67.7387466430664, -71.8766479492187], [67.74077606201172, -71.83087921142572], [67.73085021972656, -71.82410430908196], [67.705322265625, -71.81937408447261], [67.6689224243164, -71.81397247314447], [67.64632415771486, -71.80703735351555], [67.63165283203125, -71.79853820800776], [67.63690948486328, -71.79187011718744], [67.66424560546875, -71.78804779052727], [67.68408203125, -71.78545379638665], [67.70390319824219, -71.78285980224604], [67.71756744384766, -71.77690887451165], [67.88752746582031, -71.71284484863277], [67.9129638671875, -71.70399475097649], [67.93367004394531, -71.68795013427727], [67.9422607421875, -71.67586517333977], [67.93280029296875, -71.66513824462884], [67.90666198730469, -71.65783691406243], [67.8720703125, -71.64752197265618], [67.84571838378906, -71.64180755615227], [67.81675720214844, -71.63968658447259], [67.75959014892578, -71.64055633544913], [67.71566772460938, -71.65303039550774], [67.66445922851562, -71.65924835205071], [67.632080078125, -71.6590499877929], [67.62186431884766, -71.64659881591787], [67.6241683959961, -71.63568115234368], [67.64202117919922, -71.62734985351554], [67.65166473388672, -71.61906433105462], [67.65929412841797, -71.60427856445305], [67.68566131591797, -71.58935546874994], [67.706787109375, -71.57472991943352], [67.80172729492188, -71.54856872558585], [67.94735717773438, -71.49430084228509], [68.17088317871094, -71.4043502807616], [68.1745376586914, -71.39048767089835], [68.14656066894531, -71.37082672119134], [68.1357650756836, -71.3511734008788], [68.15449523925781, -71.33348083496085], [68.17436218261719, -71.3276290893554], [68.24407958984375, -71.31679534912102], [68.27352142333984, -71.29967498779288], [68.30728149414062, -71.2902755737304], [68.34538269042969, -71.29460144042962], [68.38459014892578, -71.30043029785148], [68.39478302001953, -71.29762268066398], [68.39492797851562, -71.28649902343741], [68.4103012084961, -71.2790985107421], [68.4376449584961, -71.27278900146476], [68.45114135742188, -71.26011657714835], [68.41883850097656, -71.25220489501946], [68.37860107421875, -71.24656677246087], [68.37249755859375, -71.23432922363271], [68.39752197265625, -71.22332000732412], [68.44642639160156, -71.2097625732421], [68.4635238647461, -71.20764160156241], [68.48898315429688, -71.2077407836913], [68.51773834228516, -71.20446777343741], [68.5391845703125, -71.19498443603507], [68.5751724243164, -71.16972351074209], [68.57904052734375, -71.15977478027335], [68.66253662109375, -71.13991546630851], [68.74959564208984, -71.12222290039054], [68.82330322265625, -71.09456634521476], [68.98920440673828, -71.00431060791009], [69.02266693115234, -70.9695053100585], [69.06843566894531, -70.91895294189443], [69.09224700927734, -70.90686798095692], [69.1352310180664, -70.88284301757803], [69.13520050048828, -70.84768676757801], [69.16291809082031, -70.78665924072256], [69.16061401367188, -70.77151489257801], [69.20478057861328, -70.62641143798817], [69.19955444335938, -70.62430572509754], [69.19023895263672, -70.61624908447254], [69.18476104736328, -70.59818267822254], [69.17658996582031, -70.58628845214832], [69.20124816894531, -70.56659698486317], [69.23849487304688, -70.55393218994129], [69.25128173828125, -70.48825073242176], [69.25123596191406, -70.4749298095702], [69.25519561767578, -70.46378326416003], [69.22308349609375, -70.43800354003893], [69.22288513183594, -70.40361022949207], [69.18132781982422, -70.36321258544909], [69.14883422851562, -70.31626129150378], [69.13243103027344, -70.30267333984361], [69.05689239501953, -70.29915618896472], [68.9693374633789, -70.30187988281237], [68.94954681396484, -70.30039978027331], [68.91732025146484, -70.29476165771472], [68.87732696533203, -70.29499053955065], [68.68644714355469, -70.33706665039051], [68.63223266601562, -70.35161590576159], [68.60751342773438, -70.36454772949206], [68.5919189453125, -70.3848419189452], [68.59182739257812, -70.3990783691405], [68.58438873291016, -70.41544342041004], [68.58853912353514, -70.4647979736327], [68.58328247070312, -70.49014282226551], [68.57595825195312, -70.49944305419909], [68.55499267578125, -70.50163269042957], [68.53233337402344, -70.49132537841786], [68.51656341552734, -70.48902130126942], [68.49322509765625, -70.49342346191395], [68.47006225585938, -70.48600769042957], [68.45821380615234, -70.47196960449207], [68.4498977661133, -70.46791839599598], [68.42733764648438, -70.46842193603504], [68.42232513427734, -70.4617233276366], [68.44154357910156, -70.43660736083973], [68.44137573242188, -70.4231796264647], [68.4293212890625, -70.40925598144518], [68.3856201171875, -70.40131378173815], [68.34429931640625, -70.40553283691395], [68.2785873413086, -70.41883850097643], [68.19674682617188, -70.43814849853503], [68.13642120361327, -70.46817779541003], [68.07919311523438, -70.47960662841786], [68.02483367919922, -70.44754028320301], [67.9778060913086, -70.44774627685534], [67.93704986572266, -70.44003295898425], [67.8839111328125, -70.42368316650379], [67.84913635253906, -70.41607666015614], [67.82181549072266, -70.41251373291003], [67.76377868652344, -70.40860748291004], [67.72396087646486, -70.40420532226551], [67.7001953125, -70.39536285400379], [67.68329620361328, -70.37957763671862], [67.68640899658205, -70.36828613281237], [67.69493103027344, -70.35850524902332], [67.75406646728516, -70.34022521972645], [67.76243591308594, -70.33528137207018], [67.756103515625, -70.32954406738267], [67.71317291259766, -70.32433319091784], [67.69727325439453, -70.32215881347643], [67.70429229736328, -70.30854034423815], [67.72350311279297, -70.29683685302722], [67.75205993652344, -70.2778396606444], [67.75447845458984, -70.26575469970687], [67.71947479248047, -70.25360870361314], [67.67037200927734, -70.23619842529284], [67.65796661376953, -70.23162841796862], [67.66569519042969, -70.21069335937484], [67.66474151611328, -70.19712066650378], [67.65021514892578, -70.18807220458972], [67.5971221923828, -70.18354797363266], [67.54969787597656, -70.18334960937489], [67.52135467529297, -70.18115234374986], [67.50194549560547, -70.17419433593737], [67.48392486572266, -70.16661834716784], [67.4844741821289, -70.15923309326158], [67.50554656982423, -70.12976837158189], [67.51871490478516, -70.1134109497069], [67.51058959960938, -70.09660339355456], [67.48982238769531, -70.08844757080064], [67.47906494140625, -70.08128356933581], [67.48412322998047, -70.0687103271483], [67.48133087158203, -70.04209136962875], [67.46965026855469, -70.0319900512694], [67.46666717529298, -70.0196685791014], [67.4817886352539, -70.0106811523436], [67.50286102294922, -70.00072479248033], [67.51453399658203, -69.99619293212875], [67.57587432861328, -69.99265289306626], [67.63850402832031, -70.00210571289047], [67.67776489257812, -70.00630950927719], [67.73020935058594, -70.01272583007798], [67.765869140625, -70.01323699951156], [67.81156921386719, -70.006622314453], [67.87207794189453, -69.98694610595687], [67.86938476562501, -69.97658538818345], [67.8666000366211, -69.9637603759764], [67.8685073852539, -69.95292663574203], [67.8332748413086, -69.94966125488266], [67.8026351928711, -69.93698883056625], [67.81415557861328, -69.92729187011702], [67.8330078125, -69.92482757568344], [67.86112213134766, -69.92282867431625], [67.86307525634766, -69.91811370849594], [67.84014892578125, -69.90918731689437], [67.81800842285156, -69.89955902099592], [67.81327056884766, -69.88806152343736], [67.82140350341798, -69.88128662109361], [67.84626770019531, -69.8767242431639], [67.90414428710938, -69.87354278564437], [67.96121215820312, -69.87773132324203], [68.0111083984375, -69.88318634033187], [68.01547241210938, -69.88043975830062], [68.01040649414062, -69.86956024169908], [68.01465606689453, -69.86266326904281], [68.04205322265625, -69.85473632812483], [68.06954956054688, -69.85249328613267], [68.09284210205078, -69.85063171386702], [68.10215759277344, -69.84123229980453], [68.11893463134767, -69.82360839843734], [68.14097595214844, -69.81108856201155], [68.18241119384766, -69.80805206298812], [68.20654296875, -69.81045532226545], [68.23030090332031, -69.81761932373031], [68.25538635253906, -69.82688903808578], [68.264892578125, -69.84419250488267], [68.28518676757814, -69.86951446533189], [68.32435607910156, -69.89476013183578], [68.35270690917969, -69.90749359130847], [68.39503479003906, -69.92800903320297], [68.48764038085938, -69.95886993408187], [68.51841735839844, -69.97123718261705], [68.53437805175781, -69.97975158691392], [68.51618957519531, -70.00044250488267], [68.52774047851562, -70.00823211669908], [68.57301330566406, -70.01524353027328], [68.61286163330078, -70.01708221435531], [68.68161010742188, -70.01515960693347], [68.72748565673828, -70.00473785400375], [68.75756072998047, -69.99493408203111], [68.77947235107422, -69.99446105957017], [68.81651306152344, -69.99716186523422], [68.85881042480469, -69.99228668212876], [68.90303039550781, -69.97836303710922], [68.9368667602539, -69.96531677246078], [68.95111083984375, -69.9594650268553], [68.95442962646484, -69.95058441162095], [68.96802520751953, -69.9445190429686], [68.98052978515625, -69.93865203857406], [68.99067687988281, -69.93012237548815], [68.99575805664062, -69.92604064941392], [69.01986694335938, -69.91930389404283], [69.02300262451172, -69.91339874267562], [69.01730346679688, -69.90373229980452], [69.03894805908203, -69.89285278320297], [69.08412170410156, -69.88751983642562], [69.11543273925781, -69.88114929199202], [69.1479721069336, -69.87034606933578], [69.1768569946289, -69.85675811767562], [69.19628143310547, -69.84606933593734], [69.19405364990234, -69.83632659912092], [69.1829605102539, -69.82746124267562], [69.221435546875, -69.81506347656233], [69.2317886352539, -69.81057739257798], [69.22715759277344, -69.80527496337874], [69.21354675292969, -69.80529785156233], [69.18458557128906, -69.80691528320297], [69.15914916992188, -69.80419921874984], [69.13131713867188, -69.79737854003889], [69.07965087890625, -69.77979278564436], [69.03276062011719, -69.7685928344725], [68.97813415527344, -69.7554855346678], [68.9316635131836, -69.74627685546858], [68.88713073730469, -69.73493957519514], [68.88883972167969, -69.72684478759749], [68.90591430664062, -69.71899414062484], [68.93260192871092, -69.71749877929672], [68.95537567138673, -69.71765136718734], [68.97095489501953, -69.71394348144516], [69.09866333007812, -69.70959472656233], [69.11753845214844, -69.70378875732406], [69.12053680419922, -69.69443511962875], [69.14073181152344, -69.69024658203107], [69.19949340820312, -69.6925964355467], [69.27872467041016, -69.68995666503892], [69.30658721923828, -69.68303680419906], [69.33824157714844, -69.65749359130842], [69.35096740722656, -69.64495086669906], [69.36487579345703, -69.63536834716781], [69.36563873291016, -69.61404418945297], [69.34249877929688, -69.60498046874983], [69.07782745361328, -69.56677246093733], [68.96610260009766, -69.5650558471678], [68.95376586914062, -69.5659332275389], [68.9016342163086, -69.56723022460919], [68.830810546875, -69.56200408935528], [68.7772216796875, -69.55618286132795], [68.72901153564453, -69.54275512695295], [68.721923828125, -69.53889465332013], [68.72203826904297, -69.52949523925763], [68.73860931396484, -69.52017211914045], [68.77197265625, -69.51059722900372], [68.88731384277344, -69.48465728759746], [68.90838623046875, -69.47955322265608], [68.92524719238281, -69.46701812744125], [68.8377914428711, -69.42115783691388], [68.82991790771484, -69.4142990112303], [68.83638000488281, -69.40469360351543], [68.85472106933594, -69.39453887939433], [68.87345886230469, -69.38587951660139], [68.88874816894531, -69.37567138671857], [68.89907836914062, -69.3662338256834], [68.89424133300781, -69.35473632812483], [68.9059829711914, -69.35055541992168], [68.94014739990234, -69.34363555908185], [68.95646667480469, -69.34838104248027], [69.12345886230469, -69.35759735107403], [69.1399612426758, -69.36125946044903], [69.16697692871094, -69.3731918334959], [69.30757904052734, -69.3880081176756], [69.35264587402344, -69.38031005859355], [69.37841796875, -69.37435913085919], [69.40271759033203, -69.37073516845683], [69.42688751220703, -69.37393951415997], [69.44491577148438, -69.38100433349591], [69.46507263183594, -69.38798522949199], [69.51087951660156, -69.38430786132794], [69.61477661132812, -69.36534881591777], [69.7157974243164, -69.32564544677714], [69.7532958984375, -69.27884674072249], [69.75952911376953, -69.25918579101544], [69.7728271484375, -69.23757934570293], [69.78477478027344, -69.21123504638652], [69.75041198730469, -69.17514038085918], [69.67786407470703, -69.15476226806621], [69.61994171142578, -69.1358947753904], [69.46943664550781, -69.12934875488261], [69.43815612792969, -69.1119155883787], [69.29731750488283, -69.10487365722634], [69.21810913085938, -69.10533142089824], [69.19268035888672, -69.09791564941385], [69.19731903076172, -69.08882141113259], [69.20995330810547, -69.0843048095701], [69.22657012939453, -69.07836914062479], [69.26700592041016, -69.07160186767557], [69.30939483642578, -69.06580352783183], [69.49076843261719, -69.01775360107399], [69.5796890258789, -69.00820922851541], [69.59521484375, -68.99949645996072], [69.63094329833984, -68.99009704589821], [69.67439270019531, -68.98332977294898], [69.7241897583008, -68.97204589843729], [69.7593765258789, -68.96512603759741], [69.75590515136719, -68.92374420165993], [69.77386474609376, -68.90933990478493], [69.82603454589844, -68.90145111083962], [69.8597412109375, -68.87882995605446], [69.81232452392578, -68.8664627075193], [69.79149627685547, -68.86154937744116], [69.74568939208984, -68.8643875122068], [69.69110107421875, -68.86351013183571], [69.62028503417969, -68.86546325683571], [69.55162811279297, -68.8711776733396], [69.52226257324219, -68.86974334716774], [69.41996002197266, -68.87348937988257], [69.36125183105469, -68.85472869873024], [69.36490631103516, -68.82865905761695], [69.38633728027344, -68.81384277343726], [69.48151397705078, -68.78886413574196], [69.55884552001953, -68.7699279785154], [69.67195892333984, -68.71352386474585], [69.67539978027344, -68.71112060546851], [69.69050598144531, -68.69628906249976], [69.69731140136719, -68.68572235107398], [69.70409393310547, -68.66547393798804], [69.7197494506836, -68.64713287353491], [69.76057434082031, -68.61748504638648], [69.78601837158203, -68.60298156738254], [69.82538604736328, -68.5921478271482], [69.85295867919922, -68.59691619873021], [69.880859375, -68.59062194824192], [69.92349243164062, -68.58915710449193], [69.94441223144531, -68.58979797363257], [69.97290802001953, -68.578918457031], [70.06592559814453, -68.51972961425754], [70.08415222167969, -68.50820159912084], [70.09458923339844, -68.49170684814428], [70.10247802734375, -68.48667144775364], [70.11594594085979, -68.48487627985072], [70.15067472308398, -68.48777496108434], [70.1771586286284, -68.48730145356423], [70.22179622894625, -68.48584156098079], [70.25445530737058, -68.49732761378742], [70.26600072048443, -68.5075389593102], [70.26086928348496, -68.52129786009687], [70.25505088023492, -68.52954323964663], [70.2660439013755, -68.54262842222226], [70.28287852389008, -68.54950591211502], [70.27018712147175, -68.55811242223271], [70.27345368684107, -68.57032019711265], [70.28983012752269, -68.57978104368318], [70.28680586250496, -68.59668905937811], [70.2895777083952, -68.61594640630311], [70.30673661178793, -68.63338960889581], [70.3200093267492, -68.6427891058527], [70.3265782354406, -68.6460087103449], [70.34142181311456, -68.65158640899142], [70.33804521542108, -68.66404459901678], [70.34050188046014, -68.67145274110662], [70.34604845028436, -68.6757175726496], [70.34480485897576, -68.68028757997381], [70.35611162167108, -68.68529246278631], [70.36331377010858, -68.69450877138007], [70.37381181698358, -68.69704935975896], [70.3539047241211, -68.69966888427717], [70.38679010637816, -68.70860720999126], [70.42255053601295, -68.71254461872648], [70.47872309037862, -68.70491549655007], [70.52807590441319, -68.70955691527395], [70.58056640625, -68.71708679199203], [70.66264343261719, -68.706214904785], [70.6753779688592, -68.7035024477113], [70.68894796397214, -68.70291127787124], [70.69437408447266, -68.69752502441389], [70.6980209350586, -68.69374084472639], [70.69490814208984, -68.68486022949203], [70.68816375732422, -68.67975616455062], [70.6917953491211, -68.67597198486312], [70.6936991793115, -68.6683054353883], [70.71118149889209, -68.65837158121451], [70.73242251794997, -68.65250829841753], [70.75125356611225, -68.64362079810881], [70.77008638630265, -68.64052142884032], [70.78787589471662, -68.63105153519933], [70.80457120723307, -68.60943307204084], [70.82490046908279, -68.60305596579941], [70.8430214847056, -68.5978441782416], [70.8719308006375, -68.5979539442514], [70.89902256053857, -68.6065849752925], [70.93370056152345, -68.61759948730453], [70.94891351586259, -68.6260679752491], [70.97120064934177, -68.63263182945842], [71.00242614746094, -68.64318847656233], [71.00923919677734, -68.64828491210919], [71.02619582562659, -68.65608268193375], [71.02970123291016, -68.66355133056624], [71.03295135498047, -68.67243194580061], [71.02937316894531, -68.6762161254881], [71.03263092041016, -68.6850967407225], [71.07269171031929, -68.68585405033194], [71.15135681398404, -68.67251872551019], [71.22197644434753, -68.67711220620286], [71.28035592176472, -68.68207831177074], [71.32097150918105, -68.69984740432106], [71.30329051240858, -68.68338542832713], [71.28993027899497, -68.66842540888874], [71.28459252123885, -68.65762922329598], [71.31261073943976, -68.6354609316855], [71.32730358194546, -68.61901212092624], [71.33802077946892, -68.61554944252683], [71.34823101114468, -68.60891080256688], [71.36564128946499, -68.60260129328954], [71.38958162024683, -68.5959780316031], [71.44725134129416, -68.57904967438267], [71.45411632953883, -68.57758150782456], [71.48970028249212, -68.58979703647694], [71.5279573749128, -68.59446879089951], [71.54528372989327, -68.60080881775498], [71.57648795352608, -68.60460825623154], [71.59941189002082, -68.6137566269968], [71.61044568454209, -68.62188893387172], [71.63937991921013, -68.62668819169312], [71.68706439587103, -68.62345763488246], [71.73077492515172, -68.62033898725079], [71.73186260540596, -68.61518482465718], [71.76803955181916, -68.60308254268583], [71.79443671272473, -68.60280369955585], [71.83258244999094, -68.58717629972405], [71.87845066487567, -68.57633394358544], [71.91836534389645, -68.5669242722331], [71.99383912797346, -68.56606549045111], [72.05197222032128, -68.55187095443965], [72.1232868380497, -68.55055590283084], [72.16261861117125, -68.55746812847578], [72.18982032471222, -68.55491535453687], [72.24007198890746, -68.55780331846994], [72.28170082889788, -68.56400568798331], [72.31569794868953, -68.56774675438331], [72.33409919635987, -68.57028553242782], [72.37826645472603, -68.57538352863367], [72.40095759179515, -68.58173256348738], [72.43047038857652, -68.59151782200907], [72.48529187385508, -68.59352838169104], [72.52327428288444, -68.59514018629153], [72.56101207553486, -68.5754559491686], [72.60528624868242, -68.57292321708607], [72.64897315205457, -68.58211440257838], [72.76529639510882, -68.59391755627755], [72.78849820193241, -68.6031121534372], [72.81344383672624, -68.60937158300517], [72.81504982380768, -68.61480041216738], [72.8111778833342, -68.62150912033702], [72.82505915169135, -68.62276025865492], [72.83089452985243, -68.62866425203154], [72.83748194425647, -68.6340984187724], [72.82678265541323, -68.65048293069049], [72.80169819180297, -68.67016718621281], [72.69183231095109, -68.76197555195024], [72.65913840014728, -68.7811810279018], [72.63070879096765, -68.79980811689015], [72.630916155609, -68.81112139921636], [72.61547009006094, -68.83259240815589], [72.36634354286664, -68.82417268859793], [72.61658588242649, -68.84202282118369], [72.70226602315668, -68.89144162255981], [72.75835100483233, -68.91847677891626], [72.83127041435516, -68.95275558984632], [72.71101631358556, -68.86667813337236], [72.6776035617179, -68.83730687264115], [72.70413808349784, -68.82666824815954], [72.7297550944136, -68.80883105232175], [72.7415488830021, -68.8043947518346], [72.81747101104163, -68.78039123528536], [72.95024309223399, -68.73643562333581], [73.01650928107456, -68.70347533704847], [73.03290738894268, -68.70129045672446], [73.04586943830536, -68.70107175960638], [73.0955782971265, -68.70699108291774], [73.12102881266509, -68.70671819260258], [73.14259277259379, -68.70872673724925], [73.18562459709275, -68.70558507523508], [73.21010953670954, -68.70975144542435], [73.22389851329275, -68.71433887660984], [73.25645814172667, -68.72085081993909], [73.26766204833984, -68.72367858886703], [73.28561495719292, -68.73061028907586], [73.29301452636719, -68.7348098754881], [73.30530534362836, -68.74456402102383], [73.33386577296916, -68.74985136345921], [73.3426808406816, -68.76364830635721], [73.34837181508773, -68.77078843968926], [73.39138194959892, -68.78453675021697], [73.40641021728516, -68.79309844970686], [73.45291106765154, -68.82208365430739], [73.47245393311675, -68.82413427790269], [73.5014160133547, -68.83822668159914], [73.50785753725799, -68.84198562341942], [73.56113101976514, -68.84481111911158], [73.58748053473887, -68.84884633994497], [73.59810638427734, -68.85541534423812], [73.60960354141355, -68.86720434017204], [73.61401605042003, -68.87492474226666], [73.62191772460938, -68.88301086425767], [73.63078942794463, -68.89028179371108], [73.60904621425941, -68.8979948945468], [73.61376953125, -68.90721130371078], [73.62985095074383, -68.92058502805916], [73.66069045567986, -68.9210809021447], [73.70316071452544, -68.9332312157337], [73.72250647728778, -68.94723473924114], [73.73816448037387, -68.95631171444609], [73.81581115722656, -69.01612854003892], [73.81269073486328, -69.0199813842772], [73.82755395794547, -69.02932528683552], [73.84142738739205, -69.04042127689056], [73.84505535475577, -69.05815723853712], [73.87525504286438, -69.07981949520752], [73.88785402321503, -69.08841998719828], [73.91388139667217, -69.10725031177283], [73.89758580354523, -69.11084810936441], [73.93088616364552, -69.11550164649448], [73.95804087969486, -69.11212658805835], [73.9706497441777, -69.10330484325648], [74.02942552421139, -69.14370113598738], [74.0447006225586, -69.15237426757798], [74.06791687011719, -69.16725158691393], [74.0787582397461, -69.16835021972642], [74.12187344220611, -69.20412161942268], [74.13298434518819, -69.2126639636058], [74.20669637960823, -69.24856210027347], [74.2266919862999, -69.26630556813849], [74.23621795400108, -69.2719822504931], [74.29059365636066, -69.30144110145973], [74.30434112339648, -69.31936008388634], [74.31215873576507, -69.32828859401529], [74.3272476196289, -69.34339141845692], [74.33512115478516, -69.34834289550768], [74.31152847390442, -69.3489239626077], [74.22871667139225, -69.31051214353157], [74.25767535386143, -69.33041529477103], [74.2851791381836, -69.35173034667955], [74.28997039794923, -69.36054229736315], [74.3290469461351, -69.37915149964704], [74.34516906738281, -69.39518737792955], [74.35036291578145, -69.39913788999444], [74.3569737309338, -69.40702350377789], [74.35996701627602, -69.41093950180132], [74.32342128183286, -69.41314705773772], [74.29707175119397, -69.41414730037923], [74.25129040007562, -69.41447523395412], [74.1596489314278, -69.40757512901395], [74.10499923901072, -69.40805956611331], [74.06964874267578, -69.41364288330068], [74.03210265432713, -69.4191865966065], [73.99188471364903, -69.41911829934676], [73.9339629200542, -69.40752901238791], [73.84191635352558, -69.40625638733903], [73.91846765338846, -69.41154978142471], [73.99429114951349, -69.43211800189506], [74.02698310507989, -69.43657356830131], [74.05139716757989, -69.4390378627349], [74.08693210843062, -69.4433360744837], [74.11741146538608, -69.44648750752698], [74.12699414507837, -69.45849765538286], [74.11772592741154, -69.46485427729493], [74.11666263755713, -69.46915519022407], [74.14497022055048, -69.47444180192005], [74.16758285837223, -69.47906716737148], [74.19208084421207, -69.48962624940272], [74.2135434524269, -69.49645953635451], [74.21296605023163, -69.5004097651051], [74.19191592949795, -69.50277458653517], [74.18179649517143, -69.51091948175974], [74.16625931620426, -69.51335778732609], [74.15928687238979, -69.5152683782143], [74.16897257047795, -69.5198545824707], [74.17528205459931, -69.52346250997158], [74.18400406312492, -69.52646388936179], [74.18027759080131, -69.5297572343729], [74.13398416715764, -69.53028396479492], [74.12957623118521, -69.5358876080455], [74.10854747842686, -69.53879268629207], [74.1059003951892, -69.53329277219308], [74.09054284237622, -69.53300057281979], [74.0217403694857, -69.53671799527392], [73.93790713421541, -69.54111784732883], [73.90554066000475, -69.54242373856103], [73.8795425103444, -69.54582988304541], [73.88182323346794, -69.55659320448349], [73.8414441947142, -69.57430404551364], [73.79717314750924, -69.56633585929426], [73.82721000156572, -69.57997565808364], [73.78884509149184, -69.5888910859978], [73.7577664499088, -69.58831107665243], [73.73776348417874, -69.60239349792768], [73.71519279789291, -69.60685274048188], [73.72963730216298, -69.61229805731605], [73.72002107461368, -69.61591056927323], [73.71924075416476, -69.62085548532848], [73.70764279975175, -69.62842202540658], [73.70718495218992, -69.63149303084383], [73.6950912475586, -69.64691162109364], [73.68534088134766, -69.6505661010741], [73.68309424453813, -69.65406271094146], [73.70262145996094, -69.66976928710928], [73.70209503173828, -69.67436218261709], [73.70555114746094, -69.67820739746082], [73.71480560302734, -69.67914581298817], [73.71247863769531, -69.68588256835926], [73.71286010742188, -69.68939971923817], [73.71721649169922, -69.69217681884754], [73.71218872070312, -69.70213317871082], [73.71875762939453, -69.70627593994129], [73.71604919433594, -69.70950317382804], [73.73619261360854, -69.71698760529206], [73.72850434595786, -69.72403231751153], [73.70997619628906, -69.72865295410145], [73.68186950683594, -69.742088317871], [73.68351745605469, -69.74806976318348], [73.68789672851562, -69.75083923339832], [73.69983287521767, -69.75217647397696], [73.71734186059878, -69.75447542869203], [73.7361068725586, -69.7533950805663], [73.74693878287452, -69.75687009787258], [73.82295989990234, -69.74586486816396], [73.84270422948616, -69.74993071959473]], [[67.80921166135006, -70.06101580794903], [67.82027620873322, -70.06342044424058], [67.82832515092947, -70.06410757860198], [67.84188720186556, -70.06123712321077], [67.85806047590623, -70.05829656952979], [67.86876025014237, -70.05675652428229], [67.88641935744836, -70.05574936214877], [67.91793818574862, -70.0601174794705], [67.9375374647055, -70.0606695730339], [67.94996644825056, -70.0597962048222], [67.96177323211211, -70.05624436081844], [67.96513791597187, -70.04807045433941], [67.95717059503704, -70.04092163175476], [67.95068019737406, -70.0378638806715], [67.94483777848963, -70.0353273170845], [67.91898507549274, -70.03260969413463], [67.89744745256722, -70.03264673776222], [67.87234363302815, -70.03780412228], [67.83830140799489, -70.04301324158239], [67.81429669919392, -70.04615703274021], [67.8006533503764, -70.05333734274657], [67.80921166135006, -70.06101580794903]], [[68.67222011030708, -71.52368501681542], [68.68798317917705, -71.54074164462757], [68.6995248858149, -71.5490729974897], [68.71464277598027, -71.55007588949049], [68.72693517323701, -71.55116046975026], [68.73699611362775, -71.54851733487666], [68.765782502623, -71.54170905931133], [68.78508608949481, -71.5337325844054], [68.79465082177909, -71.52369589910803], [68.79993767070029, -71.51270261208053], [68.79244408685057, -71.50660502773734], [68.78258061306998, -71.49245161076313], [68.76022407254476, -71.4763218965624], [68.7352852533673, -71.46676743013475], [68.70937749958583, -71.46355802159195], [68.68922192550245, -71.46450988917833], [68.66805432961324, -71.47180767379157], [68.66120882018717, -71.47958947182164], [68.6570811037345, -71.49288893566052], [68.66603677265574, -71.512128294328], [68.67222011030708, -71.52368501681542]], [[68.49823202280193, -72.22393786311805], [68.47035677613233, -72.2422327150519], [68.43239296020373, -72.26278135094076], [68.38614783550244, -72.29836971526501], [68.38728775776708, -72.3128085729294], [68.39963549099336, -72.31646200793972], [68.41098621821173, -72.31869419287003], [68.44324352470132, -72.3191040209766], [68.49430735395909, -72.31050124477673], [68.55461032158072, -72.29909921784676], [68.63551611677372, -72.27932670343927], [68.714382118656, -72.26319168228001], [68.75598338856148, -72.25170117092775], [68.80558930095133, -72.23942825460861], [68.83933614402802, -72.22398036391242], [68.84872743581514, -72.20651840025172], [68.84978631185577, -72.18893627397968], [68.84344870656398, -72.17609281573223], [68.83470728632648, -72.17073736882269], [68.82502176249385, -72.16613272545547], [68.82466838560399, -72.16306731311414], [68.82573880367924, -72.15887524264393], [68.82246134535946, -72.15589446950825], [68.81231260256662, -72.15166489349295], [68.80753969902943, -72.14764175333787], [68.80881285796015, -72.14217786078054], [68.8077136572768, -72.13859152931022], [68.78199644856495, -72.11997680118775], [68.76427027439803, -72.10619636310093], [68.76473795219752, -72.09804371783757], [68.7602620610022, -72.09491647820519], [68.75090873663409, -72.0912054558545], [68.74332009305935, -72.08943310821576], [68.72624865999114, -72.08738846889152], [68.68364860637271, -72.10216111471698], [68.65440472615875, -72.11853748068204], [68.6357287582177, -72.13099648634267], [68.61686443638494, -72.14689467386519], [68.59055546266187, -72.16968822715664], [68.5497402253939, -72.19160990773179], [68.51688292690392, -72.21276151848026], [68.50525686048822, -72.21958794166977], [68.49823202280193, -72.22393786311805]], [[69.9005547727176, -71.89921525846934], [69.88940816441347, -71.89580369417209], [69.87470371895395, -71.89541469211285], [69.84314385945164, -71.89996095332921], [69.77562614087391, -71.91969191141446], [69.74224505128632, -71.93732114426967], [69.71350910279351, -71.96492660237467], [69.70342667044093, -71.98265667665295], [69.70434695258423, -71.99349250029317], [69.70879932712118, -72.00601994151472], [69.72894300561647, -72.02634655675513], [69.74229521119156, -72.04889808443508], [69.75357026703698, -72.05576005191902], [69.76382558127663, -72.05649671066114], [69.77756489792156, -72.0554828958], [69.78446281922234, -72.04854282789145], [69.79738966079043, -72.02255322444165], [69.8057429965276, -72.01320695016906], [69.83655976318083, -71.99311809043681], [69.86592422787454, -71.97887087559462], [69.88690689141694, -71.9658175991309], [69.9011962088638, -71.95372129346205], [69.90735196084108, -71.94498985601689], [69.92269357996929, -71.91673072904095], [69.91443744808811, -71.90850780556087], [69.9005547727176, -71.89921525846934]], [[72.49315959124607, -70.05784711742015], [72.48970392296404, -70.05044561574714], [72.48017793088104, -70.0459042472921], [72.46572973025127, -70.04668914666726], [72.46080041802992, -70.05201583330117], [72.45373431443498, -70.05594033307179], [72.43730234475306, -70.05885341183948], [72.43236222097514, -70.06417945383916], [72.42132963791099, -70.07236356829621], [72.41112506864371, -70.07594902292162], [72.41539184167318, -70.0787545016757], [72.41455546840945, -70.08335269320425], [72.4188243516786, -70.08615814607103], [72.41600740694024, -70.09288685230491], [72.41616143752519, -70.09642003161426], [72.43606982466984, -70.10091231223412], [72.44743173620006, -70.0997928741153], [72.45681493243235, -70.10080359948442], [72.46109370785982, -70.10360812237066], [72.48793215395064, -70.10063573320893], [72.51707781883464, -70.10259375622498], [72.53353468794802, -70.09967249257754], [72.56053685513547, -70.10022165935447], [72.56446847784454, -70.09595737093312], [72.57465530469881, -70.09236240267333], [72.58698548397096, -70.09016744630907], [72.59403717292066, -70.08623695011349], [72.60108602406011, -70.08230620375433], [72.6093002393739, -70.08084174985476], [72.61615400818211, -70.07337765501792], [72.62631955720701, -70.06977979727769], [72.6345266173607, -70.06831416444564], [72.63941268499703, -70.06298214257535], [72.6454676118338, -70.06011620217969], [72.65991844163975, -70.05931579532302], [72.66479533988169, -70.0539831769446], [72.66654643352457, -70.04831766202769], [72.68508465185047, -70.0467814149106], [72.69092463561802, -70.04038162630371], [72.69911452830983, -70.0389129652958], [72.7082751129921, -70.036377185628], [72.70904050830458, -70.03177823082117], [72.72346781810927, -70.03097242041872], [72.72519988498651, -70.0253066816555], [72.73123061238626, -70.02243797036715], [72.72693095017154, -70.01964101995063], [72.7226325153599, -70.0168439823732], [72.72554239339749, -70.01364372878513], [72.73018013482015, -70.00477800891079], [72.72276782767254, -70.00164943133251], [72.70095411398741, -69.99932559079109], [72.6927808904965, -70.00079417001743], [72.68149043071539, -70.00192984136831], [72.67214302809602, -70.00093194994145], [72.66202157933012, -70.0045318484301], [72.65072718768579, -70.0056654574438], [72.64040558395588, -70.00573207396867], [72.63612254459811, -70.00293293507617], [72.6406044937561, -69.99053810492003], [72.64138395669542, -69.9859400861288], [72.63301962136605, -69.98387388079574], [72.6266042532225, -69.97967512879866], [72.63536144883041, -69.97008038013225], [72.62389489789926, -69.96768041779974], [72.61261949907858, -69.96881133175883], [72.60872378190916, -69.97307514162905], [72.60171567001677, -69.97700493951452], [72.59372940716821, -69.98200037915468], [72.58513018700208, -69.99512523473342], [72.5853139071133, -69.99865722329795], [72.58958875884476, -70.00145762552235], [72.58275002084068, -70.0089190499916], [72.57670174344999, -70.0117822934333], [72.56575897836422, -70.01997459840939], [72.55970480452422, -70.02283732164392], [72.55890469654425, -70.02743545743873], [72.5489262446934, -70.03456118654196], [72.54518045527736, -70.04235682744867], [72.52467102174165, -70.0460089696365], [72.51449914962456, -70.04960041753634], [72.50530730871085, -70.05212569507256], [72.49923433830116, -70.05498650406777], [72.49315959124607, -70.05784711742015]], [[70.5130155780005, -71.7673173333083], [70.50474242783893, -71.76577314591181], [70.49903010186064, -71.76639464452865], [70.49174035169155, -71.76840964077464], [70.49418811640325, -71.77244570724318], [70.50010684660144, -71.77341552951134], [70.50823316940597, -71.77243381202508], [70.51216585834858, -71.77161472132654], [70.5130155780005, -71.7673173333083]], [[68.05148492230326, -70.2837592806816], [68.03837239093626, -70.28292715078896], [68.0317178816167, -70.2845612537772], [68.026637881272, -70.29117301298339], [68.03129556289625, -70.29593530030346], [68.0418185190176, -70.29736717528608], [68.05334558862258, -70.2948071935267], [68.0600131617153, -70.29158633267451], [68.06020454617472, -70.28748513420773], [68.05148492230326, -70.2837592806816]]]}}]}