{"type": "FeatureCollection", "features": [{"id": "0", "type": "Feature", "properties": {"NAME": "Bach", "Regions": "Peninsula", "TYPE": "FL"}, "geometry": {"type": "Polygon", "coordinates": [[[-72.63658142089844, -72.27033233642574], [-72.6673899572533, -72.26969277617931], [-72.73849487304688, -72.26926422119136], [-72.7630088693534, -72.27012362447559], [-72.80972763932505, -72.27218206722142], [-72.86163330078125, -72.26205444335932], [-72.88876342773438, -72.25048828124996], [-72.9337158203125, -72.24411773681636], [-72.97592163085938, -72.23278045654293], [-72.99284305932078, -72.22831833481], [-72.99813389184432, -72.21718873693135], [-73.02850341796875, -72.20713043212885], [-73.03955078125, -72.19993591308588], [-73.02978515625, -72.19432067871088], [-73.03478634439817, -72.18931390889988], [-73.03833258748307, -72.18358783276845], [-73.04156745076432, -72.18036822827624], [-73.03668463826432, -72.17756061108877], [-73.03988898396744, -72.17433337720203], [-73.03647464810001, -72.16693151251665], [-73.03670069992683, -72.16133045218125], [-73.03783504626753, -72.1563363494582], [-73.05507844085787, -72.13512301744139], [-73.09811401367188, -72.12551879882808], [-73.13596613905457, -72.11754512597888], [-73.1571044921875, -72.11222076416009], [-73.17597867146412, -72.10132353387041], [-73.1912252694729, -72.08959924222523], [-73.21397250542603, -72.08726995881273], [-73.23248291015625, -72.08988189697259], [-73.23191387365924, -72.08658209027381], [-73.26490838139729, -72.07349672378618], [-73.27363640874104, -72.06843843521199], [-73.31812298302938, -72.0640580651795], [-73.38566275060865, -72.06018745529872], [-73.49327141850667, -72.04993715347369], [-73.53361565678792, -72.03956117691119], [-73.57789633912468, -72.03531551447607], [-73.57628631591797, -72.03094482421871], [-73.54325866699219, -72.02684020996088], [-73.52867889404297, -72.02552032470697], [-73.51750946044922, -72.0245056152343], [-73.50086975097656, -72.01737976074214], [-73.49130249023438, -72.01194000244134], [-73.4946060180664, -72.00849914550776], [-73.4923324584961, -72.00453948974602], [-73.50059509277344, -71.99592590332024], [-73.50946044921875, -71.99298858642574], [-73.51276397705078, -71.9895401000976], [-73.544921875, -71.98123931884759], [-73.555419921875, -71.97657012939447], [-73.57148742675781, -71.97241973876947], [-73.58361053466797, -71.9660339355468], [-73.59965515136719, -71.96187591552729], [-73.60293579101564, -71.95842742919915], [-73.6134033203125, -71.95375823974604], [-73.62943267822266, -71.94960021972649], [-73.63433074951172, -71.94442749023433], [-73.64479064941406, -71.93975830078118], [-73.66079711914062, -71.93560028076166], [-73.66405487060547, -71.93215179443351], [-73.67449188232422, -71.9274826049804], [-73.68492889404297, -71.92281341552726], [-73.69535827636719, -71.91814422607415], [-73.70578002929688, -71.91347503662104], [-73.73054504394531, -71.90635681152338], [-73.73540496826172, -71.9011840820312], [-73.7601318359375, -71.89406585693351], [-73.76336669921875, -71.89061737060541], [-73.77930450439453, -71.8864440917968], [-73.79129791259766, -71.88004302978509], [-73.80883026123048, -71.87414550781243], [-73.82312774658203, -71.8716964721679], [-73.82634735107422, -71.86824798583976], [-73.84063720703125, -71.86579895019524], [-73.83831024169922, -71.86184692382807], [-73.83758544921875, -71.85616302490227], [-73.83525848388672, -71.85221099853509], [-73.82579040527344, -71.84948730468743], [-73.82846069335938, -71.8377075195312], [-73.8329086303711, -71.82646179199212], [-73.81092071533203, -71.82491302490226], [-73.78607177734375, -71.82521057128899], [-73.7590560913086, -71.81926727294916], [-73.7437515258789, -71.819107055664], [-73.73152923583984, -71.82019042968744], [-73.72195434570312, -71.83013153076165], [-73.71463012695314, -71.83410644531243], [-73.6807632446289, -71.84157562255852], [-73.65650939941406, -71.84304809570305], [-73.63265228271484, -71.84413909912104], [-73.60892486572266, -71.84208679199212], [-73.59354400634766, -71.84737396240226], [-73.57109832763672, -71.8558731079101], [-73.55863189697267, -71.85214996337885], [-73.54914855957031, -71.84368133544915], [-73.54022979736328, -71.84120941162102], [-73.52571868896484, -71.84146881103509], [-73.50415802001953, -71.83322906494134], [-73.496826171875, -71.83071899414057], [-73.48250579833986, -71.82872009277338], [-73.47123718261719, -71.8276290893554], [-73.44646453857423, -71.83411407470697], [-73.43255615234375, -71.83590698242179], [-73.42210388183594, -71.84056091308587], [-73.41329193115234, -71.8434982299804], [-73.40506744384766, -71.85210418701165], [-73.39130401611328, -71.8601989746093], [-73.38904571533203, -71.86382293701168], [-73.38082885742188, -71.86485290527338], [-73.34375762939453, -71.872817993164], [-73.33847045898438, -71.88133239746087], [-73.31666564941406, -71.88892364501946], [-73.30093383789062, -71.89392089843743], [-73.2729721069336, -71.89911651611324], [-73.25276947021486, -71.90127563476557], [-73.23089599609375, -71.90741729736321], [-73.22212982177736, -71.90568542480462], [-73.20865631103516, -71.912612915039], [-73.17347717285156, -71.92465972900386], [-73.15413665771484, -71.92679595947259], [-73.13530731201172, -71.92528533935541], [-73.10778045654297, -71.92175292968746], [-73.10218048095703, -71.9269714355468], [-73.09623718261719, -71.93511962890621], [-73.08316040039062, -71.93907165527337], [-73.06770324707031, -71.93753814697259], [-73.0482177734375, -71.93764495849604], [-73.034423828125, -71.93762207031243], [-73.00457000732422, -71.93373870849604], [-72.9796142578125, -71.93054199218744], [-72.9614486694336, -71.92999267578118], [-72.94061279296875, -71.93225097656244], [-72.92440032958986, -71.92687988281244], [-72.91207885742188, -71.92574310302727], [-72.90219116210938, -71.92635345458979], [-72.89208221435548, -71.92839050292962], [-72.85772705078125, -71.91838073730462], [-72.84837341308594, -71.91560363769526], [-72.83563232421875, -71.91136932373038], [-72.82557678222656, -71.91002655029291], [-72.79489135742188, -71.90242004394524], [-72.78507232666016, -71.90011596679682], [-72.7662124633789, -71.89305114746087], [-72.76319122314453, -71.89049530029291], [-72.75282287597656, -71.88574218749993], [-72.740966796875, -71.88112640380852], [-72.7251205444336, -71.87207031249994], [-72.72304534912111, -71.86810302734368], [-72.72096252441406, -71.86413574218741], [-72.71888732910156, -71.86016845703118], [-72.72119903564453, -71.85664367675776], [-72.71733856201172, -71.84502410888665], [-72.7059555053711, -71.83940124511713], [-72.7000961303711, -71.8331909179687], [-72.6959457397461, -71.829849243164], [-72.69827270507812, -71.82631683349604], [-72.70137023925781, -71.82105255126949], [-72.70272827148438, -71.81365203857415], [-72.7027587890625, -71.80696868896479], [-72.69288635253906, -71.8005752563476], [-72.67499542236328, -71.7984542846679], [-72.66674041748047, -71.79366302490229], [-72.67150115966797, -71.79131317138665], [-72.68832397460938, -71.78199005126946], [-72.6935043334961, -71.77534484863274], [-72.69076538085938, -71.76189422607416], [-72.69041442871094, -71.75621795654291], [-72.6865234375, -71.74565887451166], [-72.6645736694336, -71.73683166503899], [-72.6575927734375, -71.73419189453118], [-72.63196563720703, -71.72979736328116], [-72.60376739501953, -71.7332687377929], [-72.57933807373047, -71.75238037109366], [-72.56485748291016, -71.7548751831054], [-72.55467224121094, -71.74890136718743], [-72.56018829345703, -71.74230957031241], [-72.55819702148438, -71.7375869750976], [-72.56238555908203, -71.73318481445304], [-72.55655670166016, -71.72627258300774], [-72.51818084716797, -71.72416687011712], [-72.50502014160156, -71.72840881347648], [-72.48941802978516, -71.72709655761712], [-72.4833755493164, -71.72046661376945], [-72.47747802734375, -71.7139129638671], [-72.45516967773438, -71.7022171020507], [-72.46141052246094, -71.68767547607413], [-72.45942687988281, -71.67712402343743], [-72.45362091064453, -71.66930389404288], [-72.45132446289062, -71.66660308837884], [-72.44384765625, -71.6644897460937], [-72.43449401855469, -71.66502380371087], [-72.4150390625, -71.66947937011712], [-72.40560150146484, -71.669448852539], [-72.39013671875, -71.66306304931632], [-72.39083099365234, -71.65763092041011], [-72.38457489013672, -71.65173339843743], [-72.38471984863281, -71.64804077148432], [-72.36101531982422, -71.6367874145507], [-72.3562240600586, -71.63420104980463], [-72.3530502319336, -71.62905120849602], [-72.35519409179688, -71.61910247802727], [-72.34200286865236, -71.61122131347649], [-72.32525634765625, -71.60475158691398], [-72.30265045166016, -71.60391998291007], [-72.28800964355469, -71.60765075683588], [-72.25808715820312, -71.61192321777337], [-72.24641418457031, -71.61986541748038], [-72.24203491210939, -71.62385559082021], [-72.24485778808594, -71.62989807128899], [-72.2422866821289, -71.63668060302727], [-72.22589111328125, -71.64082336425773], [-72.21780395507812, -71.64632415771477], [-72.1988754272461, -71.65505218505854], [-72.18517303466797, -71.6592407226562], [-72.17959594726562, -71.67128753662101], [-72.18209838867188, -71.67493438720695], [-72.18323516845703, -71.67829132080071], [-72.18647003173828, -71.68216705322257], [-72.18635559082031, -71.6850967407226], [-72.18773651123047, -71.68938446044915], [-72.18611145019531, -71.69284057617179], [-72.18722534179688, -71.69597625732415], [-72.18701934814453, -71.70018005371085], [-72.18282318115234, -71.70428466796871], [-72.18106079101562, -71.70765686035152], [-72.16616821289062, -71.70810699462885], [-72.14361572265625, -71.69721984863274], [-72.13443756103516, -71.69508361816398], [-72.12027740478516, -71.69458770751946], [-72.10562133789062, -71.70011138916007], [-72.09478759765625, -71.70524597167963], [-72.08854675292969, -71.71527862548821], [-72.07192993164062, -71.71902465820304], [-72.05108642578125, -71.72431182861324], [-72.02949523925781, -71.72679138183587], [-72.02314758300781, -71.73191833496085], [-72.02171325683594, -71.73997497558587], [-72.01912689208984, -71.74363708496087], [-72.01654052734375, -71.74707031249994], [-71.98395538330078, -71.74964904785149], [-71.96633911132814, -71.7532653808593], [-71.95852661132812, -71.75627136230462], [-71.94815063476562, -71.7599792480468], [-71.94358825683594, -71.76344299316399], [-71.93553161621094, -71.76699829101555], [-71.9226303100586, -71.7712783813476], [-71.90530395507812, -71.77260589599605], [-71.87378692626953, -71.76947784423822], [-71.85659790039062, -71.77066040039055], [-71.83392333984375, -71.78005981445305], [-71.82926177978516, -71.78450012207026], [-71.82256317138673, -71.78964996337884], [-71.82004547119142, -71.79574584960932], [-71.8204345703125, -71.80113220214838], [-71.82464599609375, -71.80566406249993], [-71.81825256347656, -71.8182830810546], [-71.83276367187499, -71.82453918457024], [-71.83267974853516, -71.82853698730463], [-71.82145690917969, -71.83457183837884], [-71.82161712646484, -71.83996582031246], [-71.83505249023438, -71.8467864990234], [-71.85125732421875, -71.8519210815429], [-71.85501098632814, -71.85456848144526], [-71.8555679321289, -71.86143493652337], [-71.860107421875, -71.86772918701166], [-71.8401107788086, -71.87725067138665], [-71.83123779296875, -71.87989807128899], [-71.82444763183594, -71.88427734374991], [-71.81849670410158, -71.8873748779296], [-71.80339813232422, -71.89218139648432], [-71.78925323486328, -71.89179229736321], [-71.7713623046875, -71.88691711425774], [-71.7660598754883, -71.8834152221679], [-71.74617004394531, -71.88129425048821], [-71.73709869384766, -71.88044738769523], [-71.69393920898438, -71.88175964355462], [-71.6812515258789, -71.88105773925777], [-71.65090942382812, -71.8761901855468], [-71.6401596069336, -71.87257385253898], [-71.62388610839844, -71.87007904052727], [-71.611328125, -71.86697387695307], [-71.58912658691408, -71.85701751708979], [-71.56703186035156, -71.85403442382805], [-71.54966735839844, -71.85208129882807], [-71.52717590332031, -71.84905242919913], [-71.51476287841797, -71.8445205688476], [-71.50203704833984, -71.84029388427727], [-71.48059844970703, -71.83806610107416], [-71.46945190429688, -71.83804321289055], [-71.4555435180664, -71.83719635009757], [-71.43922424316406, -71.83586883544915], [-71.40979766845703, -71.83005523681635], [-71.36026000976562, -71.83203887939446], [-71.31005859375, -71.84178161621087], [-71.29315185546875, -71.84545898437491], [-71.28443145751953, -71.8476486206054], [-71.27557373046875, -71.84951782226558], [-71.26554107666016, -71.85248565673822], [-71.25301361083984, -71.85662841796868], [-71.24391174316406, -71.85983276367179], [-71.23416137695312, -71.86228942871087], [-71.22316741943361, -71.86523437499991], [-71.20765686035156, -71.87065124511713], [-71.19087219238281, -71.8739624023437], [-71.18423461914062, -71.87735748291009], [-71.1719970703125, -71.88205718994135], [-71.15662384033203, -71.8845062255859], [-71.1517333984375, -71.8875885009765], [-71.14844512939453, -71.89043426513665], [-71.14814758300781, -71.89364624023432], [-71.14283752441406, -71.89870452880852], [-71.13410186767578, -71.89731597900385], [-71.11158752441406, -71.89897918701165], [-71.09674072265625, -71.89598083496085], [-71.08866882324219, -71.8942031860351], [-71.06434631347656, -71.88851165771479], [-71.04999542236328, -71.88142395019526], [-71.04176330566406, -71.87803649902338], [-71.03141784667969, -71.87236785888666], [-70.99864959716797, -71.87212371826165], [-70.97889709472656, -71.87284851074213], [-70.96698760986328, -71.87103271484371], [-70.95133972167969, -71.86729431152338], [-70.930419921875, -71.8643646240234], [-70.92140197753906, -71.86149597167963], [-70.91405487060547, -71.85712432861321], [-70.906982421875, -71.85316467285149], [-70.89241790771484, -71.84870147705072], [-70.88152313232422, -71.84751892089838], [-70.86896514892578, -71.84236145019523], [-70.85807800292969, -71.84118652343744], [-70.83436584472656, -71.84189605712885], [-70.8246078491211, -71.8416671752929], [-70.8028335571289, -71.84128570556634], [-70.7926254272461, -71.84124755859368], [-70.77373504638672, -71.84002685546868], [-70.76211547851562, -71.8423461914062], [-70.75337219238281, -71.84382629394524], [-70.74385833740234, -71.84621429443351], [-70.7354507446289, -71.85306549072261], [-70.728271484375, -71.85990142822259], [-70.7242202758789, -71.86371612548821], [-70.7248764038086, -71.8668365478515], [-70.73104095458984, -71.87397766113274], [-70.73406219482422, -71.87651824951165], [-70.7447509765625, -71.88095092773432], [-70.76182556152344, -71.88927459716791], [-70.76664733886719, -71.89238739013663], [-70.76937866210938, -71.89519500732418], [-70.77351379394531, -71.900894165039], [-70.7751693725586, -71.90488433837885], [-70.77730560302734, -71.90778350830072], [-70.77110290527344, -71.9139556884765], [-70.77249145507812, -71.9173049926757], [-70.769287109375, -71.92387390136712], [-70.76058197021484, -71.93139648437494], [-70.75771331787111, -71.93983459472648], [-70.75698852539062, -71.94288635253899], [-70.75186157226562, -71.94918060302727], [-70.7529067993164, -71.95195770263665], [-70.7471694946289, -71.95704650878898], [-70.74882507324219, -71.96103668212886], [-70.74856567382812, -71.96672058105463], [-70.75021362304688, -71.97070312499996], [-70.75494384765625, -71.97502899169915], [-70.76101684570312, -71.97857666015618], [-70.77574920654297, -71.98580169677729], [-70.79940032958984, -71.99431610107415], [-70.82054138183594, -71.9967193603515], [-70.83837890625, -72.00297546386712], [-70.84615325927734, -72.00524902343743], [-70.85472869873047, -72.00792694091791], [-70.8674545288086, -72.01172637939446], [-70.87615203857422, -72.01319122314446], [-70.89455413818361, -72.01501464843743], [-70.9072265625, -72.01643371582023], [-70.9190673828125, -72.01907348632805], [-70.9494400024414, -72.02604675292962], [-70.97026062011719, -72.02915954589838], [-70.99349975585938, -72.03031158447257], [-71.0134048461914, -72.0311965942382], [-71.0322036743164, -72.0287246704101], [-71.04724884033203, -72.02537536621091], [-71.0611801147461, -72.02326202392572], [-71.0689926147461, -72.03524780273433], [-71.07542419433594, -72.04407501220699], [-71.07999420166016, -72.0466156005859], [-71.1126937866211, -72.0518264770507], [-71.1607437133789, -72.0529632568359], [-71.19418334960938, -72.05910491943352], [-71.21150207519531, -72.06373596191402], [-71.22691345214844, -72.063606262207], [-71.25242614746094, -72.05691528320307], [-71.26934814453125, -72.05586242675776], [-71.27991485595703, -72.05856323242182], [-71.29022216796875, -72.06040191650384], [-71.29911041259766, -72.06262207031246], [-71.3233871459961, -72.067886352539], [-71.33622741699219, -72.06899261474604], [-71.38321685791016, -72.0728607177734], [-71.39842987060547, -72.070816040039], [-71.41179656982422, -72.06871032714838], [-71.42875671386719, -72.06671142578121], [-71.44808197021484, -72.06581115722649], [-71.47383117675781, -72.06497192382808], [-71.48542022705078, -72.06518554687494], [-71.50415802001953, -72.06741333007807], [-71.5218734741211, -72.06787872314447], [-71.52843475341797, -72.07089996337884], [-71.54369354248047, -72.07679748535152], [-71.5640869140625, -72.08002471923822], [-71.57516479492188, -72.08224487304683], [-71.60211181640625, -72.08471679687494], [-71.62110900878906, -72.08969116210935], [-71.62822723388672, -72.09154510498041], [-71.64842224121094, -72.09353637695307], [-71.67879486083984, -72.09100341796872], [-71.71519470214844, -72.09487152099604], [-71.75282287597656, -72.09780120849604], [-71.7669906616211, -72.09729003906246], [-71.7735595703125, -72.09949493408199], [-71.79733276367188, -72.107437133789], [-71.81880950927734, -72.11013793945303], [-71.8485107421875, -72.11183929443354], [-71.86071014404297, -72.11078643798821], [-71.87993621826172, -72.11122131347652], [-71.89998626708984, -72.11089324951166], [-71.9400863647461, -72.10787963867182], [-71.95288848876953, -72.1097564697265], [-71.98294830322266, -72.11647033691402], [-71.99661254882812, -72.11798858642572], [-72.01258087158203, -72.11753845214837], [-72.03996276855469, -72.11724853515621], [-72.05134582519531, -72.12210845947259], [-72.05274200439453, -72.1305313110351], [-72.05470275878906, -72.13450622558588], [-72.05316162109375, -72.13738250732416], [-72.05486297607422, -72.14019012451165], [-72.05365753173828, -72.14740753173821], [-72.05873107910156, -72.15100860595697], [-72.0694580078125, -72.15487670898432], [-72.07024383544923, -72.15903472900386], [-72.06306457519531, -72.16232299804682], [-72.04304504394531, -72.1618041992187], [-72.03356170654297, -72.16302490234371], [-72.01627349853516, -72.16606903076166], [-71.99273681640625, -72.17258453369135], [-71.99235534667969, -72.17828369140618], [-71.9835205078125, -72.18451690673821], [-71.96403503417969, -72.18672943115232], [-71.93975830078125, -72.18745422363276], [-71.9183578491211, -72.19132995605463], [-71.86634826660156, -72.20481109619135], [-71.83721923828125, -72.20959472656244], [-71.80557250976562, -72.20871734619135], [-71.79412078857422, -72.20949554443354], [-71.77285766601562, -72.20944976806635], [-71.74303436279297, -72.20555114746088], [-71.70181274414062, -72.20985412597652], [-71.65807342529297, -72.21220397949214], [-71.6458511352539, -72.2142486572265], [-71.64063262939453, -72.21868133544916], [-71.64799499511719, -72.22240447998041], [-71.6607131958008, -72.22359466552727], [-71.67407989501953, -72.22524261474605], [-71.68156433105469, -72.22842407226558], [-71.68083953857422, -72.23206329345696], [-71.68460083007812, -72.23683929443354], [-71.67524719238281, -72.24271392822261], [-71.64578247070312, -72.24295806884761], [-71.58450317382812, -72.25137329101558], [-71.50428771972656, -72.26201629638666], [-71.47747039794922, -72.26902008056635], [-71.45504760742188, -72.27242279052729], [-71.4363784790039, -72.27241516113276], [-71.40339660644531, -72.27363586425778], [-71.3941421508789, -72.27126312255854], [-71.38286590576172, -72.26692962646479], [-71.36583709716797, -72.26171112060541], [-71.34746551513672, -72.25875854492182], [-71.3089599609375, -72.25934600830071], [-71.2818603515625, -72.25859069824212], [-71.2420883178711, -72.25753784179682], [-71.227783203125, -72.26081085205074], [-71.21416473388672, -72.2670516967773], [-71.14314270019531, -72.26869964599602], [-71.13196563720703, -72.26753234863277], [-71.0871810913086, -72.25829315185543], [-71.05477142333984, -72.25125122070307], [-71.04833984375, -72.2489852905273], [-71.03199768066406, -72.2468872070312], [-70.9985580444336, -72.23918914794919], [-70.98052215576172, -72.23660278320305], [-70.96544647216797, -72.2369232177734], [-70.93731689453125, -72.23335266113276], [-70.92619323730469, -72.23171997070307], [-70.91555786132812, -72.22526550292966], [-70.89173889160156, -72.21908569335933], [-70.86961364746094, -72.21529388427729], [-70.8438949584961, -72.21021270751946], [-70.82589721679688, -72.20632171630854], [-70.81690979003906, -72.20414733886712], [-70.80248260498047, -72.19864654541011], [-70.79048156738281, -72.19409179687496], [-70.78065490722656, -72.1893920898437], [-70.7641372680664, -72.18312835693355], [-70.75565338134766, -72.1800918579101], [-70.7535629272461, -72.17276000976558], [-70.73709106445312, -72.16870880126947], [-70.71479034423828, -72.1599197387695], [-70.69435119628906, -72.15886688232418], [-70.6581039428711, -72.15605926513663], [-70.62437438964844, -72.15824127197263], [-70.61245727539062, -72.15694427490229], [-70.5707015991211, -72.16689300537104], [-70.56600189208984, -72.17187499999993], [-70.55242156982422, -72.1767425537109], [-70.54822540283205, -72.17995452880854], [-70.54530334472656, -72.18291473388666], [-70.54622650146484, -72.18621826171868], [-70.54708862304688, -72.18936157226558], [-70.54660034179688, -72.19258880615229], [-70.5474853515625, -72.2002334594726], [-70.5582046508789, -72.20413970947259], [-70.58326721191406, -72.214859008789], [-70.61199188232422, -72.2255783081054], [-70.61684417724611, -72.23110961914057], [-70.64253997802734, -72.23928833007807], [-70.66204071044922, -72.24670410156246], [-70.6639862060547, -72.25411224365229], [-70.6602554321289, -72.25974273681635], [-70.65473175048828, -72.26342010498041], [-70.64115905761719, -72.26982116699212], [-70.6579360961914, -72.27283477783199], [-70.66351318359375, -72.2769165039062], [-70.6583480834961, -72.28199768066398], [-70.64729309082031, -72.2855148315429], [-70.62959289550781, -72.28698730468744], [-70.60823822021484, -72.28118133544918], [-70.60423278808594, -72.2753295898437], [-70.57926940917969, -72.27396392822261], [-70.5692138671875, -72.27334594726557], [-70.54341888427734, -72.2711791992187], [-70.51883697509766, -72.26623535156246], [-70.49945831298828, -72.2607269287109], [-70.48200988769531, -72.2554855346679], [-70.45947265625, -72.24838256835932], [-70.44382476806642, -72.24356079101558], [-70.43537902832031, -72.24099731445308], [-70.43943786621095, -72.23535156249993], [-70.49494171142578, -72.23116302490227], [-70.53251647949219, -72.22371673583982], [-70.54495239257812, -72.21772766113274], [-70.54142761230469, -72.21452331542963], [-70.52003479003906, -72.20854949951169], [-70.51838684082031, -72.20265197753899], [-70.50605010986328, -72.1956710815429], [-70.51588439941406, -72.18864440917966], [-70.52963256835938, -72.18020629882807], [-70.52487945556642, -72.17267608642574], [-70.52169799804688, -72.17004394531243], [-70.52811431884766, -72.16278839111321], [-70.53511047363281, -72.15848541259759], [-70.54456329345703, -72.15400695800776], [-70.50166320800781, -72.1453247070312], [-70.49353790283203, -72.14115905761713], [-70.48503875732422, -72.13839721679682], [-70.4366683959961, -72.13254547119135], [-70.41734313964844, -72.13204193115229], [-70.3991470336914, -72.13486480712886], [-70.37337493896484, -72.14321899414058], [-70.3614730834961, -72.15023803710933], [-70.35455322265625, -72.1581192016601], [-70.348388671875, -72.1614913940429], [-70.33529663085938, -72.1650238037109], [-70.3207015991211, -72.16876983642574], [-70.30906677246094, -72.17143249511713], [-70.29287719726562, -72.18099975585932], [-70.29074096679688, -72.18434906005854], [-70.28899383544922, -72.18905639648433], [-70.2928466796875, -72.19345092773432], [-70.29457092285156, -72.19623565673822], [-70.29487609863281, -72.19940185546871], [-70.3019790649414, -72.20400238037104], [-70.30355834960938, -72.20799255371087], [-70.30220031738281, -72.21128082275386], [-70.29306030273438, -72.21418762207027], [-70.27679443359375, -72.21759033203121], [-70.23806762695312, -72.224868774414], [-70.21273040771484, -72.23168182373043], [-70.19105529785156, -72.23516845703122], [-70.18389892578125, -72.23698425292964], [-70.17398071289062, -72.23902893066399], [-70.16340637207031, -72.24627685546866], [-70.16358184814453, -72.24974060058588], [-70.16050720214844, -72.25551605224605], [-70.16329956054688, -72.26247406005855], [-70.1694107055664, -72.26728057861324], [-70.18238067626953, -72.27053833007807], [-70.22234344482422, -72.28302764892571], [-70.23638153076172, -72.2870941162109], [-70.2489242553711, -72.28838348388663], [-70.2956771850586, -72.29516601562494], [-70.33116912841797, -72.29978942871087], [-70.34983825683594, -72.30203247070307], [-70.37818145751953, -72.30603790283199], [-70.39541625976562, -72.30920410156246], [-70.41582489013672, -72.31317138671868], [-70.43815612792969, -72.31826019287105], [-70.44931030273438, -72.31946563720699], [-70.48441314697266, -72.32707214355463], [-70.49362182617188, -72.32844543457027], [-70.50479125976562, -72.32964324951168], [-70.51228332519531, -72.33205413818357], [-70.52312469482422, -72.3387145996093], [-70.5366973876953, -72.34131622314449], [-70.55677032470703, -72.34155273437494], [-70.57539367675781, -72.34111022949214], [-70.58659362792969, -72.34185028076168], [-70.60256958007812, -72.34607696533197], [-70.62693786621094, -72.34913635253902], [-70.63667297363281, -72.35200500488278], [-70.6304931640625, -72.35668945312496], [-70.62448120117189, -72.3594818115234], [-70.62067413330078, -72.3631896972656], [-70.62376403808594, -72.3683471679687], [-70.63102722167969, -72.37293243408197], [-70.64640045166016, -72.37639617919916], [-70.65288543701172, -72.3788452148437], [-70.65888214111328, -72.38192749023433], [-70.67411804199219, -72.38507080078121], [-70.6942367553711, -72.38552093505854], [-70.72874450683594, -72.38748931884763], [-70.74697875976562, -72.3892974853515], [-70.77915954589844, -72.38833618164055], [-70.79844665527344, -72.38475799560541], [-70.80781555175781, -72.384407043457], [-70.8184814453125, -72.38569641113277], [-70.83258056640625, -72.38999176025385], [-70.87613677978516, -72.39426422119136], [-70.89983367919922, -72.39590454101557], [-70.9189682006836, -72.39678192138668], [-70.95588684082031, -72.39529418945308], [-71.04100799560547, -72.39081573486324], [-71.1011962890625, -72.39019775390621], [-71.15139770507812, -72.38692474365232], [-71.17210388183594, -72.38526916503902], [-71.19088745117188, -72.38530731201168], [-71.22120666503906, -72.38402557373041], [-71.28764343261719, -72.38856506347652], [-71.3272933959961, -72.38654327392574], [-71.34596252441406, -72.38465118408197], [-71.37423706054689, -72.38359832763666], [-71.44797515869142, -72.38200378417962], [-71.46533203125, -72.38195037841793], [-71.50657653808594, -72.3818054199218], [-71.55438232421875, -72.37820434570308], [-71.59552001953125, -72.37999725341794], [-71.61919403076172, -72.38010406494136], [-71.6314468383789, -72.37876129150385], [-71.64266204833984, -72.38087463378902], [-71.66849517822266, -72.37763214111325], [-71.68228149414062, -72.3705215454101], [-71.6925277709961, -72.36796569824216], [-71.72499084472656, -72.36389923095697], [-71.7601547241211, -72.35680389404293], [-71.81642150878906, -72.35674285888665], [-71.84648895263672, -72.35785675048824], [-71.8656234741211, -72.35543823242182], [-71.88833618164062, -72.3507690429687], [-71.90255737304688, -72.34448242187494], [-71.91638946533203, -72.34184265136714], [-71.95519256591797, -72.33448791503903], [-71.96698760986328, -72.33232116699214], [-72.00513458251953, -72.32624053955074], [-72.01641082763672, -72.32477569580072], [-72.04329681396484, -72.32433319091793], [-72.08404541015625, -72.32228088378899], [-72.0988540649414, -72.31912231445307], [-72.10093688964844, -72.32394409179683], [-72.10888671875, -72.32675933837886], [-72.1186752319336, -72.32810211181638], [-72.13153839111328, -72.33261871337885], [-72.13803100585938, -72.33470153808588], [-72.14149475097656, -72.33843231201168], [-72.13604736328125, -72.34357452392572], [-72.12931823730469, -72.34638977050777], [-72.12386322021486, -72.35153198242185], [-72.1220932006836, -72.35717773437493], [-72.1278076171875, -72.35955047607416], [-72.13553619384766, -72.36401367187496], [-72.16943359375, -72.36731719970696], [-72.19461822509766, -72.36242675781244], [-72.20417785644531, -72.36048889160148], [-72.21878814697266, -72.3575286865234], [-72.2316665649414, -72.35334777832023], [-72.24657440185547, -72.34891510009759], [-72.2497329711914, -72.3452072143554], [-72.25666809082031, -72.3402938842773], [-72.2750244140625, -72.32997131347652], [-72.28218078613281, -72.3253021240234], [-72.29309844970703, -72.31775665283197], [-72.2812728881836, -72.3154144287109], [-72.27666473388672, -72.31282806396477], [-72.28350067138672, -72.31002044677732], [-72.31947326660156, -72.30535125732418], [-72.32720947265625, -72.30381774902338], [-72.36380767822266, -72.30198669433587], [-72.37742614746094, -72.29993438720696], [-72.38948822021484, -72.29595184326168], [-72.40900421142578, -72.29355621337885], [-72.43063354492188, -72.29288482666009], [-72.47638702392578, -72.27996826171871], [-72.50999450683594, -72.2771606445312], [-72.5343017578125, -72.27761077880854], [-72.56412506103516, -72.27654266357418], [-72.5938491821289, -72.27388000488277], [-72.61189270019531, -72.27064514160149], [-72.63658142089844, -72.27033233642574]], [[-73.56925344687748, -71.88491055026951], [-73.56727842735235, -71.88072015355827], [-73.56799249335302, -71.87369267023371], [-73.56896245937507, -71.87162301523838], [-73.58134627808948, -71.87214285902115], [-73.58456050165692, -71.87397952168048], [-73.58648230718532, -71.88032302646457], [-73.58116621816167, -71.88384447393885], [-73.56925344687748, -71.88491055026951]], [[-70.79601170670963, -72.26303178337984], [-70.7947031705159, -72.2578760896162], [-70.79996801562235, -72.2568675441959], [-70.80774513668565, -72.2545580278365], [-70.81942661340112, -72.2542301942657], [-70.82612477525541, -72.25556762682774], [-70.82712345058894, -72.26100274315186], [-70.81380138898392, -72.26366559075785], [-70.79601170670963, -72.26303178337984]]]}}]}