{"type": "FeatureCollection", "features": [{"id": "0", "type": "Feature", "properties": {"NAME": "Baudouin", "Regions": "East", "TYPE": "FL"}, "geometry": {"type": "Polygon", "coordinates": [[[24.499154889010946, -70.3241166611511], [24.491857397425697, -70.32981995376097], [24.49772143601093, -70.3362546247907], [24.52063724728087, -70.34198588898357], [24.54276436351906, -70.34432816995613], [24.56240956460494, -70.34832655009156], [24.601526134028344, -70.35826230883599], [24.639178749837576, -70.36778276726213], [24.65408357952856, -70.36548323413354], [24.660511220054218, -70.35906219043487], [24.658248362099055, -70.35462166188938], [24.664711138494482, -70.35170721889085], [24.663359708675877, -70.34584862934975], [24.64771491187418, -70.34411479955284], [24.637631912900883, -70.34221781988136], [24.6384105682373, -70.34183502197257], [24.634258270263672, -70.3387908935546], [24.63915252685547, -70.33434295654288], [24.62368392944336, -70.32566070556632], [24.61564254760742, -70.3170623779296], [24.675201416015266, -70.31523132324206], [24.645797729492188, -70.31240081787098], [24.635869979858406, -70.30777740478507], [24.654281194671437, -70.30722851455587], [24.674551010131832, -70.30672454833976], [24.666004180908207, -70.30312347412101], [24.69864463806152, -70.30298614501946], [24.69310379028321, -70.29891204833974], [24.67829322814941, -70.29875946044913], [24.672767639160153, -70.29470062255851], [24.68804931640625, -70.28984832763663], [24.728731421082877, -70.29143500411622], [24.72001075744629, -70.28120422363273], [24.738052368164066, -70.27839660644524], [24.727210998535153, -70.26777648925771], [24.699075698852532, -70.2524642944335], [24.67902183532714, -70.24573516845689], [24.65410804748535, -70.24345397949209], [24.647218704223636, -70.23838043212882], [24.66758728027344, -70.22660064697259], [24.655187606811523, -70.21746063232413], [24.64205551147461, -70.21581268310537], [24.656671524047848, -70.20246887207023], [24.68063354492187, -70.19873809814445], [24.69584846496582, -70.19390869140615], [24.69771194458008, -70.18992614746085], [24.714057922363292, -70.18861389160146], [24.74486923217773, -70.2059326171874], [24.7591495513916, -70.21109771728507], [24.805711746215824, -70.21858978271476], [24.819555282592773, -70.22873687744132], [24.84564208984374, -70.23450469970695], [24.85536003112794, -70.24160003662101], [24.88008117675782, -70.24635314941398], [24.915834426879893, -70.2432098388671], [24.901491165161136, -70.23806762695304], [24.876256942749023, -70.22231292724601], [24.866115570068363, -70.22020721435538], [24.831455230712898, -70.19485473632798], [24.82131958007812, -70.19274902343734], [24.810249328613278, -70.18463134765615], [24.8134765625, -70.1816635131835], [24.834621429443363, -70.17587280273429], [24.811826705932624, -70.167137145996], [24.823078155517575, -70.15676116943344], [24.812026977539, -70.1486434936522], [24.807882308959954, -70.14559173583976], [24.811092376708977, -70.14262390136709], [24.791343688964844, -70.13343048095695], [24.79913902282716, -70.12850952148428], [24.81107139587402, -70.1266326904296], [24.880338668823246, -70.12434387207021], [24.9724349975586, -70.11223602294913], [25.07592201232911, -70.10318756103506], [24.916919708251957, -70.10869598388662], [24.840602874755856, -70.10843658447256], [24.827533721923828, -70.10680389404287], [24.813985824584957, -70.09416198730459], [24.802755355834968, -70.08854675292959], [24.805955886840827, -70.08558654785148], [24.800682067871087, -70.07902526855459], [24.805480957031257, -70.07457733154288], [24.888479232788082, -70.06393432617179], [24.914571762084957, -70.06719207763663], [25.02970123291016, -70.05628204345693], [25.065284729003906, -70.05060577392568], [25.073175430297848, -70.04318237304676], [25.08812114318908, -70.04447432256677], [25.118240356445316, -70.04707336425771], [25.140361785888672, -70.04475402832021], [25.145076751708988, -70.0403060913085], [25.139694213867195, -70.03376770019523], [25.11796188354492, -70.03108215332021], [25.109636306762695, -70.02500915527334], [25.115932464599616, -70.0190658569335], [25.114723205566406, -70.01555633544912], [25.12654113769532, -70.01366424560537], [25.182006835937504, -70.0146255493163], [25.242645263671875, -70.00362396240224], [25.325235366821296, -70.0137481689452], [25.412845611572266, -70.01436614990224], [25.466632843017575, -70.01923370361318], [25.48195648193354, -70.03282928466781], [25.459745407104492, -70.03768157958969], [25.478586196899414, -70.04080200195303], [25.534524917602543, -70.03415679931632], [25.657363891601562, -70.03385925292959], [25.761533737182614, -70.02540588378896], [25.806694030761722, -70.02910614013662], [25.82511520385742, -70.0446777343749], [25.838125228881832, -70.048728942871], [25.830724716186527, -70.05120849609361], [25.827581405639638, -70.05667877197251], [25.825973510742195, -70.0606842041014], [25.824264526367198, -70.067169189453], [25.854707717895515, -70.07579803466788], [25.854524612426758, -70.0807952880858], [25.851486206054684, -70.08377838134751], [25.841022491455085, -70.08923339843737], [25.848079681396484, -70.09675598144517], [25.85970497131348, -70.09980773925767], [25.855140686035156, -70.10428619384757], [25.857910156249993, -70.10880279541001], [25.84734344482422, -70.1167373657225], [25.818937301635746, -70.13012695312487], [25.740451812744148, -70.14424896240222], [25.675037384033207, -70.15991210937484], [25.60833549499512, -70.16954040527334], [25.580316543579105, -70.17037963867176], [25.530969619750977, -70.18458557128892], [25.527727127075195, -70.19006347656236], [25.502508163452152, -70.19289398193348], [25.497850418090824, -70.19738006591783], [25.52719306945801, -70.20005798339835], [25.537012100219705, -70.20961761474598], [25.533895492553718, -70.21260070800768], [25.538296455167583, -70.2163631168189], [25.53453636169432, -70.22859954833972], [25.5562858581543, -70.23623657226554], [25.559394836425778, -70.23325347900382], [25.546573638916012, -70.22417449951163], [25.54683876037598, -70.21916961669912], [25.551891326904297, -70.20720672607412], [25.552152633666996, -70.20220947265616], [25.54788780212403, -70.19918823242179], [25.556934356689457, -70.19522857666007], [25.598560333251957, -70.18848419189445], [25.80352210998534, -70.1860351562499], [25.8877010345459, -70.18089294433585], [25.894977569580075, -70.1834182739257], [25.896322250366218, -70.18692779541007], [25.912593841552734, -70.18548583984365], [25.922676086425746, -70.19252777099597], [25.91513061523438, -70.1974945068358], [25.920818328857422, -70.20401763916007], [25.907430648803718, -70.20746612548815], [25.892154693603516, -70.22240447998034], [25.893508911132805, -70.2259063720702], [25.88145256042481, -70.23285675048814], [25.888486862182607, -70.24288940429676], [25.88101005554199, -70.24535369873036], [25.892560958862273, -70.25340270996082], [25.88498878479005, -70.25836944580065], [25.889320373535124, -70.26139068603504], [25.8933925628662, -70.27190399169913], [25.88590240478516, -70.27437591552722], [25.888708114624034, -70.27888488769523], [25.906314849853516, -70.28345489501946], [25.917811594016634, -70.28755187988268], [25.936793527610376, -70.31307983398425], [25.945208749778352, -70.32556152343737], [25.994765481956087, -70.36551666259751], [26.005355081565455, -70.38134765624987], [26.023987970359407, -70.38754272460925], [26.074778757102564, -70.39215850830065], [26.17705460549125, -70.39800262451159], [26.28410454750784, -70.42201232910145], [26.32952614784965, -70.42468261718739], [26.45797654152639, -70.45436859130848], [26.499617776877958, -70.45532226562489], [26.543494424827184, -70.45031738281239], [26.559037408835977, -70.45143127441393], [26.574582300193384, -70.44976043701159], [26.570140085227575, -70.44400024414051], [26.547391138084013, -70.43990325927723], [26.53574868202931, -70.43488311767565], [26.543526849753928, -70.42707824707018], [26.577347955710955, -70.42280578613268], [26.60338898659476, -70.41518402099597], [26.63330574990042, -70.41294097900378], [26.64438172341116, -70.41201019287097], [26.670939645774446, -70.40474700927722], [26.700856409080096, -70.40621185302722], [26.75363274575002, -70.42288970947251], [26.791363916404322, -70.42581939697254], [26.815789422996126, -70.42820739746082], [26.826853952415075, -70.42633056640614], [26.84616776467092, -70.41979217529286], [26.84103890419729, -70.40995025634754], [26.861153802878942, -70.38463592529286], [26.871913156516626, -70.36510467529286], [26.893599710471715, -70.33997344970692], [26.885544977195337, -70.31991577148423], [26.88135834694632, -70.29966735839831], [26.849723062522497, -70.28318786621082], [26.81774064064749, -70.27840423583972], [26.806657037742216, -70.27191925048815], [26.7987854099346, -70.25743103027332], [26.80691643715628, -70.24813079833972], [26.821070871360373, -70.2382659912108], [26.814391336448278, -70.23102569580065], [26.782260141379908, -70.20394897460925], [26.734067163474638, -70.14381408691393], [26.72791977883108, -70.12673187255845], [26.690638742454134, -70.10150909423814], [26.690023422241204, -70.09723663330068], [26.69730377197266, -70.08973693847646], [26.685504913330067, -70.07925415039053], [26.686952590942383, -70.07525634765611], [26.67084312438965, -70.07676696777332], [26.65178298950196, -70.0737762451171], [26.66347312927246, -70.06677246093741], [26.657590866088867, -70.06278228759757], [26.64440536499023, -70.06128692626943], [26.62973213195801, -70.05130004882803], [26.656063079833988, -70.0492935180663], [26.667751312255852, -70.04478454589832], [26.670640945434563, -70.03929901123037], [26.68667221069336, -70.03028869628898], [26.616462707519528, -70.01483154296861], [26.60039710998535, -70.01383972167959], [26.594498715464432, -70.01106901038006], [26.58870506286621, -70.00834655761706], [26.598907470703125, -69.99784851074209], [26.6295223236084, -69.99134063720693], [26.626602172851552, -69.9868545532225], [26.593061447143555, -69.99135589599601], [26.563882827758786, -70.00385284423818], [26.549276351928714, -70.00634765624991], [26.520082473754883, -70.00634002685537], [26.511327743530305, -70.00033569335926], [26.52011680603028, -69.99134826660145], [26.518667221069357, -69.98786163330068], [26.527435302734368, -69.97886657714834], [26.579917907714847, -69.96987915039053], [26.584281921386715, -69.96288299560537], [26.617774963378906, -69.95838165283193], [26.5930118560791, -69.95639038085928], [26.47057342529297, -69.97984313964835], [26.458923339843757, -69.97683715820303], [26.421028137207035, -69.97581481933584], [26.4007358551026, -69.96180725097645], [26.403694152832035, -69.95631408691398], [26.41978645324707, -69.9473342895507], [26.462059020996094, -69.93637847900379], [26.494079589843757, -69.93090057373037], [26.642794171359718, -69.9306475351059], [26.739490566361177, -69.92770082584587], [26.764631271362305, -69.93429565429678], [26.84638977050781, -69.95515441894521], [26.8603055282566, -69.96025233440706], [26.89610589002087, -69.96717650817598], [26.906799072194282, -69.97256033178554], [26.921380481682462, -69.97498617712547], [26.973846435546875, -69.99185943603506], [26.994057067731386, -69.99867812671029], [27.010513581653697, -70.00123406146703], [27.003813208957393, -69.99478029298704], [27.097058930441094, -69.97498355009597], [27.127789498437146, -69.96678811869491], [27.17291360406471, -69.95053075111079], [27.20542562042488, -69.93614482696766], [27.277392408100035, -69.92187338537036], [27.262291332107672, -69.93245048938115], [27.24143304271425, -69.9380778478633], [27.205038511091665, -69.95328908114425], [27.18921992641504, -69.96102692657941], [27.178957125019025, -69.96984733793893], [27.17797778078138, -69.98180627622071], [27.156533870082598, -69.98888350308171], [27.09879797628474, -70.00459908481291], [27.08169489436727, -70.02916095972715], [27.114256044907577, -70.00432288184386], [27.174079578790355, -69.99162775053453], [27.192432554728633, -69.98368796595437], [27.225747290221765, -69.96619888332297], [27.248484352465393, -69.95998563703478], [27.273324379229273, -69.95213091147262], [27.34674096121306, -69.93913439973679], [27.417668471482635, -69.93123866078889], [27.465258024450947, -69.92998766919614], [27.458869329749763, -69.94151253655808], [27.455913071167508, -69.94864702825026], [27.47089339204198, -69.94218851298095], [27.51238756805015, -69.94544091546594], [27.48869480295319, -69.94982357856414], [27.51001207330823, -69.9573133846774], [27.54109756352865, -69.97090416215013], [27.558678827292994, -69.97199249267564], [27.576190195090838, -69.97541809082017], [27.582083902366236, -69.98466491699203], [27.589844903953153, -69.98796081542953], [27.655242166526403, -69.99404907226547], [27.68388100624807, -69.99218749999984], [27.697941980369176, -69.9915390014647], [27.716914377219755, -69.99140930175767], [27.70778962136037, -69.98367309570295], [27.71513863564261, -69.97953796386703], [27.720826349265653, -69.9841384887694], [27.723700723655302, -69.98690032958969], [27.724427423484403, -69.99005889892562], [27.737126550681676, -69.99386596679673], [27.746218881614276, -69.99176025390611], [27.75361748696097, -69.98854827880844], [27.749047479636737, -69.98468780517564], [27.73900719643362, -69.97992706298812], [27.728729248046882, -69.97631835937486], [27.75306583479258, -69.96998483078823], [27.766656122214876, -69.97119140624983], [27.770663461692408, -69.97468566894516], [27.7693664646221, -69.9800872802733], [27.78444214821585, -69.98722076416], [27.797715387351595, -69.9913940429686], [27.816121301658224, -69.990882873535], [27.825770578391623, -69.98914337158187], [27.840897760398462, -69.98828124999984], [27.849230966575224, -69.9830169677733], [27.850625238425806, -69.97948455810531], [27.81482621193655, -69.97046661376937], [27.797927856445316, -69.96383666992178], [27.8382740020752, -69.95653533935537], [27.827441415793977, -69.96443176269517], [27.83737488747367, -69.9673233032225], [27.850909433372102, -69.96722412109361], [27.863679132468786, -69.97195434570297], [27.87141915322073, -69.97430419921861], [27.881118021018583, -69.97348785400378], [27.888924798972702, -69.9767684936522], [27.907693109519563, -69.98181915283187], [27.916827402122095, -69.98062896728501], [27.91543885231742, -69.97618865966781], [27.93155785561331, -69.97419738769517], [27.935528955466815, -69.97676849365219], [27.935542306907255, -69.98474884033189], [27.938510141379908, -69.98844146728501], [27.955773553855497, -69.98718261718734], [27.989155969626992, -69.98393249511705], [28.005044183738303, -69.98621368408187], [28.029635629661158, -69.9887847900389], [28.041043481834006, -69.98905944824203], [28.05388184548148, -69.98671722412097], [28.070922098167017, -69.98266601562484], [28.080331048972674, -69.9781188964842], [28.081254205710973, -69.96195983886703], [28.07484742165335, -69.9560699462889], [28.066025934226595, -69.94686889648423], [28.058278284080096, -69.9374618530272], [28.054299554832067, -69.93489837646469], [28.044775009155277, -69.93284606933584], [28.054374694824215, -69.92476654052724], [28.110971450805668, -69.92325592041006], [28.107688150413114, -69.92606353759751], [28.113381586082046, -69.9297256469725], [28.122201166160178, -69.9318695068358], [28.14012070656546, -69.93281555175766], [28.156977853782262, -69.93395233154283], [28.17182084084279, -69.93028259277328], [28.17258378029593, -69.92637634277328], [28.154912195212912, -69.9150314331053], [28.14631768227346, -69.91567230224594], [28.14036178588868, -69.9089889526366], [28.13022422790528, -69.90958404541006], [28.119714736938473, -69.90518951416004], [28.135574340820316, -69.9035415649413], [28.1219882965088, -69.89717102050771], [28.12904167175293, -69.89461517333974], [28.108407974243168, -69.89080047607412], [28.10521284294145, -69.88639989722746], [28.04792165972753, -69.87786343168], [28.00825309753418, -69.8712158203124], [27.9634456823108, -69.86835303056522], [27.960459537350403, -69.85688793988521], [27.962122305119582, -69.84963805171343], [27.958895071232867, -69.84516722651811], [27.96731410809811, -69.84110075923297], [27.968460424626425, -69.83709532710407], [27.98544917889888, -69.83145720454546], [28.015718801701613, -69.82969481440875], [28.01249347516353, -69.82522398921343], [28.015165670598098, -69.82220274897907], [28.03076778241451, -69.81807524653765], [28.042047424621458, -69.82126075142594], [28.063310964787558, -69.82726103755328], [28.07242427655513, -69.83318144770952], [28.080059393132288, -69.83809477778765], [28.101663589477543, -69.8414077758788], [28.095182418823235, -69.83247375488271], [28.120868682861325, -69.82774353027334], [28.158031463623047, -69.83987426757803], [28.182415111635514, -69.83726992870238], [28.205028929888247, -69.83467656781276], [28.234115819978715, -69.83625948063894], [28.242415137224818, -69.82743057176414], [28.25408935546875, -69.82843780517568], [28.267667770385735, -69.8347930908202], [28.276193618774425, -69.83321380615223], [28.27385751303112, -69.8269891706134], [28.271000253325802, -69.82339471494693], [28.271464400710798, -69.82013935794507], [28.280118070846573, -69.81979888932034], [28.30294408326366, -69.82855863458205], [28.294948096258974, -69.81577568523781], [28.307383124157823, -69.8131450373071], [28.328858575828157, -69.82398223876939], [28.337414941794957, -69.8294601440428], [28.344752511985384, -69.83328247070298], [28.3579551792217, -69.83647918701155], [28.37539788246878, -69.83889007568342], [28.387381753928743, -69.84043121337875], [28.39976616860159, -69.84047698974594], [28.405200204856474, -69.8352203369139], [28.418465814597674, -69.83321380615219], [28.425784311301793, -69.83090972900375], [28.442128381736367, -69.82738494873033], [28.44186516762503, -69.8246002197264], [28.431254587180696, -69.82044982910142], [28.440591058738313, -69.81681823730455], [28.430470666892617, -69.81210327148422], [28.405612945556644, -69.80784606933582], [28.412368774414055, -69.80277252197254], [28.403137207031257, -69.79688262939443], [28.41451835632324, -69.79474639892567], [28.40244483947754, -69.78939819335928], [28.405054092407227, -69.78636932373036], [28.43544006347656, -69.78703308105457], [28.438051223754886, -69.78400421142567], [28.427532196044922, -69.77962493896473], [28.43581771850587, -69.775535583496], [28.427258125423457, -69.7688879666887], [28.39488660442736, -69.76225802284102], [28.388744941829707, -69.75832888465744], [28.432219139217395, -69.76034304481368], [28.38958989727404, -69.7518286405168], [28.383453956722278, -69.74789950233321], [28.391970268367785, -69.74630495887618], [28.428442588924426, -69.75089022498946], [28.444151512264266, -69.74920412879806], [28.42489873516466, -69.74394747596604], [28.395876518367785, -69.74175783973556], [28.391275993465445, -69.73882052284102], [28.429869285701777, -69.7353949246965], [28.425263038753528, -69.73244997840743], [28.384693733333602, -69.72989413123946], [28.373976341365825, -69.72302767616135], [28.419506660579696, -69.71703097205977], [28.4221101914635, -69.71399447303634], [28.45261936357841, -69.70191047569092], [28.46810414430938, -69.69076636213123], [28.46632649538359, -69.68727972883045], [28.4886768066629, -69.68052771467029], [28.49512173769317, -69.6729593552953], [28.503590365622856, -69.67136481183827], [28.59529304504394, -69.68325042724598], [28.601696014404297, -69.68965911865224], [28.616828918457028, -69.69696807861317], [28.627073287963867, -69.69883728027331], [28.62606811523438, -69.70284271240224], [28.628126144409176, -69.70880889892567], [28.633426060823762, -69.71161045063477], [28.663464894441937, -69.70973361958009], [28.668092122225133, -69.71267093647461], [28.653610432784536, -69.71860265991171], [28.659660789317336, -69.72477411078586], [28.64426320065932, -69.73245985279095], [28.684189318836037, -69.72441182825936], [28.668793664824154, -69.7328956137664], [28.69308411136088, -69.73083652485352], [28.6806114930474, -69.74226408751689], [28.70217610188665, -69.73833543127066], [28.706248631624543, -69.74616397846681], [28.721454172515326, -69.75257224683273], [28.716444148227655, -69.76013983066187], [28.732598066529235, -69.7545209796335], [28.73447915077933, -69.7605133056639], [28.735863885886744, -69.76828765869125], [28.745934686668004, -69.77205657958969], [28.761571130759798, -69.7776031494139], [28.78158684731253, -69.7790145874022], [28.790366373069364, -69.77592468261703], [28.805342874534208, -69.77070617675766], [28.805764398582056, -69.76494598388656], [28.80303879738577, -69.7597808837889], [28.792651376731474, -69.7532424926756], [28.78316040993459, -69.7498397827147], [28.765952310569375, -69.7493286132811], [28.75638290874819, -69.7493706046227], [28.760497441438996, -69.74094547260742], [28.74865471377787, -69.7381073378418], [28.745282521395055, -69.73365940083009], [28.760522254549635, -69.73457043438404], [28.791667540510158, -69.72641805560842], [28.8226660300716, -69.723523671269], [28.827288262980776, -69.71463614367863], [28.842010400501543, -69.72054444843947], [28.86219349490107, -69.7307910785813], [28.8869558892368, -69.73609219434553], [28.949099457716077, -69.74276398822235], [28.974362794787336, -69.7430220227322], [29.029655531318866, -69.73399370526447], [29.053527832031243, -69.73841857910145], [29.06383248329884, -69.75420379638656], [29.06286164284475, -69.76492309570297], [29.065137109763715, -69.7746734619139], [29.092204294211935, -69.78324127197249], [29.102118692405302, -69.78795623779281], [29.10085221291311, -69.79743957519516], [29.128440103538114, -69.802406311035], [29.14598961830862, -69.79593658447249], [29.14266510964163, -69.78812408447249], [29.13493844033011, -69.7783050537108], [29.13350029946095, -69.76210021972642], [29.10903283119925, -69.75110626220687], [29.086559838760206, -69.73564445831337], [29.09549118751008, -69.72917185609954], [29.117593382390986, -69.72781665364231], [29.14148682944338, -69.72104848798365], [29.15685945426073, -69.71327672421333], [29.171443595764185, -69.71133460115341], [29.183631143577177, -69.70944976806626], [29.1931717014385, -69.7128295898436], [29.208855829246122, -69.71406555175766], [29.226166925437536, -69.71546173095686], [29.2439415073467, -69.71628570556624], [29.26563759804495, -69.7144470214842], [29.273980340964876, -69.71282196044905], [29.27451821327934, -69.70891571044908], [29.23162923460189, -69.70038036524399], [29.260277426526557, -69.6980074331423], [29.27050896645314, -69.70304107665999], [29.27935143471487, -69.70512390136705], [29.28857537270316, -69.70998382568344], [29.30088158608207, -69.70996856689437], [29.317025384910195, -69.71062469482405], [29.3294021701885, -69.7072677612303], [29.332726678855497, -69.7042388916014], [29.32122727394828, -69.69458770751936], [29.315581521995142, -69.68855285644516], [29.307181972114268, -69.68215245292825], [29.303765613190638, -69.67889481465414], [29.300157936843608, -69.67352245166245], [29.29570960998536, -69.66464233398428], [29.28122901916504, -69.65338134765612], [29.257916605556833, -69.64345637227235], [29.242029399700378, -69.63800344952924], [29.28906872787713, -69.64041295548154], [29.311660328211204, -69.64688328777247], [29.31365716967101, -69.65168436593001], [29.310064600625253, -69.65430460741634], [29.30768117008969, -69.65709721399395], [29.31645803981298, -69.65954227023643], [29.32433495756722, -69.65288060830147], [29.322425701585775, -69.64941686318429], [29.320503094163904, -69.64595311806711], [29.32295212980843, -69.64290136025461], [29.32701674241318, -69.63798776536274], [29.34208524242016, -69.63740907070398], [29.358898282188424, -69.63699299678952], [29.349126935142518, -69.62866932735592], [29.347204327720647, -69.62520558223873], [29.348085522789006, -69.62119252071528], [29.343970157629943, -69.61607769911505], [29.3002714179149, -69.6070398682291], [29.279598474028788, -69.5956793055935], [29.260408723011118, -69.58437735369867], [29.25817903245936, -69.57841879656975], [29.257179581775763, -69.57094198992911], [29.260847413196657, -69.56638724139397], [29.26816149411299, -69.5696754297649], [29.27815186397471, -69.57774214797332], [29.28094488340467, -69.58248932268906], [29.29319096731236, -69.58998674321029], [29.30482297225077, -69.58992202196258], [29.304195294277847, -69.58140851644714], [29.303672975144355, -69.57367316687031], [29.327038965232447, -69.57454681396466], [29.34281846047171, -69.57334899902327], [29.35510560036429, -69.56998443603497], [29.347869119651406, -69.56379699707014], [29.31024714020357, -69.56494794600337], [29.313064575195312, -69.5614318847655], [29.322278976440433, -69.55578613281237], [29.338765344626974, -69.55559539794903], [29.3518802738262, -69.55445098876933], [29.36531754494436, -69.55180358886702], [29.37481041908987, -69.54756164550763], [29.379967889793004, -69.53893280029278], [29.369250497825224, -69.5305786132811], [29.339057168967795, -69.52700805664044], [29.31505584716796, -69.52394104003893], [29.335710525512702, -69.51859283447253], [29.327911376953125, -69.51373291015614], [29.314908981323242, -69.51245117187487], [29.311447143554684, -69.50802612304675], [29.324111938476566, -69.50680541992176], [29.33901977539062, -69.51154327392567], [29.345808029174812, -69.50893402099598], [29.319099426269535, -69.5013961791991], [29.349077224731438, -69.50187683105456], [29.344406127929688, -69.49897003173815], [29.314065933227543, -69.49598693847645], [29.304731369018555, -69.49015045166003], [29.314264297485344, -69.48699188232409], [29.30684280395508, -69.48461914062487], [29.28607177734375, -69.47847747802722], [29.288494110107415, -69.47544097900378], [29.305124282836918, -69.47216796874989], [29.30046653747559, -69.4692459106444], [29.290794372558594, -69.46092224121081], [29.28214836120606, -69.46006774902331], [29.275943756103512, -69.45617675781239], [29.28754806518554, -69.44749450683581], [29.28256416320801, -69.44208526611315], [29.272912979125977, -69.43376159667957], [29.251327514648445, -69.43161773681628], [29.2401695251465, -69.42230987548817], [29.235521316528317, -69.41938781738268], [29.23915798725198, -69.40661479595215], [29.23354084552835, -69.3962235606006], [29.239934278145537, -69.39112712505371], [29.266830176382154, -69.38525982861074], [29.28444988788675, -69.38488628032717], [29.333066297188505, -69.38806773784668], [29.365144086495143, -69.39450694683104], [29.37412586417799, -69.3919383880104], [29.38973466228221, -69.38628424910598], [29.396340680733434, -69.38447429302246], [29.401387557849, -69.38039007563297], [29.410136566027706, -69.37224951166813], [29.43222851538563, -69.37066012701912], [29.444445294527444, -69.36106823339286], [29.507006353461385, -69.3380851302991], [29.527829038073357, -69.32932356169212], [29.56163160046016, -69.31150935248581], [29.574155251583207, -69.31027339057175], [29.610225121578328, -69.29661677436081], [29.652480523189666, -69.28682826117722], [29.67016743657915, -69.28657624489588], [29.697904100397515, -69.29252717263026], [29.7061285877022, -69.29087159401698], [29.741148525164142, -69.2753172260377], [29.757530742571376, -69.2719984394166], [29.776171044299986, -69.26462049821816], [29.824094374494322, -69.24896860807121], [29.826423247174986, -69.24592447965325], [29.866528358225338, -69.24052972849162], [29.881744258289586, -69.23671883578592], [29.885227076893095, -69.23214882846173], [29.8773974107554, -69.22731942172342], [29.87971293199564, -69.22427529330545], [29.93491429859797, -69.21273007160228], [29.937015130988815, -69.21729154858843], [29.93286734645984, -69.23329440218177], [29.91194895834875, -69.25454799573507], [29.766139259576924, -69.31359749706786], [29.893546367695638, -69.26940091383835], [29.929678078052984, -69.2533020152156], [29.96404623148783, -69.21954873897666], [29.9751952753523, -69.21928561593697], [30.00656509399414, -69.21311950683581], [30.034576416015636, -69.21252441406236], [30.056432723999027, -69.21704101562486], [30.072168350219748, -69.22668457031239], [30.083883285522468, -69.22943115234362], [30.111091613769535, -69.24830627441392], [30.1134712314678, -69.2509994506834], [30.1114074802471, -69.25717163085916], [30.11929245949513, -69.26033782958964], [30.12988778115042, -69.26103210449199], [30.13865967751273, -69.25731658935528], [30.14749451637992, -69.2569351196287], [30.14831086159477, -69.2615509033201], [30.15476723671682, -69.26549530029278], [30.16409607887992, -69.26788330078105], [30.173945627219748, -69.26729583740214], [30.18320580483205, -69.26634216308575], [30.19298096657522, -69.26241302490216], [30.19434090615042, -69.2583007812498], [30.193631823410822, -69.25117174676039], [30.185094833374023, -69.24466705322251], [30.22386100933897, -69.24464387675881], [30.24713948986814, -69.24874689160748], [30.26811881351679, -69.24898256727072], [30.25595170687936, -69.2530630681503], [30.27695846557618, -69.25406646728503], [30.287797927856445, -69.25182342529283], [30.307656362729684, -69.2564181501371], [30.329004287719727, -69.26135253906236], [30.350320062644567, -69.2634506225584], [30.33880539894828, -69.26631927490214], [30.328370294578143, -69.26655578613261], [30.331835947043974, -69.2711181640623], [30.328141412742216, -69.27380371093729], [30.319398126609403, -69.27753448486308], [30.314688882835, -69.28042602539044], [30.32648392678031, -69.28182983398418], [30.342147073752965, -69.28146362304666], [30.358054361350614, -69.27960205078105], [30.369157037742223, -69.27729797363261], [30.381684503562532, -69.27422332763652], [30.375424585349638, -69.2687988281248], [30.37633057595024, -69.26525115966778], [30.38450050354005, -69.26404571533189], [30.41239166259766, -69.26988220214831], [30.420721054077156, -69.26168823242173], [30.43713722443846, -69.25747249754707], [30.457807153593627, -69.26377659274873], [30.44796562194824, -69.27153778076153], [30.444243631370135, -69.2751464843748], [30.435279092795927, -69.28037261962871], [30.44256897927054, -69.28558349609358], [30.45804902077445, -69.2924575805662], [30.4684345340801, -69.29461669921855], [30.480784616477557, -69.29877471923808], [30.497824869163125, -69.30003356933574], [30.501502237327173, -69.29734802246074], [30.508797845847692, -69.2943801879881], [30.51692124367483, -69.29028320312482], [30.51400300026663, -69.28608703613263], [30.5141117191387, -69.28125762939435], [30.517836771018594, -69.27615356445293], [30.51254769325981, -69.27052307128886], [30.504542551047887, -69.26979064941388], [30.490906884461147, -69.26490143086087], [30.514141380336657, -69.26724649899734], [30.496166314581295, -69.2601740265243], [30.49966924477087, -69.25702544065284], [30.544893264770515, -69.25518035888658], [30.54121208190919, -69.2507705688475], [30.53704452514649, -69.24388885498034], [30.52884474725015, -69.23885492269447], [30.51185607910155, -69.2375106811522], [30.518379211425774, -69.23484039306626], [30.512329159165386, -69.22987024436169], [30.484494508436793, -69.22274552806877], [30.512027085951452, -69.21957169994377], [30.49975711219657, -69.21437608226795], [30.486386598280564, -69.21070634349847], [30.507386506727823, -69.21019517406486], [30.486537278822553, -69.20420609935785], [30.49734240882742, -69.20194779857661], [30.51182872169364, -69.20409165843986], [30.509759248427038, -69.20064317211174], [30.51196986549246, -69.19759141429924], [30.515443147352816, -69.1865211628344], [30.52036410682547, -69.18289720043205], [30.533016204833988, -69.18003082275378], [30.532049179077156, -69.17505645751939], [30.527902603149407, -69.16815948486314], [30.533910751342773, -69.1630249023436], [30.530244827270497, -69.15861511230455], [30.52658843994142, -69.15420532226548], [30.52197456359862, -69.1448364257811], [30.522326663868256, -69.13982518250002], [30.521128655582203, -69.1364505757805], [30.523158541097523, -69.12797607365576], [30.533491119705285, -69.12162607890889], [30.551205904871665, -69.11562129877044], [30.568634558869295, -69.10547729193134], [30.586945105744295, -69.0990228241579], [30.646439124298976, -69.09551330267354], [30.69016893914604, -69.10747940307071], [30.718651490681186, -69.11188963155794], [30.70273762426107, -69.10617878589962], [30.65730696354727, -69.08984984798647], [30.66263549220379, -69.08615710129513], [30.6658254990635, -69.08238037769448], [30.669104231363313, -69.0777951115812], [30.6919699252892, -69.07059895010332], [30.698407226924946, -69.0679362914119], [30.69632058752064, -69.06448780508377], [30.72634988439564, -69.05421101065016], [30.796977757726868, -69.04876223751613], [30.855214833532536, -69.04021731564112], [30.922450780187816, -69.04139224239894], [30.95047453919708, -69.04381857045409], [30.978411323564806, -69.04963327515037], [30.978932751965548, -69.06126673588203], [30.995479893673938, -69.08736128687684], [30.993225147869037, -69.06342871120378], [31.017137816381798, -69.06704592133099], [31.034189734084407, -69.06935799362846], [31.076021544253187, -69.07356804612063], [31.09139478158408, -69.08225956488117], [31.1236748400771, -69.0846059576733], [31.132440276001184, -69.09153950259021], [31.146819471976993, -69.08976033003349], [31.150539111126864, -69.09356241914944], [31.16647011168876, -69.09534304832333], [31.196540660773632, -69.0903982180275], [31.19345092773439, -69.10038757324196], [31.197227478027287, -69.10476684570291], [31.202650070190423, -69.11010742187486], [31.21657371520996, -69.1097030639647], [31.226282119750984, -69.11541748046861], [31.233313760764666, -69.11881256103494], [31.232173166282262, -69.12293243408182], [31.233048639304723, -69.12904357910136], [31.242228708274443, -69.1304473876951], [31.25279160500295, -69.13106536865213], [31.261515817649435, -69.12821197509744], [31.268214426047887, -69.12336730957011], [31.270792007446286, -69.12010955810531], [31.27945185950321, -69.11967501784068], [31.282958230979514, -69.12405395507791], [31.280019006736364, -69.12711334228496], [31.28721543312796, -69.12894439697246], [31.296575549071807, -69.12733972487901], [31.303743251859288, -69.12639718946768], [31.31657203916026, -69.12851843041597], [31.304455957419947, -69.13586425781232], [31.30410691262015, -69.13884735107399], [31.31290741921194, -69.14081573486308], [31.320889673240263, -69.14151000976543], [31.33124657631642, -69.14120483398418], [31.345357141501978, -69.1391143798826], [31.35506173134574, -69.13603973388652], [31.359407400177005, -69.13163617366975], [31.385623974006794, -69.1337995790386], [31.40009623692708, -69.13499181595812], [31.40235825539359, -69.13982391357402], [31.39040490151175, -69.1399917602537], [31.37828370095023, -69.14166259765602], [31.37975998879201, -69.14570617675761], [31.391160211570345, -69.14759063720682], [31.39699669838676, -69.15020751953105], [31.398863992698285, -69.15367889404277], [31.405694208152365, -69.15607452392558], [31.41864701271779, -69.1556854248045], [31.43391533852346, -69.1518783569334], [31.43744202614553, -69.14916992187482], [31.433200082786147, -69.14669799804668], [31.422953805930696, -69.14310455322246], [31.42163582802543, -69.13756561279277], [31.453564403912225, -69.13739175539848], [31.455350122459013, -69.14769744873027], [31.452874383933622, -69.15260314941386], [31.458111963279325, -69.15486145019511], [31.47585984230763, -69.15487670898418], [31.484723291404336, -69.15051269531229], [31.490609369285174, -69.1468048095701], [31.498315057761747, -69.14414978027321], [31.48524781227834, -69.13971710205057], [31.490854263305668, -69.13751220703112], [31.49945289808011, -69.13688701098945], [31.511823755179122, -69.13878455038211], [31.518919639202576, -69.13547160845047], [31.51130993022035, -69.13098642741727], [31.514110449473993, -69.12748942473831], [31.49183712489387, -69.12054786489315], [31.507372479508124, -69.12107429311581], [31.49227009303353, -69.1165348033697], [31.523792843888018, -69.11355933950253], [31.518303494522787, -69.1082263927252], [31.544470410416327, -69.1064182262213], [31.54224453456184, -69.1029849986822], [31.547970395157545, -69.09781989858456], [31.598432627601976, -69.08331090765786], [31.621361914626313, -69.08557384077139], [31.634505042648847, -69.09237804978311], [31.64696834836149, -69.08955953753207], [31.68242174070784, -69.09304991878454], [31.704369160530486, -69.09847818835767], [31.716992951778717, -69.09673057137934], [31.755378122039424, -69.10345901136141], [31.775652874802454, -69.11074172569437], [31.82723952720074, -69.11295387148085], [31.858542030406824, -69.11910800723584], [31.994785743379104, -69.13848195678817], [32.073387145996094, -69.14257049560531], [32.200698852539055, -69.14565277099595], [32.23576736450195, -69.14041900634751], [32.35929107666014, -69.13500213623027], [32.46005739890981, -69.12131962193078], [32.48246543531318, -69.12143895075961], [32.51787144790917, -69.1096013300009], [32.52475281716115, -69.1033248901365], [32.568366250999034, -69.12924957275368], [32.58769913674123, -69.14695739746071], [32.5996772861553, -69.1520996093748], [32.61209031105764, -69.15516662597634], [32.61177369118461, -69.16114044189432], [32.62250824929008, -69.16557312011699], [32.650946817405284, -69.18368530273418], [32.64581604958303, -69.18927764892558], [32.64880295754202, -69.19400787353497], [32.67299576760062, -69.20128631591778], [32.68313904762991, -69.20536804199199], [32.68963547707328, -69.21127319335919], [32.707480630881854, -69.22344207763652], [32.72029801369435, -69.23282623290996], [32.720206460959986, -69.2550048828123], [32.747096261985384, -69.26216888427714], [32.780482492454134, -69.27672576904277], [32.81585999489553, -69.2839355468748], [32.826991281516634, -69.28927612304666], [32.828860483176776, -69.29871368408185], [32.83263703346975, -69.30918884277327], [32.85967942238576, -69.32323455810527], [32.884574136741236, -69.32691955566388], [32.92842789650686, -69.34552764892561], [32.925479135520526, -69.35459136962872], [32.935343942649446, -69.36072540283183], [32.947825632102564, -69.36676025390605], [32.944937906272486, -69.3743362426756], [32.941519937522486, -69.37857055664043], [32.95716019631155, -69.3878402709959], [32.96921082497365, -69.39743041992169], [32.99069519997368, -69.40833282470685], [32.995131692893594, -69.41226196289044], [32.998080453879915, -69.42147064208967], [32.99648591042288, -69.42973327636703], [32.96976014137989, -69.44571685790999], [32.99096985817679, -69.44730377197249], [33.02434082985647, -69.47676086425763], [33.01070710182913, -69.49222564697246], [33.02562256813772, -69.50711822509747], [33.031825265891634, -69.51806640624983], [33.04523392678029, -69.52984619140608], [33.01214905739553, -69.54627227783185], [33.02461930275686, -69.55678558349591], [33.0362121677471, -69.5744323730467], [33.03342743874319, -69.57901763916], [33.01884003639944, -69.58183288574202], [32.993342599876016, -69.58563995361312], [32.98809739113576, -69.59423828124983], [32.95800324440725, -69.62378692626937], [32.95872803688773, -69.63103485107405], [32.98265000344046, -69.64540100097639], [32.98146363259084, -69.66000366210922], [32.96239396095999, -69.68408203124984], [32.95894547463186, -69.69671630859357], [32.92238541603812, -69.71680450439437], [32.92369004250295, -69.72589874267561], [32.930793008811555, -69.73962402343733], [32.928851327903345, -69.74697875976548], [32.88892289162405, -69.75691223144516], [32.87779160500296, -69.76088714599594], [32.879855356223665, -69.76734161376936], [32.86876221657523, -69.77822113037094], [32.82011719704397, -69.79499816894516], [32.819266519553736, -69.79914093017561], [32.82447358132132, -69.80192565917953], [32.83436890602835, -69.80416870117173], [32.849539957053736, -69.80770111083967], [32.853385171897486, -69.81128692626939], [32.86084671974905, -69.81604003906234], [32.86635895729786, -69.81975555419905], [32.87353440285452, -69.82358551025375], [32.87559815407523, -69.83003997802719], [32.87375184059866, -69.83440399169903], [32.86821671486624, -69.83909606933578], [32.85227509499319, -69.84511566162095], [32.85136719704398, -69.85075378417955], [32.84455414772757, -69.86165618896469], [32.850730142600625, -69.86571502685531], [32.87695618630179, -69.86975860595687], [32.886412820823274, -69.87555694580062], [32.884711465842805, -69.90065002441392], [32.866824350364276, -69.90412902832014], [32.827960214622095, -69.90485382080062], [32.80511780739554, -69.9064559936522], [32.784167490012734, -69.91060638427719], [32.774390420920916, -69.91918182373031], [32.772731027610384, -69.92597198486314], [32.77238007546194, -69.93344879150375], [32.80304261208303, -69.93753051757798], [32.82549210549123, -69.93799591064437], [32.8051216220928, -69.95089721679672], [32.79460831642874, -69.9606323242186], [32.79826661110647, -69.9687118530272], [32.80643387795217, -69.97381591796861], [32.78208848000296, -69.9915390014647], [32.75004883766897, -70.01438903808581], [32.70483323097952, -70.01643371582017], [32.66788407326469, -70.02749633789047], [32.59059449196586, -70.04785156249984], [32.56381531716117, -70.04433441162095], [32.536338052756854, -70.05278015136702], [32.524581155784205, -70.05189514160145], [32.51179429054984, -70.04581451416], [32.495658121116236, -70.03948211669906], [32.46601792336233, -70.03903961181626], [32.43655701637991, -70.04100799560533], [32.40148850441702, -70.0461502075194], [32.32032319069631, -70.06370544433581], [32.28772660256154, -70.06631469726548], [32.235602579124055, -70.07704925537094], [32.21038743019826, -70.09767913818347], [32.19969101906544, -70.10046386718734], [32.17206116677054, -70.10344696044909], [32.118514261252955, -70.09626770019517], [32.08840867043265, -70.09632873535142], [32.05573960304984, -70.10281372070298], [32.03209610939749, -70.11029815673814], [32.010504922874055, -70.11342620849594], [31.987870416648466, -70.11676788330065], [31.963786325461943, -70.12873840332017], [31.949927530295927, -70.13217163085925], [31.88283082009085, -70.13952636718736], [31.786101541526403, -70.1511383056639], [31.733176431663107, -70.1647033691405], [31.694449625022497, -70.17819976806628], [31.685141763694343, -70.17624664306624], [31.603751382835, -70.19715881347643], [31.579264841086946, -70.20030975341781], [31.545167169578164, -70.20041656494126], [31.52092858315237, -70.19438171386705], [31.46841164589651, -70.18827819824206], [31.45674630165824, -70.19216156005847], [31.44249840737111, -70.19828033447251], [31.428984842307653, -70.20124053955065], [31.412722787864297, -70.20439910888658], [31.37762757302054, -70.20621490478501], [31.3152935123516, -70.20401000976548], [31.245534143455103, -70.19564819335923], [31.21868058205374, -70.19575500488268], [31.18058701515923, -70.21207427978503], [31.134398660667028, -70.21937561035143], [31.090754709251, -70.21847534179675], [31.003777704246126, -70.20712280273423], [30.98586579323538, -70.21143341064439], [30.97800370217095, -70.23250579833972], [30.94728775978812, -70.23838806152331], [30.928334436423857, -70.23980712890612], [30.909169397361353, -70.24030303955064], [30.873770914084982, -70.23866271972642], [30.859652719504915, -70.24547576904283], [30.84843369484672, -70.25451660156237], [30.820494852073274, -70.27031707763659], [30.80251618386037, -70.27635955810536], [30.733897409446307, -70.28047943115222], [30.70298501015431, -70.27266693115222], [30.679192743308615, -70.26970672607409], [30.64212723732718, -70.26650238037095], [30.610810480125043, -70.27228546142565], [30.585398874290064, -70.27735900878893], [30.56719704628713, -70.28002166748034], [30.524039468772482, -70.28475952148425], [30.50126191139945, -70.28398895263659], [30.486031732566435, -70.27689361572254], [30.478293619163114, -70.26589202880847], [30.457036218650412, -70.26433563232406], [30.44038125038871, -70.27198028564439], [30.346375665671896, -70.29589080810533], [30.318980417258828, -70.2940750122069], [30.303725442893576, -70.28938293457017], [30.274750909812536, -70.29076385498033], [30.247628412253935, -70.29898834228503], [30.23202630043753, -70.29821014404281], [30.195252618796896, -70.29341888427722], [30.147061548240252, -70.30430603027331], [30.12265892983206, -70.30667877197253], [30.07293435097464, -70.31255340576158], [30.02401085854299, -70.3230514526366], [29.992047510154325, -70.32351684570298], [29.963488779075227, -70.32762145996081], [29.871627054221715, -70.3171463012694], [29.82196923256645, -70.3272247314452], [29.797194681174826, -70.33104705810534], [29.78633996010551, -70.33554077148426], [29.745469293601595, -70.35585021972643], [29.71006890297659, -70.35929870605456], [29.70270653725394, -70.36167144775379], [29.687365732200224, -70.36604309082018], [29.665095529563498, -70.37557220458973], [29.650679788596708, -70.37545776367173], [29.638117990501, -70.37308502197253], [29.62970849037893, -70.36894989013659], [29.610924921042994, -70.35868072509753], [29.593152246482465, -70.35825347900379], [29.584237298972678, -70.36138916015614], [29.57206459999808, -70.36849212646472], [29.550706110007834, -70.38784790039051], [29.519946298606463, -70.393226623535], [29.505292139060575, -70.39887237548815], [29.48833008766897, -70.4040069580077], [29.456309518821314, -70.40864562988268], [29.433572015769563, -70.40865325927723], [29.381139001853544, -70.40282440185534], [29.36299248696096, -70.40386962890612], [29.346596918113317, -70.40934753417956], [29.325394830710962, -70.41620635986317], [29.34556694985158, -70.42909240722643], [29.351842126853548, -70.4379196166991], [29.340348443992223, -70.4429473876952], [29.31532975197562, -70.44670104980456], [29.292123041160185, -70.45153808593737], [29.178212366111353, -70.4966812133788], [29.117644510276385, -70.53128051757801], [29.084031305320337, -70.56844329833973], [29.05964585304983, -70.5786666870116], [29.034878931052763, -70.58181762695301], [29.015700540549826, -70.58059692382801], [28.957806787498075, -70.57843017578112], [28.91272469521291, -70.58482360839831], [28.86050530434378, -70.59725189208973], [28.836888513572305, -70.60109710693348], [28.828067026145543, -70.60698699951163], [28.809531412131864, -70.61132049560536], [28.78837510109671, -70.60285186767567], [28.76897545815238, -70.59974670410145], [28.73365708351858, -70.60428619384754], [28.682160577781282, -70.61460876464831], [28.673077783591822, -70.61862182617176], [28.652196130759798, -70.62241363525379], [28.63660927773245, -70.62855529785145], [28.64922257424125, -70.63622283935536], [28.649434289939478, -70.64329528808582], [28.591651163108423, -70.67506408691396], [28.57510300637015, -70.6780471801757], [28.535296640403356, -70.67906188964834], [28.445401391990263, -70.68527221679676], [28.40145035744436, -70.69598388671864], [28.33544465065726, -70.69406127929675], [28.307257852561555, -70.69341278076159], [28.29874154091604, -70.69871520996082], [28.290219507224638, -70.70401000976553], [28.263196191794943, -70.71022796630848], [28.20080109596976, -70.71138763427724], [28.168593606956087, -70.71001434326162], [28.145316324241243, -70.72120666503896], [28.124293527610387, -70.72586059570303], [28.09458657265434, -70.7278060913085], [28.060275278098658, -70.73573303222645], [28.036557397849638, -70.73519134521473], [28.01321907997854, -70.73222351074207], [27.967114648826193, -70.73371887207021], [27.944398126609403, -70.73910522460926], [27.90862389565237, -70.7434844970702], [27.891782007224627, -70.74454498291006], [27.864188394553732, -70.74512481689443], [27.82256241799124, -70.746726989746], [27.740992746360384, -70.75009155273425], [27.674308023459986, -70.7672805786132], [27.623435220725614, -70.78639221191396], [27.55164261818654, -70.79685974121081], [27.50543709755667, -70.80009460449209], [27.469624719626974, -70.80809783935536], [27.42446633339651, -70.82284545898428], [27.369654855735376, -70.83873748779286], [27.303879938132834, -70.8497085571288], [27.2596942997051, -70.85231781005851], [27.197716913230497, -70.85529327392568], [27.148129663474627, -70.85841369628895], [27.12618752480276, -70.86444091796864], [27.11172028542288, -70.87435150146476], [27.100260934836946, -70.89076232910148], [27.091149530418, -70.91052246093741], [27.0425312137676, -70.92239379882804], [27.0283939457012, -70.92615509033193], [27.01542969704398, -70.9315872192382], [27.006484231956087, -70.93868255615226], [26.97129174233206, -70.94453430175771], [26.930773935325238, -70.94145965576162], [26.930970392234414, -70.95169830322256], [26.916264734275416, -70.95787048339834], [26.880461893088903, -70.96520233154287], [26.851489267356474, -70.97325134277334], [26.81500741005668, -70.97647094726553], [26.791003427512724, -70.97389984130848], [26.77846070290334, -70.97502899169912], [26.71683236122855, -70.97676849365226], [26.694562158591822, -70.97529602050771], [26.640912256248082, -70.97570037841788], [26.61580582619437, -70.97887420654288], [26.55263178061244, -70.99475039852594], [26.557228254761895, -71.01812178782251], [26.558467324019684, -71.02855079865806], [26.4977146269291, -71.03736316703959], [26.35572979658533, -71.03098023290944], [26.30407292797061, -71.03301313121501], [26.23728852960726, -71.04322572374805], [26.177360819094144, -71.04115747592006], [26.163904958073598, -71.03654030946743], [26.15172692299611, -71.02828216552726], [26.145087442405302, -71.01821136474601], [26.135590763760916, -71.01285521730358], [26.12510987282522, -71.01630401611318], [26.11758728981741, -71.0198211669921], [26.116372308738313, -71.0227966308593], [26.12930794716604, -71.03232574462882], [26.13715668679007, -71.03942108154288], [26.13414116860159, -71.04592895507804], [26.12767144203909, -71.05299377441398], [26.107426843650416, -71.06038665771476], [26.076333246238306, -71.06533050537101], [26.03503724098929, -71.0653991699218], [25.99683686257131, -71.05801391601553], [25.969657144553743, -71.04750061035148], [25.969186029441424, -71.04432678222648], [25.97107811928517, -71.03893280029288], [25.969666681296914, -71.02943420410146], [25.96005173683889, -71.02586364746085], [25.916871271140664, -71.03315734863273], [25.889991006858438, -71.03231048583974], [25.864371500022497, -71.02848052978506], [25.80565758705862, -71.02246856689442], [25.744677743918974, -71.0167922973632], [25.649979791648462, -70.9997482299804], [25.624139032371126, -70.99085235595693], [25.595854959495146, -70.97450256347649], [25.566707592864383, -70.96937637082794], [25.520054281796995, -70.98018693691398], [25.47981473590694, -70.987002246292], [25.39541932106742, -70.97569274902335], [25.375374994285195, -70.96773529052726], [25.34606858254203, -70.96213531494134], [25.340188226707067, -70.95613861083974], [25.32921906471975, -70.9495391845702], [25.303536615378935, -70.94153594970692], [25.284623346335962, -70.92649841308585], [25.27851792336233, -70.92422485351553], [25.267550668723665, -70.92637634277334], [25.259904108054716, -70.92985534667957], [25.25484200478323, -70.93708038330068], [25.25888367653616, -70.9525680541991], [25.253401956565455, -70.95755767822256], [25.24669571877249, -70.96364593505851], [25.216490945823274, -70.97105407714832], [25.184909067161158, -70.9736022949218], [25.14662285805472, -70.96659088134756], [25.121031961448278, -70.96544647216788], [25.103675088889684, -70.96121215820303], [25.09069939614066, -70.95216369628896], [25.066508493430693, -70.94804382324212], [25.063571176536165, -70.94206237792959], [25.062176904685586, -70.938133239746], [25.056393823630884, -70.93212890624989], [25.043233118064478, -70.92586517333972], [25.01855011940725, -70.9213638305663], [24.99257966042288, -70.91201019287098], [25.00265809059867, -70.90036773681632], [25.010798654563505, -70.89820861816395], [25.03283806801565, -70.89989471435537], [25.055793008811552, -70.89730072021474], [25.04588433266408, -70.89330291748038], [25.019860467918004, -70.89176940917959], [25.005278787620142, -70.88940429687491], [24.985022745139666, -70.88698577880848], [24.96715279579885, -70.88328552246084], [24.926575860984418, -70.8665237426757], [24.910586557395533, -70.8611602783202], [24.89110680580863, -70.8632049560546], [24.89529534340627, -70.86715698242178], [24.91864510536917, -70.8727798461913], [24.934111795432646, -70.87776947021474], [24.94897004128226, -70.88330841064442], [24.957837305076193, -70.89250946044912], [24.927890024192408, -70.90992736816396], [24.911124429709986, -70.91293334960926], [24.891139230735373, -70.91367340087879], [24.845906457908242, -70.91043853759754], [24.775822839744173, -70.8994903564452], [24.73287697792776, -70.89085388183584], [24.722563943870153, -70.86858367919913], [24.705847940452177, -70.85964965820303], [24.659133157737337, -70.85020446777332], [24.610400400168967, -70.84426879882801], [24.55387230873831, -70.82667541503896], [24.567757806785195, -70.81864166259757], [24.58176728249319, -70.81470489501943], [24.579957208640643, -70.8104019165038], [24.530358514792997, -70.79269409179678], [24.4845420932842, -70.79270935058582], [24.486617288596708, -70.78417205810536], [24.45775719643363, -70.77433013916007], [24.346028528220735, -70.72023773193347], [24.33672066689261, -70.70838928222646], [24.34450264931448, -70.69489288330065], [24.415219507224634, -70.66191101074209], [24.45115967751273, -70.64690399169909], [24.506676874168, -70.64218139648426], [24.529914102561552, -70.64003753662098], [24.53683205605277, -70.63304138183582], [24.524369440085977, -70.62899017333974], [24.473542413718782, -70.61702728271473], [24.453950128562532, -70.601707458496], [24.447428903586935, -70.57482910156239], [24.44898148537404, -70.55587005615223], [24.434533319480494, -70.53521728515612], [24.400017938621122, -70.51487731933582], [24.327946863181673, -70.46873474121082], [24.24040337563286, -70.4431915283202], [24.199982843406275, -70.42421722412097], [24.09107323647268, -70.39959716796861], [24.070220193870153, -70.40226745605456], [24.035405359275423, -70.40566253662097], [24.018771144921818, -70.405254218003], [23.97725794809319, -70.38748205677719], [23.86991855644598, -70.31139432812897], [23.901975631713853, -70.30286407470695], [23.916442871093746, -70.30559539794913], [23.932939529418945, -70.30435943603509], [23.94068145751953, -70.30196380615226], [23.939514233111343, -70.2985122088197], [23.936666488647464, -70.2878875732421], [23.925912857055664, -70.27971649169912], [23.92491340637207, -70.2761917114257], [23.932645797729492, -70.27381134033195], [23.949885126045693, -70.27687663775374], [24.003583908081048, -70.28640747070303], [24.01739311218262, -70.29412841796866], [24.061155319213864, -70.29978179931632], [24.066555023193363, -70.303855895996], [24.086784362792972, -70.30816650390616], [24.107975006103512, -70.30496978759756], [24.108604431152347, -70.2999725341796], [24.135509490966797, -70.29836273193351], [24.13749504089355, -70.29438018798821], [24.168451309204098, -70.29582977294913], [24.1735782623291, -70.30240631103507], [24.18474960327148, -70.30807495117179], [24.24506759643554, -70.31239318847648], [24.252784729003903, -70.3100051879882], [24.23221969604493, -70.3082275390624], [24.207885742187504, -70.30088043212875], [24.211524963378903, -70.29542541503896], [24.226621627807624, -70.2931365966796], [24.23764991760254, -70.28778076171866], [24.257125854492188, -70.28603363037101], [24.26210784912109, -70.28160858154288], [24.314472198486328, -70.27729797363273], [24.346506118774407, -70.28223419189445], [24.353326797485302, -70.28733062744128], [24.351400375366218, -70.2913131713866], [24.359600067138672, -70.29741668701163], [24.40374374389648, -70.3004837036132], [24.430063247680668, -70.31732940673818], [24.465753555297848, -70.31677246093741], [24.49486732482911, -70.32213592529288], [24.499154889010946, -70.3241166611511]], [[28.209031748390533, -69.96780305195696], [28.18291741667806, -69.96766888025171], [28.175756616053995, -69.96799744363379], [28.165026575177784, -69.97095371419005], [28.161403930354357, -69.97293371936966], [28.15863152791139, -69.97607277351501], [28.160039813457566, -69.97943135543996], [28.16334006407508, -69.98277188955365], [28.174555074773533, -69.98564732532073], [28.189342789095395, -69.9858934400328], [28.207717687648103, -69.97922907153179], [28.209031748390533, -69.96780305195696]]]}}]}