{"type": "FeatureCollection", "features": [{"id": "0", "type": "Feature", "properties": {"NAME": "Fimbul", "Regions": "East", "TYPE": "FL"}, "geometry": {"type": "Polygon", "coordinates": [[[3.822148862697143, -70.1153411013166], [3.8137153162804664, -70.1173901284346], [3.8129216669060355, -70.11987868976931], [3.818505766939855, -70.12222253298246], [3.8329642190673736, -70.1240735117151], [3.841383016808304, -70.12344538334335], [3.844838387654111, -70.12147706259502], [3.8439561502067825, -70.11917191120311], [3.8415451140260672, -70.11777371032417], [3.8388837760968606, -70.11633199149779], [3.854879874689838, -70.11727748930554], [3.869226535314236, -70.1099728813787], [3.8771187678963503, -70.10669373563232], [3.9041278273387667, -70.11589077138275], [3.9007403806524996, -70.10276289758825], [3.9198442114273537, -70.10905217780368], [3.9216214756359267, -70.09845164396688], [3.946300635639384, -70.10909310542192], [3.954388274340496, -70.10124173805202], [3.967978463178815, -70.0977402835041], [3.9752811068860674, -70.09278961281304], [3.9832580089569087, -70.09849548339835], [4.000304222106933, -70.10145568847648], [4.0021371841430655, -70.1103744506835], [4.003511428833008, -70.11705780029288], [4.070199554746531, -70.11859370303955], [4.111823748295303, -70.11556601514933], [4.127513094634026, -70.12435621949832], [4.131667953068311, -70.13770210376988], [4.127438726394989, -70.14171237268827], [4.119061476873058, -70.14965591082779], [4.117714837856948, -70.15890231632427], [4.115143255062759, -70.1623279144688], [4.109747842617691, -70.16805758976179], [4.097795919247328, -70.17395511173444], [4.094222434640529, -70.18523917419189], [4.085304626107813, -70.18993888122314], [4.087416061044339, -70.19997153503174], [4.082003959298732, -70.20570883971922], [4.076916217803955, -70.21614074707024], [4.070804119110107, -70.21853637695303], [4.073382377624511, -70.23078918457021], [4.071025371551513, -70.2353286743163], [4.068902492523195, -70.24098968505851], [4.049408508349159, -70.24907306639179], [4.046941835877502, -70.25316814846143], [4.0585632645962075, -70.25489934510631], [4.057748712492676, -70.26051963525568], [4.0540342330932635, -70.26487731933587], [4.0519018173217765, -70.2705307006835], [4.050236701965333, -70.2784194946288], [4.057560094232542, -70.28616058449586], [4.055838108062745, -70.2922439575194], [4.055358409881594, -70.3192672729491], [4.059666156768798, -70.32508087158192], [4.0880694389343235, -70.36595916748034], [4.127010345458987, -70.42072296142565], [4.141663074493407, -70.43117523193347], [4.196079730987548, -70.45312499999989], [4.22900915145874, -70.46728515624987], [4.253277778625486, -70.47583007812487], [4.272066116333008, -70.48201751708973], [4.3005781173706055, -70.48712158203114], [4.3154234886169425, -70.48674774169909], [4.338065624237059, -70.48783874511706], [4.3582358360290545, -70.48899078369128], [4.388876438140869, -70.49237060546862], [4.407342910766601, -70.49688720703114], [4.417052268981932, -70.49580383300768], [4.425994396209716, -70.4914093017577], [4.4353160858154315, -70.48867034912101], [4.44958257675171, -70.48580932617176], [4.4687905311584455, -70.48281097412097], [4.485520362854003, -70.47988128662098], [4.511548995971682, -70.47419738769521], [4.524815082550049, -70.46719360351551], [4.547081947326661, -70.4458084106444], [4.578861713409426, -70.41251373291003], [4.586041927337646, -70.39068603515614], [4.590837478637697, -70.35894775390612], [4.586304664611819, -70.33994293212878], [4.544006824493408, -70.26540374755847], [4.52906894683838, -70.25416564941393], [4.5208964347839355, -70.24024963378893], [4.518182754516502, -70.23517608642565], [4.510818004608154, -70.23200988769523], [4.51197510541002, -70.22277288139045], [4.50174739423347, -70.2185657617013], [4.49324893951416, -70.21341705322257], [4.50285768508911, -70.21203613281241], [4.5696845054626465, -70.21472930908195], [4.588364124298097, -70.20973968505851], [4.635698711980888, -70.2028212131768], [4.699907862896868, -70.20633782286605], [4.730251077768734, -70.20815686994838], [4.753351667154348, -70.20818051695345], [4.776776799810804, -70.20015962728958], [4.805850523810928, -70.19782288165192], [4.829874242917215, -70.1960267647418], [4.864054884091531, -70.1871919258746], [4.9165855990158756, -70.17635006473691], [4.970669734037035, -70.1618651327268], [5.06828210055403, -70.14995116671068], [5.127087148217631, -70.1437065953994], [5.1842541694641096, -70.1352310180663], [5.226498126983643, -70.13280487060538], [5.228871822357177, -70.12936401367179], [5.238387107849121, -70.12794494628896], [5.231819629669189, -70.11579895019521], [5.236449502138563, -70.11093507698997], [5.2851028232880415, -70.10806611166979], [5.306683276358277, -70.10267392168451], [5.32326602935791, -70.1005859374999], [5.333064556121824, -70.10027313232413], [5.340513229370117, -70.10340118408193], [5.342041015625001, -70.10896301269521], [5.34918737411499, -70.11098480224601], [5.351327896118167, -70.11875915527335], [5.356131553649902, -70.12422943115226], [5.3582773208618155, -70.13201141357413], [5.358994960784911, -70.14658355712882], [5.357668422275845, -70.15380636555011], [5.376868515961887, -70.15137035036462], [5.381870504402733, -70.16677472308407], [5.403498649597168, -70.18782043457021], [5.409574985504152, -70.1977310180663], [5.424023410214622, -70.20704736082534], [5.451932907104492, -70.21881866455068], [5.462282180786131, -70.23196411132803], [5.480613684399306, -70.25158769634515], [5.496882438659667, -70.26956939697253], [5.518875122070314, -70.27968597412095], [5.530796527862551, -70.28470611572253], [5.567313671112061, -70.30224609374987], [5.59311103820801, -70.3124313354491], [5.599732875823973, -70.32033538818347], [5.619769573211671, -70.3275909423827], [5.6682348251342765, -70.33472442626937], [5.67987060546875, -70.33433532714831], [5.715263843536378, -70.33272552490222], [5.726711273193358, -70.32963562011706], [5.746546745300292, -70.32979583740222], [5.762277603149417, -70.32863616943347], [5.7975540161132795, -70.31847381591784], [5.809020519256594, -70.31141662597643], [5.811423301696779, -70.30300140380848], [5.807154655456544, -70.29293823242175], [5.773456096649173, -70.26493072509753], [5.699844401653202, -70.21506047076359], [5.681244731562795, -70.20226349389965], [5.670748115199264, -70.20036377466137], [5.651099563258349, -70.18979706323559], [5.645556808131397, -70.18212189233715], [5.574912071228029, -70.15079498291007], [5.5739521980285645, -70.14745330810537], [5.580710598797028, -70.14056367687483], [5.554432868957517, -70.11844635009753], [5.54324817657471, -70.10924530029283], [5.522966861724855, -70.10759735107413], [5.522017955780029, -70.1042480468749], [5.520127296447755, -70.09759521484366], [5.5303406715393075, -70.08714294433584], [5.54955053329468, -70.08635711669906], [5.56617546081543, -70.07830810546858], [5.5509257311256635, -70.06990953031308], [5.5634527206420925, -70.06471252441398], [5.568383693695071, -70.05894470214835], [5.576344013214112, -70.05841064453111], [5.583458423614503, -70.05983734130844], [5.607046604156498, -70.06342315673814], [5.620749950408938, -70.06441497802722], [5.6317658424377415, -70.05821990966783], [5.636389255523684, -70.0489120483397], [5.623971939086916, -70.04599761962878], [5.608814716339112, -70.05085754394523], [5.609506130218506, -70.04185485839835], [5.621571540832521, -70.03807830810537], [5.619651794433595, -70.03141021728506], [5.60925054550171, -70.02951049804678], [5.608293056488038, -70.02617645263663], [5.620023727416993, -70.02129364013662], [5.661589698601628, -70.03981680019851], [5.652059012294204, -70.02702855480759], [5.6634580658151545, -70.02598417473115], [5.661037303673945, -70.01747354920684], [5.683566009827804, -70.01693031562365], [5.712749684089744, -70.01802191759396], [5.746779339483002, -70.01829687234216], [5.774305343627929, -70.0194854736327], [5.816964793619954, -70.01921335991243], [5.834000110626223, -70.02145385742179], [5.88659096752124, -70.02361534805262], [5.921079447426885, -70.02838158341223], [5.9639677698656035, -70.03434716702839], [6.021720222678459, -70.03939278919806], [6.05384736722805, -70.03830917505971], [6.081635927401085, -70.03512082231404], [6.069881731048795, -70.03983182876253], [6.061794700444731, -70.04474572283019], [6.104996526186159, -70.03714189850521], [6.138761468882694, -70.03977386989085], [6.148128509521486, -70.04254150390616], [6.149389743804932, -70.04653930664053], [6.163628101348877, -70.05410766601553], [6.167300494784199, -70.05801668696901], [6.190068547345125, -70.06848190964591], [6.195845026596573, -70.08088854962045], [6.208958148956299, -70.08479309082021], [6.210234642028807, -70.08879852294912], [6.22324752807617, -70.09236145019521], [6.231428322269582, -70.09599869228676], [6.254036200058071, -70.10760192120252], [6.272224494889197, -70.11856419594383], [6.273959159851076, -70.1259841918944], [6.266955375671384, -70.12895965576156], [6.256864547729493, -70.12995910644517], [6.243083477020264, -70.12901306152328], [6.229380607604985, -70.12639617919908], [6.2158073504401194, -70.12601616308497], [6.201444023951449, -70.12619958567578], [6.1909332275390625, -70.12490081787095], [6.1720788740860515, -70.11742475382901], [6.1575681244193685, -70.10924854044654], [6.136510220216534, -70.09858136310493], [6.129484165912289, -70.09997514781772], [6.155508042890416, -70.1143491824151], [6.179111539300781, -70.12492129355333], [6.189631938934325, -70.13234710693344], [6.218289269945578, -70.14327044681066], [6.227213859558105, -70.14637756347642], [6.237454500793309, -70.14636489573282], [6.242303371429441, -70.14373016357408], [6.24877691268921, -70.14099121093736], [6.263312339782712, -70.14044952392564], [6.279180526733398, -70.14402770996081], [6.29518747329712, -70.14801025390611], [6.3087712714344315, -70.15515027005931], [6.315363883972169, -70.16101074218737], [6.341031627175639, -70.17390483354947], [6.358624458312987, -70.18063354492173], [6.414241313934326, -70.19645690917953], [6.434278896234231, -70.2045972139476], [6.4486007690429705, -70.21098327636706], [6.456305027008058, -70.21194458007798], [6.464811801910401, -70.21161651611314], [6.4772400856018075, -70.21197509765611], [6.493452548980712, -70.21260070800768], [6.503590106964114, -70.21346282958972], [6.51831150054932, -70.21331024169909], [6.530185222625731, -70.21201324462878], [6.546877861022949, -70.20677947998033], [6.554502010345457, -70.20022583007798], [6.558408260345462, -70.17546081542955], [6.540818214416502, -70.1561355590819], [6.522952556610105, -70.13510131835923], [6.509716987609862, -70.12815093994126], [6.512917775970479, -70.11787194806568], [6.524062449883961, -70.11969772282814], [6.51620615159416, -70.11100856573522], [6.534968177191452, -70.11142000389734], [6.52547600204086, -70.10521404393943], [6.558743230309341, -70.10391664129533], [6.57995389526568, -70.1023175557846], [6.627916937955248, -70.09901314608423], [6.694035564303886, -70.09461324128107], [6.651240621547632, -70.09351905085039], [6.611478592499812, -70.09221691429981], [6.584192884381625, -70.09167202239531], [6.549684303523451, -70.08610386610118], [6.541345128278008, -70.0809271415627], [6.536274599994352, -70.07551942494634], [6.54885265741924, -70.07045882317081], [6.500016125123598, -70.06662231867415], [6.491748086418961, -70.04580354315077], [6.504879275207133, -70.0423823800932], [6.619092217888688, -70.03674745184217], [6.643134844405714, -70.03506685701056], [6.723809833479537, -70.02958361014652], [6.774629101682822, -70.02657848077212], [6.830098300173292, -70.02513227370127], [6.851486401697569, -70.02231254607071], [6.883117027545188, -70.02019701455114], [6.9046790986966515, -70.01890727341598], [6.976418414011458, -70.0226000970672], [7.034046884998371, -70.01426309562464], [7.076166166962129, -70.00894803610117], [7.096915245056153, -70.00546264648428], [7.158446181915309, -69.99659289720348], [7.178288301648304, -69.99346124956583], [7.204605554838652, -69.9892612457063], [7.224355851792617, -70.0071732355249], [7.231341775378928, -70.01509768578069], [7.233079910278321, -70.02661895751943], [7.135747156989655, -70.05018270202821], [7.246109721062682, -70.03440072412477], [7.249728893013381, -70.03894682710035], [7.252239227294924, -70.04269409179679], [7.2543039321899405, -70.04823303222648], [7.260031700134277, -70.05474853515615], [7.264929771423341, -70.05902862548818], [7.266584396362304, -70.0634536743163], [7.267827510833742, -70.06678009033193], [7.268861232118456, -70.07021039606667], [7.273981571197509, -70.07440948486318], [7.288656489114278, -70.07933813257216], [7.276779999479126, -70.08019319679748], [7.2815162266445865, -70.08697355048109], [7.279790878295897, -70.08992004394523], [7.281038761138913, -70.09325408935538], [7.279773827939793, -70.09777465208073], [7.282163217374942, -70.1049492207024], [7.28850582069259, -70.11641521681095], [7.304124769181929, -70.12327292804179], [7.320846080780027, -70.12868499755851], [7.331237980695818, -70.1318018967839], [7.331056599230165, -70.13730038650765], [7.347434520721435, -70.13765716552724], [7.384241266429062, -70.13471665699787], [7.374848634612497, -70.1433227746073], [7.378738228589827, -70.14711329364961], [7.396029472351078, -70.14341735839835], [7.400079034148642, -70.14600136044749], [7.41366576097811, -70.14819144406891], [7.426986697770396, -70.15152438246253], [7.431035634941717, -70.15941705779899], [7.422215877170797, -70.16184598506452], [7.414293289184571, -70.16514587402335], [7.414542695806022, -70.16965115348249], [7.408363364909668, -70.18154108708725], [7.413811893984023, -70.18492402912639], [7.402268192131718, -70.191625861474], [7.416125342021064, -70.19724092805335], [7.417400137096415, -70.2005672742836], [7.41213850654142, -70.20416841828768], [7.4183492660522505, -70.20817565917956], [7.40805053710937, -70.21909332275378], [7.4208345413208034, -70.29165649414051], [7.435349941253662, -70.33239746093739], [7.4542703628539995, -70.35874176025379], [7.491819381713869, -70.38802337646472], [7.505221366882321, -70.39997863769518], [7.520947933197024, -70.41257476806628], [7.484867095947267, -70.42239379882801], [7.468623161315916, -70.41766357421864], [7.44981479644775, -70.40956878662098], [7.4389796257019025, -70.40861511230456], [7.439364910125734, -70.41396331787097], [7.503754138946536, -70.4520339965819], [7.5118136405944815, -70.46116638183582], [7.530866146087648, -70.4682693481444], [7.570826530456547, -70.47444915771473], [7.586881160736087, -70.4833526611327], [7.5874509811401385, -70.49420928955065], [7.605253219604492, -70.50428771972645], [7.613509654998779, -70.5176544189452], [7.556463241577145, -70.53565979003895], [7.534172058105473, -70.53672790527332], [7.498992443084718, -70.53660583496084], [7.456530094146732, -70.54347991943347], [7.361314296722411, -70.55680847167957], [7.321069717407226, -70.5631408691405], [7.294748306274412, -70.55673217773426], [7.263530254364015, -70.55387878417957], [7.248281955718996, -70.55996704101551], [7.214782714843748, -70.5643081665038], [7.148505687713623, -70.56834411621082], [7.129033565521239, -70.56664276123037], [7.108799934387209, -70.55619812011707], [7.079621315002442, -70.55197906494132], [7.036090373992922, -70.549591064453], [7.003797054290773, -70.55384063720692], [6.977466583251955, -70.56410980224597], [6.937079906463622, -70.57035064697253], [6.915564537048341, -70.57331085205067], [6.9002685546875036, -70.57266998291004], [6.889515399932864, -70.56725311279286], [6.880303382873533, -70.56261444091784], [6.862853050231935, -70.5733413696288], [6.813821792602536, -70.59409332275379], [6.762100696563725, -70.60408020019521], [6.72950792312622, -70.60787200927722], [6.697850704193113, -70.61077880859362], [6.635429382324216, -70.60485076904286], [6.591878890991214, -70.59525299072254], [6.560420036315917, -70.59144592285145], [6.53010892868042, -70.59093475341786], [6.494196891784666, -70.59605407714831], [6.478107452392582, -70.60041809082018], [6.466715335845949, -70.60752868652332], [6.455034255981444, -70.61381530761706], [6.407368659973145, -70.62895965576159], [6.373143196105958, -70.63189697265614], [6.347742080688477, -70.63117218017567], [6.317515373229982, -70.6272735595702], [6.2839741706848145, -70.62850189208973], [6.224741458892824, -70.63191223144523], [6.188595771789549, -70.62904357910145], [6.157967090606691, -70.62763977050768], [6.123791217803954, -70.62301635742176], [6.07134246826172, -70.62403869628893], [6.031901359558105, -70.6225128173827], [5.9808931350708, -70.62011718749991], [5.899816513061523, -70.63001251220692], [5.864396095275881, -70.63330841064443], [5.825231552124023, -70.63672637939442], [5.797124862670898, -70.63934326171864], [5.7828083038330105, -70.63774108886707], [5.7652411460876465, -70.6295700073241], [5.7522945404052725, -70.62416839599598], [5.723944187164304, -70.62177276611317], [5.70989513397217, -70.63349914550771], [5.678766250610352, -70.65120697021473], [5.634902000427245, -70.6601562499999], [5.593514919281003, -70.66483306884754], [5.5692267417907715, -70.66353607177723], [5.518535614013669, -70.64933013916003], [5.481799602508542, -70.63966369628893], [5.453991889953615, -70.63471221923818], [5.426901817321778, -70.64099121093741], [5.418057918548586, -70.64960479736317], [5.378239154815674, -70.65543365478503], [5.325580596923827, -70.66040039062487], [5.270709514617919, -70.65750122070301], [5.230468750000001, -70.65290069580068], [5.179037094116211, -70.64403533935536], [5.137153625488283, -70.63779449462882], [5.107463359832764, -70.64408874511709], [5.083098411560059, -70.64689636230459], [5.06440544128418, -70.64744567871081], [5.026797771453859, -70.64771270751942], [5.010660171508786, -70.65317535400378], [5.012737751007081, -70.661033630371], [5.00857877731323, -70.66906738281237], [4.99828386306763, -70.67769622802724], [4.971254348754883, -70.68972015380848], [4.942461490631102, -70.69512939453112], [4.9276814460754395, -70.6963882446288], [4.911581516265867, -70.70225524902332], [4.892006874084476, -70.70447540283193], [4.842753887176514, -70.71377563476551], [4.819089889526369, -70.71485900878896], [4.777595043182374, -70.72016906738271], [4.761116027832033, -70.71979522705068], [4.728781223297119, -70.72151184082021], [4.6885814666748065, -70.73218536376942], [4.667799949645996, -70.73482513427726], [4.648805141448976, -70.73450469970693], [4.63908815383911, -70.7360153198241], [4.620598793029784, -70.73775482177722], [4.603098869323733, -70.7332305908202], [4.5870609283447275, -70.7294921874999], [4.565767765045165, -70.7300567626952], [4.541511535644531, -70.73402404785145], [4.515200138092042, -70.73471069335928], [4.498615264892582, -70.73389434814446], [4.477055072784422, -70.7333526611327], [4.456061840057375, -70.73463439941398], [4.43047332763672, -70.73897552490224], [4.40743112564087, -70.74289703369129], [4.396822452545165, -70.74607849121084], [4.383221149444581, -70.7472610473632], [4.366631031036379, -70.74642944335928], [4.354663848876951, -70.74922943115223], [4.349905490875245, -70.76141357421866], [4.346220493316649, -70.76733398437489], [4.315733909606934, -70.78308105468739], [4.290477275848389, -70.78870391845692], [4.2550010681152335, -70.78832244873037], [4.213055610656737, -70.78726959228506], [4.194996833801274, -70.7856216430663], [4.177830696105958, -70.7822952270507], [4.15966510772705, -70.77440643310537], [4.144845485687257, -70.77017974853506], [4.116319179534913, -70.77252197265615], [4.086440563201904, -70.78030395507801], [4.0542893409729, -70.7893829345702], [4.016436100006104, -70.80149841308584], [3.987728834152222, -70.809226989746], [3.972797870635986, -70.81040191650379], [3.9595117568969718, -70.80738067626943], [3.947054147720338, -70.80225372314443], [3.929177045822145, -70.80140686035146], [3.906955957412721, -70.80399322509757], [3.8827009201049822, -70.80287170410146], [3.861050605773926, -70.8021011352538], [3.833116054534911, -70.8077163696288], [3.8128886222839355, -70.81398010253895], [3.8011314868926998, -70.81839752197257], [3.7839956283569345, -70.8212661743163], [3.769125699996947, -70.82283782958974], [3.7465271949768066, -70.82374572753896], [3.7242248058319056, -70.8325424194335], [3.6768360137939453, -70.8426971435546], [3.6228284835815443, -70.84507751464834], [3.6029584407806388, -70.84715270996082], [3.577404260635376, -70.84601593017567], [3.553663730621338, -70.84775543212879], [3.5268325805664067, -70.85328674316398], [3.5073299407958984, -70.85742187499991], [3.473005771636963, -70.85686492919912], [3.4337084293365487, -70.85681152343741], [3.4152004718780544, -70.85260009765618], [3.3865280151367183, -70.84816741943348], [3.358906030654907, -70.8495330810546], [3.316184043884278, -70.8586654663085], [3.2578241825103755, -70.86559295654287], [3.23746371269226, -70.865135192871], [3.2241334915161124, -70.86871337890614], [3.2117898464202885, -70.88044738769521], [3.155923128128053, -70.89282989501943], [3.137217283248902, -70.89482879638662], [3.1065647602081294, -70.89371490478507], [3.0834414958953844, -70.8920440673827], [3.0633952617645246, -70.89363861083973], [3.0434799194335933, -70.89606475830068], [3.027023077011108, -70.89635467529287], [3.004571676254272, -70.89092254638663], [2.985928773880005, -70.8854217529296], [2.9723393917083745, -70.88773345947256], [2.9601433277130127, -70.8908462524413], [2.935024499893187, -70.89251708984364], [2.889210939407349, -70.89993286132803], [2.871418714523314, -70.89981079101551], [2.8270950317382812, -70.900535583496], [2.7711641788482684, -70.89144897460929], [2.7480132579803462, -70.88932800292959], [2.7199821472167973, -70.89724731445304], [2.692122220993041, -70.89767456054678], [2.663554191589356, -70.89312744140616], [2.6421465873718253, -70.89427947998038], [2.614526510238646, -70.90550231933582], [2.5846898555755624, -70.9101028442382], [2.561933994293213, -70.91085052490224], [2.534924983978272, -70.90834045410146], [2.499716997146607, -70.91091918945303], [2.4745862483978254, -70.9129409790038], [2.454122543334962, -70.92153930664054], [2.4431176185607915, -70.93457794189443], [2.399128913879395, -70.94848632812489], [2.359858751296998, -70.94985198974601], [2.301833629608154, -70.95394897460928], [2.225558757781983, -70.96532440185538], [2.2009117603302006, -70.97228240966788], [2.1952347755432124, -70.978172302246], [2.1493813991546635, -70.99057006835926], [2.107725143432617, -70.98945617675771], [2.0414934158325195, -70.99373626708976], [1.935889720916749, -71.00823211669913], [1.917368292808532, -71.01425170898429], [1.8775286674499516, -71.0242385864257], [1.8233211040496828, -71.03145599365224], [1.7454351186752326, -71.04554748535148], [1.6605769395828247, -71.06880950927726], [1.5872443914413452, -71.09441375732413], [1.5375354290008543, -71.09776306152337], [1.5160635709762573, -71.10169219970695], [1.4595147371292123, -71.11629486083974], [1.4315599203109748, -71.11985015869132], [1.4058766365051267, -71.11963653564445], [1.3838866949081425, -71.11731719970695], [1.3756068944931026, -71.12654876708976], [1.3657113313674927, -71.13160705566396], [1.3543168306350715, -71.13377380371087], [1.3453662395477293, -71.13426208496084], [1.3275002241134641, -71.13760375976555], [1.3162473440170288, -71.1399841308593], [1.3023233413696285, -71.14289093017568], [1.2782191038131712, -71.14721679687491], [1.2592124938964846, -71.15109252929679], [1.2297859191894525, -71.15296173095693], [1.209049224853516, -71.1501922607421], [1.1724557876586912, -71.14211273193351], [1.1550458669662471, -71.15137481689443], [1.1375675201416013, -71.15979766845696], [1.1082993745803833, -71.16497039794913], [1.0254064798355105, -71.17793273925774], [0.8956567645072938, -71.20980834960929], [0.8804652094841007, -71.21569824218741], [0.8624123334884641, -71.21578979492178], [0.8505005240440371, -71.20919799804679], [0.8336303830146792, -71.20678710937491], [0.8157511353492738, -71.21060943603507], [0.7368668317794795, -71.23713684082023], [0.6893157362937927, -71.24314117431634], [0.6275085806846619, -71.24877929687491], [0.5799441933631895, -71.2564163208007], [0.5376335382461549, -71.26818847656241], [0.49821707606315635, -71.29324340820305], [0.49315956234931957, -71.29782867431632], [0.4635654985904697, -71.30580902099602], [0.43539983034133906, -71.32042694091788], [0.42769554257392906, -71.32376861572257], [0.4122038483619688, -71.32713317871085], [0.3787105679512025, -71.3388442993163], [0.3686752915382386, -71.35633087158196], [0.3781835436820986, -71.3762664794921], [0.38094973564147977, -71.38415527343743], [0.3732595443725586, -71.38999176025382], [0.3420683145523072, -71.39296722412101], [0.31870988011360163, -71.39758300781241], [0.3005234301090239, -71.40052795410149], [0.2915374040603636, -71.40885162353507], [0.2837437093257904, -71.41053009033196], [0.2526006102561949, -71.42055511474601], [0.23578692972660054, -71.43138885498037], [0.23068830370903012, -71.44096374511709], [0.21643573045730596, -71.45012664794915], [0.20735843479633323, -71.45595550537101], [0.20752881467342385, -71.47093200683585], [0.1866993308067322, -71.48010253906241], [0.15138734877109525, -71.48179626464835], [0.12914013862609863, -71.48139953613274], [0.04933528974652292, -71.48559570312493], [0.0061487872153520575, -71.49350738525382], [-0.04495313763618465, -71.50888824462884], [-0.06862420588731767, -71.53092193603509], [-0.09621863812208178, -71.5388107299804], [-0.1252363324165344, -71.55917358398429], [-0.17912739515304577, -71.58410644531244], [-0.2632022798061369, -71.58612823486321], [-0.25550758838653576, -71.59563446044916], [-0.20886677503585818, -71.60733032226555], [-0.22388824820518494, -71.62790679931634], [-0.3028898835182191, -71.65298461914055], [-0.3336855769157409, -71.67539978027337], [-0.37903615832328796, -71.69361877441399], [-0.40730479359626787, -71.71665191650384], [-0.447503447532654, -71.73322296142574], [-0.5694321393966676, -71.79367828369134], [-0.6409577727317808, -71.8204803466796], [-0.7036715745925902, -71.85478973388665], [-0.7698112130165099, -71.88515472412104], [-0.8213882446289061, -71.88513183593746], [-0.8494199514389031, -71.88417816162102], [-0.8653199076652527, -71.88118743896479], [-0.8992916941642761, -71.85059356689447], [-0.8920686244964602, -71.82605743408196], [-0.9174948930740358, -71.81574249267572], [-0.9454824328422546, -71.8155975341796], [-1.0083776712417598, -71.81984710693352], [-1.036901593208313, -71.82884216308588], [-1.0572266578674316, -71.83413696289055], [-1.0705921649932864, -71.83448028564446], [-1.0850902795791628, -71.83148193359368], [-1.098943829536438, -71.81807708740229], [-1.0972589254379272, -71.79061126708979], [-1.0959334373474126, -71.76705169677727], [-1.034382462501526, -71.74077606201165], [-1.007537245750427, -71.71181488037104], [-0.9872775077819819, -71.70203399658196], [-0.9200507402420045, -71.6877365112304], [-0.937807738780975, -71.66114807128898], [-0.9275770187377931, -71.63860321044916], [-0.8883773684501644, -71.59261322021476], [-0.8714421391487124, -71.56877136230462], [-0.8520105481147765, -71.54722595214837], [-0.8465381860733033, -71.52770996093743], [-0.8255968689918523, -71.49993133544915], [-0.8185433745384219, -71.4887390136718], [-0.8183003067970277, -71.48332977294913], [-0.824522495269776, -71.47623443603509], [-0.8399686217308047, -71.47075653076165], [-0.8527132868766787, -71.46362304687494], [-0.8510567545890809, -71.4561462402343], [-0.8219198584556575, -71.44754791259757], [-0.7952578663825987, -71.43519592285148], [-0.7861384153366089, -71.40528869628896], [-0.7920044660568244, -71.39029693603509], [-0.8190278410911562, -71.38270568847648], [-0.8432813882827754, -71.37240600585929], [-0.8725362420082089, -71.35833740234365], [-0.8844628930091857, -71.33664703369135], [-0.8895137310028078, -71.3337097167968], [-0.8867775797843932, -71.33081054687491], [-0.8865566849708559, -71.32624053955071], [-0.9385318160057068, -71.30227661132804], [-0.9843692779541018, -71.28706359863274], [-1.0125266313552859, -71.28108978271476], [-1.0366679430007935, -71.27305603027335], [-1.0808885097503662, -71.25491333007805], [-1.1122888326644897, -71.23976135253898], [-1.1687790155410767, -71.23440551757803], [-1.2022166252136233, -71.2373046874999], [-1.2113598585128782, -71.24378967285146], [-1.2135416269302366, -71.25239562988273], [-1.228477239608765, -71.25832366943351], [-1.2347174882888796, -71.26461791992182], [-1.2403140068054204, -71.27570343017571], [-1.2490049600601194, -71.28457641601554], [-1.255787849426269, -71.2891082763671], [-1.2762132883071897, -71.29883575439445], [-1.285009384155273, -71.30417633056632], [-1.2944732904434204, -71.30972290039053], [-1.3017038106918342, -71.3111267089843], [-1.3150695562362664, -71.31217193603507], [-1.3248424530029301, -71.31282043457024], [-1.3320915699005131, -71.31443023681632], [-1.3371869325637817, -71.31761932373038], [-1.3371806144714362, -71.32198333740227], [-1.3317068815231328, -71.32701110839835], [-1.3306584358215328, -71.33045196533193], [-1.3361276388168337, -71.33425903320304], [-1.3360151052474978, -71.33716583251945], [-1.3339705467224123, -71.3403015136718], [-1.3272986412048335, -71.34233093261709], [-1.3102257251739495, -71.34879302978509], [-1.3034524917602544, -71.35404205322257], [-1.2990155220031736, -71.36020660400382], [-1.298016905784607, -71.36904907226554], [-1.2999149560928343, -71.37288665771476], [-1.3058342933654785, -71.37834930419913], [-1.3036916255950928, -71.3848114013671], [-1.3112801313400273, -71.39078521728507], [-1.3217833042144767, -71.3919601440429], [-1.330872654914856, -71.39157867431632], [-1.350477695465088, -71.38810729980463], [-1.3654909133911124, -71.39298248291007], [-1.3676533699035645, -71.39577484130851], [-1.3657474517822263, -71.40077972412102], [-1.3540086746215827, -71.40502929687493], [-1.3440613746643066, -71.41154479980462], [-1.3408590555191044, -71.41677093505854], [-1.35671329498291, -71.42829895019524], [-1.3590488433837895, -71.43337249755852], [-1.3616182804107666, -71.44156646728507], [-1.3734302520751953, -71.44667816162101], [-1.3851855993270872, -71.45095825195307], [-1.407253980636597, -71.45754241943352], [-1.4307677745819092, -71.4615173339843], [-1.445305466651916, -71.46348571777335], [-1.4538075923919682, -71.46351623535149], [-1.4798809289932255, -71.45851898193351], [-1.5074435472488408, -71.45195007324213], [-1.5327575206756596, -71.44216918945304], [-1.5443904399871822, -71.43686676025382], [-1.5473704338073728, -71.43351745605459], [-1.5519797801971438, -71.4301452636718], [-1.5627878904342645, -71.43442535400382], [-1.5650244951248167, -71.44147491455071], [-1.5782797336578367, -71.44749450683587], [-1.591597914695739, -71.45039367675773], [-1.6021258831024174, -71.45123291015618], [-1.6094965934753425, -71.44960784912102], [-1.621222853660583, -71.4455490112304], [-1.6434406042098995, -71.44202423095695], [-1.658733129501343, -71.43782806396477], [-1.6776633262634273, -71.43421936035148], [-1.6907650232315066, -71.43118286132805], [-1.6987330913543695, -71.42913055419913], [-1.7094388008117685, -71.42497253417963], [-1.726234912872314, -71.41629028320305], [-1.7360976934432977, -71.41369628906241], [-1.7453956604003904, -71.41204833984368], [-1.7658671140670779, -71.4180831909179], [-1.7755254507064824, -71.42350006103509], [-1.776561498641967, -71.42744445800774], [-1.7816120386123664, -71.43238830566399], [-1.7794187068939193, -71.43667602539055], [-1.7798324823379517, -71.44425964355462], [-1.7935788631439205, -71.45119476318352], [-1.7963756322860716, -71.45636749267571], [-1.8030314445495608, -71.46087646484368], [-1.8178260326385507, -71.46499633789054], [-1.8349353075027477, -71.46929168701163], [-1.8630683422088623, -71.47254180908197], [-1.8880363702774048, -71.47041320800773], [-1.8780198097228995, -71.46843719482415], [-1.8893574476242059, -71.4673767089843], [-1.9176145792007449, -71.46552276611322], [-1.9242876768112178, -71.46368408203116], [-1.9323498010635376, -71.45954132080071], [-1.934337735176087, -71.45671081542962], [-1.953974723815918, -71.45389556884757], [-1.9593007564544687, -71.45175933837882], [-1.963556885719299, -71.4487991333007], [-1.9674180746078498, -71.44522094726555], [-1.9685795307159422, -71.43782043457024], [-1.9694354534149174, -71.43365478515618], [-1.96307647228241, -71.42612457275384], [-1.9612058401107788, -71.41783142089835], [-1.96416199207306, -71.4149856567382], [-1.9743160009384153, -71.41237640380851], [-1.9838751554489134, -71.4163284301757], [-1.9914208650588985, -71.42571258544915], [-2.007593870162964, -71.4511184692382], [-2.015481472015381, -71.4603958129882], [-2.0240221023559566, -71.4666442871093], [-2.0322093963623047, -71.46967315673821], [-2.048556804656982, -71.47541809082024], [-2.0628473758697514, -71.48024749755851], [-2.0848972797393803, -71.48415374755852], [-2.095455169677735, -71.48486328124993], [-2.1111853122711186, -71.48499298095696], [-2.1271078586578365, -71.48116302490227], [-2.1677069664001465, -71.47298431396477], [-2.1968247890472425, -71.47014617919915], [-2.219635963439941, -71.46655273437491], [-2.228259801864624, -71.45935821533196], [-2.2194621562957755, -71.43553161621087], [-2.21359395980835, -71.42519378662101], [-2.2240056991577157, -71.4222564697265], [-2.2317318916320805, -71.41872406005852], [-2.2314610481262207, -71.41384124755855], [-2.2266831398010263, -71.40942382812491], [-2.221253633499146, -71.4023132324218], [-2.219121694564819, -71.39818572998038], [-2.2227678298950186, -71.39064788818351], [-2.2324314117431636, -71.37908935546866], [-2.2366139888763437, -71.37601470947259], [-2.244235277175903, -71.37446594238274], [-2.253873825073242, -71.37081146240226], [-2.2686610221862797, -71.37197113037102], [-2.28624415397644, -71.37466430664054], [-2.298592090606691, -71.37450408935538], [-2.310067176818849, -71.37258911132807], [-2.319963932037354, -71.36850738525382], [-2.3339977264404297, -71.36884307861321], [-2.346562385559081, -71.372947692871], [-2.3550674915313716, -71.37075805664054], [-2.3643381595611572, -71.37198638916007], [-2.372254610061647, -71.37531280517571], [-2.3809056282043457, -71.37675476074212], [-2.40851640701294, -71.37878417968741], [-2.4245374202728276, -71.379295349121], [-2.439313888549806, -71.37535095214835], [-2.445382118225098, -71.3720397949218], [-2.462250471115112, -71.36920928955071], [-2.472039222717286, -71.36699676513666], [-2.481656551361084, -71.36353302001946], [-2.4871768951416007, -71.36106109619132], [-2.4900562763214116, -71.3559265136718], [-2.4958119392395015, -71.35043334960929], [-2.503159523010253, -71.34710693359365], [-2.524771213531492, -71.34118652343741], [-2.541692972183227, -71.33668518066398], [-2.549918889999389, -71.33042907714837], [-2.56738543510437, -71.32528686523428], [-2.5851223468780513, -71.31983184814446], [-2.5993311405181885, -71.3124465942382], [-2.5989353656768803, -71.30506896972648], [-2.609613656997682, -71.30033111572257], [-2.6211853027343746, -71.29735565185538], [-2.6351065635681152, -71.29496765136713], [-2.647467136383057, -71.2930145263671], [-2.656471014022827, -71.29028320312491], [-2.6593520641326895, -71.28555297851554], [-2.658827781677248, -71.27745056152337], [-2.660211086273193, -71.273582458496], [-2.654074907302857, -71.26920318603507], [-2.654692888259888, -71.26451110839837], [-2.661609411239624, -71.26087188720695], [-2.668689012527466, -71.2583694458007], [-2.688698053359987, -71.26025390624991], [-2.693624019622803, -71.26517486572257], [-2.695630311965943, -71.27003479003898], [-2.6926696300506583, -71.27413177490227], [-2.691893815994263, -71.2776794433593], [-2.6987764835357675, -71.2848587036132], [-2.6982028484344487, -71.28757476806634], [-2.697952270507811, -71.29028320312491], [-2.7048444747924796, -71.29527282714834], [-2.718042373657227, -71.29902648925774], [-2.7328169345855713, -71.30244445800773], [-2.7627911567687975, -71.30551910400382], [-2.772744655609131, -71.30484771728507], [-2.7942986488342294, -71.30367279052727], [-2.8049986362457275, -71.30152893066399], [-2.8140418529510507, -71.29493713378899], [-2.8148479461669935, -71.28961944580071], [-2.8144032955169687, -71.28036499023429], [-2.815232515335084, -71.27520751953116], [-2.8209297657012935, -71.27011871337882], [-2.835012197494508, -71.2690658569335], [-2.881286708301944, -71.26848291090214], [-2.8325640527835922, -71.21150343403136], [-2.750957777267743, -71.17025536395818], [-2.7396216392517094, -71.16808319091788], [-2.7280900478363033, -71.16487121582023], [-2.7156708240509024, -71.1593475341796], [-2.6967806816101065, -71.15106201171866], [-2.682486057281495, -71.14770507812491], [-2.6511940956115714, -71.14514160156241], [-2.63025140762329, -71.1415252685546], [-2.6075642108917245, -71.13722229003899], [-2.598627090454101, -71.13645935058585], [-2.580130338668823, -71.13440704345695], [-2.568392992019654, -71.13333129882804], [-2.558991909027101, -71.12918090820304], [-2.5328147411346422, -71.12330627441396], [-2.506152153015137, -71.11779785156241], [-2.4973709583282457, -71.11399078369129], [-2.4846718311309823, -71.10971069335929], [-2.476713180541992, -71.10375213623038], [-2.4779343605041495, -71.10052490234366], [-2.482432126998902, -71.08885192871085], [-2.4800939559936523, -71.08370971679678], [-2.4745101928710933, -71.07897186279288], [-2.458357810974121, -71.07330322265615], [-2.4397053718566903, -71.0694580078124], [-2.395317077636719, -71.06632232666009], [-2.3636758327484135, -71.0638885498046], [-2.3533937931060795, -71.06081390380851], [-2.34376311302185, -71.05416107177726], [-2.3242411613464347, -71.04299926757803], [-2.317287206649781, -71.04005432128898], [-2.292253732681273, -71.03289031982409], [-2.2846734523773193, -71.02923583984365], [-2.2734925746917733, -71.0140380859374], [-2.2638497352600098, -71.00684356689445], [-2.254054784774781, -71.00286865234366], [-2.230146169662477, -70.99532318115224], [-2.2342000007629403, -70.99259185791006], [-2.246450901031493, -70.98976135253896], [-2.2569293975830074, -70.98587799072256], [-2.255427598953247, -70.98250579833976], [-2.254257440567017, -70.97734832763663], [-2.255465745925902, -70.97376251220692], [-2.274889469146729, -70.9670867919921], [-2.281813859939576, -70.96111297607413], [-2.282928705215454, -70.95681762695304], [-2.278285026550293, -70.950096130371], [-2.256998538970948, -70.9230728149413], [-2.252170562744142, -70.91921234130851], [-2.218670129776001, -70.90340423583973], [-2.188861370086669, -70.89076232910148], [-2.1422700881958003, -70.8784942626952], [-2.120495796203614, -70.87358856201162], [-2.100228071212769, -70.86259460449209], [-2.0981419086456294, -70.8585205078124], [-2.0959575176239014, -70.85355377197254], [-2.0964467525482178, -70.8481979370116], [-2.101234674453736, -70.842430114746], [-2.0996332168579093, -70.83781433105459], [-2.0943965911865243, -70.83467102050773], [-2.0885999202728285, -70.83135223388663], [-2.083288192749024, -70.8274917602538], [-2.082391500473024, -70.82428741455068], [-2.0920722484588623, -70.81864929199209], [-2.130122184753418, -70.80980682373036], [-2.146038532257079, -70.80675506591786], [-2.1625521183013903, -70.80422973632801], [-2.1737735271453853, -70.80284118652335], [-2.1892151832580575, -70.80514526367178], [-2.1974580287933363, -70.80611419677724], [-2.209407091140746, -70.80632019042959], [-2.2217504978179927, -70.80526733398426], [-2.2320122718811044, -70.80496215820303], [-2.243271112442018, -70.80392456054678], [-2.2602179050445557, -70.80513000488273], [-2.2791132926940922, -70.808982849121], [-2.313700437545776, -70.81690979003896], [-2.338123321533204, -70.82140350341787], [-2.3519084453582773, -70.82318115234365], [-2.3657233715057373, -70.82085418701165], [-2.3750228881835938, -70.81715393066395], [-2.388514757156372, -70.81661987304675], [-2.415114641189576, -70.81678771972646], [-2.438650846481324, -70.81842041015615], [-2.460705995559692, -70.8211441040038], [-2.4738674163818355, -70.82220458984366], [-2.550758600234986, -70.82501983642568], [-2.60733366012573, -70.82596588134754], [-2.6347329616546653, -70.82394409179678], [-2.6728549003601083, -70.82104492187491], [-2.7081303596496573, -70.81729125976553], [-2.720375776290895, -70.8156738281249], [-2.7295770645141593, -70.81178283691395], [-2.7367138862609877, -70.8086395263671], [-2.7371752262115487, -70.804344177246], [-2.7338244915008554, -70.79994201660146], [-2.70725727081299, -70.78858184814445], [-2.676804304122927, -70.78013610839834], [-2.66387438774109, -70.77676391601554], [-2.646827936172485, -70.77488708496082], [-2.5554423332214347, -70.76358795166007], [-2.5354325771331796, -70.75960540771473], [-2.509329319000244, -70.75445556640614], [-2.4980890750885, -70.75122833251945], [-2.4902770519256583, -70.74527740478504], [-2.487627267837524, -70.74156951904287], [-2.481227874755858, -70.73809051513662], [-2.469583511352539, -70.73165893554676], [-2.452089548110962, -70.72584533691396], [-2.445324182510376, -70.72362518310537], [-2.445826292037964, -70.71915435791006], [-2.451336383819579, -70.7158737182616], [-2.458083391189575, -70.71381378173817], [-2.4719216823577885, -70.71236419677723], [-2.4885432720184326, -70.71159362792957], [-2.507179737091064, -70.7138214111327], [-2.5153987407684326, -70.7147750854491], [-2.524109840393068, -70.71536254882804], [-2.56313943862915, -70.70872497558581], [-2.605419158935547, -70.70238494873036], [-2.6383104324340825, -70.69850158691396], [-2.6955437660217294, -70.69529724121082], [-2.775395154953003, -70.69207763671865], [-2.8262932300567623, -70.69000244140614], [-2.861993074417114, -70.68727874755848], [-2.914608240127564, -70.6824722290038], [-2.9721992015838627, -70.67863464355457], [-2.988999128341677, -70.67584991455068], [-3.0317766114935374, -70.66956226232789], [-3.0129138212067517, -70.53011881771135], [-2.990176916122437, -70.52967834472645], [-2.919931173324585, -70.52821350097645], [-2.8818132877349854, -70.52707672119129], [-2.8295247554779066, -70.52402496337879], [-2.785949468612672, -70.51831817626942], [-2.7301721572875985, -70.50923156738268], [-2.726266384124754, -70.50430297851551], [-2.719902753829955, -70.50083923339831], [-2.7041404247283944, -70.49503326416004], [-2.6978704929351816, -70.48461151123036], [-2.6913504600524893, -70.47615814208973], [-2.677768230438232, -70.470489501953], [-2.6748127937316917, -70.44933319091787], [-2.676167488098144, -70.44378662109364], [-2.679311990737918, -70.43963623046862], [-2.676801681518556, -70.43308258056628], [-2.688915967941284, -70.41329193115223], [-2.6930255889892596, -70.40093231201159], [-2.6939232349395748, -70.39218139648425], [-2.689627647399901, -70.38423156738268], [-2.6850457191467276, -70.37040710449206], [-2.67979621887207, -70.3441238403319], [-2.6838309764862056, -70.32749176025378], [-2.689766168594362, -70.32454681396474], [-2.707531690597534, -70.3192749023436], [-2.722400665283202, -70.31227111816395], [-2.7450664043426523, -70.30815887451159], [-2.7778880596160898, -70.30495452880848], [-2.810821533203126, -70.303497314453], [-2.8000793457031254, -70.29806518554679], [-2.77972412109375, -70.29505157470695], [-2.7754516601562504, -70.28840637207024], [-2.771362304687501, -70.28287506103507], [-2.7574768066406254, -70.27862548828116], [-2.7433166503906263, -70.2721405029296], [-2.742828369140625, -70.26879119873038], [-2.7259826660156263, -70.26682281494132], [-2.711822509765626, -70.26033020019521], [-2.6984558105468754, -70.25942993164054], [-2.653839111328126, -70.24782562255852], [-2.6466064453125, -70.24346160888662], [-2.5823974609375004, -70.23326110839835], [-2.565032958984375, -70.22681427001945], [-2.5315856933593754, -70.22396087646476], [-2.5278625488281246, -70.22065734863273], [-2.5040588378906246, -70.21541595458976], [-2.453765869140624, -70.20943450927724], [-2.4195556640625004, -70.19985961914053], [-2.38275146484375, -70.19591522216787], [-2.338745117187499, -70.18646240234365], [-2.33160400390625, -70.18208312988271], [-2.31829833984375, -70.18114471435538], [-2.3176574707031246, -70.17556762695303], [-2.3044738769531246, -70.17574310302726], [-2.2954101562500013, -70.18257904052727], [-2.2662963867187496, -70.18745422363271], [-2.246342703079883, -70.18664193426092], [-2.2407491207122807, -70.19075012207017], [-2.236863374710082, -70.19347381591784], [-2.232861042022705, -70.19975280761705], [-2.2290949821472177, -70.2035446166991], [-2.2026300430297856, -70.21101379394517], [-2.180158376693725, -70.22145080566392], [-2.167837858200074, -70.22409820556628], [-2.13633942604065, -70.22930908203111], [-2.121147871017456, -70.22985839843737], [-2.1094193458557133, -70.2284011840819], [-2.1033918857574467, -70.22615814208973], [-2.0911610126495366, -70.22489166259754], [-2.0900800228118896, -70.21974182128892], [-2.105793237686157, -70.21437835693344], [-2.1131808757781982, -70.20983886718736], [-2.1241588592529292, -70.20453643798815], [-2.1334211826324463, -70.19801330566393], [-2.1522891521453857, -70.19297027587878], [-2.1529040336608887, -70.18904113769518], [-2.13421630859375, -70.18581390380851], [-2.1337280273437504, -70.18135070800771], [-2.1045837402343746, -70.186180114746], [-2.0854126065667566, -70.18137092068336], [-2.0824067592620845, -70.18743896484361], [-2.0820255279541025, -70.19367218017565], [-2.071490526199341, -70.1982498168944], [-2.0595998764038077, -70.19999694824205], [-2.0481190681457524, -70.20066833496081], [-2.0404779911041264, -70.19791412353503], [-2.033158540725708, -70.19319915771469], [-2.034584999084472, -70.18677520751937], [-2.0344848632812504, -70.17810058593741], [-2.023882990407567, -70.17822365778399], [-1.95428466796875, -70.17198181152334], [-1.8949890700559497, -70.17265388310534], [-1.9060418605804441, -70.17617034912095], [-1.9019188880920408, -70.18226623535145], [-1.9038566350936896, -70.18598175048815], [-1.9129770994186408, -70.19335937499984], [-1.926035761833192, -70.19801330566393], [-1.9342027902603152, -70.20094299316393], [-1.930938124656678, -70.20507812499986], [-1.8735549449920648, -70.21996307373036], [-1.8611252307891835, -70.22187805175768], [-1.8334307670593264, -70.22360992431628], [-1.8145428895950322, -70.22399139404284], [-1.809551239013671, -70.22119140624987], [-1.7938462495803837, -70.21050262451156], [-1.795448660850525, -70.1937561035155], [-1.7946422100067139, -70.17935180664048], [-1.8034461736679073, -70.1724929809569], [-1.8209613561630251, -70.16358184814439], [-1.8421047925949106, -70.15997314453111], [-1.8461303710937491, -70.15709686279284], [-1.8572082519531246, -70.1489257812499], [-1.856842041015625, -70.14490509033195], [-1.8560485839843754, -70.13685607910148], [-1.843475341796875, -70.12894439697254], [-1.8423461914062496, -70.11688232421865], [-1.769256591796875, -70.09352111816398], [-1.6974182128906243, -70.08218383789054], [-1.6731262207031257, -70.0743865966796], [-1.6253051757812498, -70.06680297851553], [-1.6017456054687504, -70.06703186035146], [-1.5418701171875004, -70.05551910400382], [-1.4826660156250007, -70.05203247070304], [-1.4705810546875004, -70.04811096191396], [-1.4352722167968754, -70.04841613769521], [-1.4231872558593748, -70.04449462890615], [-1.3996582031250007, -70.0447006225585], [-1.3520202636718752, -70.03704071044912], [-1.3402404785156252, -70.0371322631835], [-1.2942199707031252, -70.0535888671874], [-1.2586364746093748, -70.04983520507803], [-1.2581176757812496, -70.04179382324209], [-1.2696228027343746, -70.03768157958974], [-1.2693786621093752, -70.03366851806632], [-1.2806091308593757, -70.025535583496], [-1.2803344726562498, -70.02151489257803], [-1.3027573790223135, -70.0183487807438], [-1.3260498850738065, -70.01509206819327], [-1.4416669708256542, -70.01295199844063], [-1.469835829054414, -70.0102657592847], [-1.491545872165476, -70.00510531224735], [-1.4948993344491992, -69.99157454022804], [-1.506083397906166, -69.98133466673744], [-1.4978942871093754, -69.94327545166006], [-1.4908019992863077, -69.93466036842413], [-1.4729919433593748, -69.92338562011707], [-1.4372863769531252, -69.91565704345695], [-1.3943478912666212, -69.91484258484896], [-1.3763889381368368, -69.90789307450325], [-1.4361267089843748, -69.89958190917957], [-1.4480895996093752, -69.90349578857412], [-1.4714660644531254, -69.90328979492179], [-1.4834594726562498, -69.9072036743163], [-1.5344407371289914, -69.91361121515986], [-1.6394085921017338, -69.91229655628115], [-1.654277715805757, -69.90623235108325], [-1.64678955078125, -69.90164947509754], [-1.641795805860769, -69.8968163790704], [-1.625028165945983, -69.89106141939628], [-1.6191946151967942, -69.8870940529868], [-1.6097412109374993, -69.87788391113271], [-1.586395263671876, -69.87810516357412], [-1.5396509749746807, -69.86900505991507], [-1.5185520297502906, -69.86265475702038], [-1.5025634765625002, -69.85073852539053], [-1.5022583007812504, -69.84671783447256], [-1.4899902343750009, -69.83878326416004], [-1.4896850585937504, -69.83477020263662], [-1.4777526855468748, -69.83084869384754], [-1.468404487885954, -69.81619680866852], [-1.5223782682740354, -69.80972477762636], [-1.5079593208751765, -69.80149155222526], [-1.5017978519655601, -69.79255353155999], [-1.5307929592210883, -69.78425457501417], [-1.4575480689740077, -69.75835152409383], [-1.4372558593750007, -69.75482177734364], [-1.4013061523437498, -69.73905181884754], [-1.4010314941406241, -69.73503112792957], [-1.3770141601562496, -69.72317504882801], [-1.3650329908943326, -69.70751331672263], [-1.3474946892553699, -69.6968655471349], [-1.282012939453125, -69.68776702880848], [-1.2468261718750002, -69.68000030517567], [-1.2217542042571594, -69.68187441725027], [-1.1949941369659747, -69.68894305998391], [-1.1655047747946792, -69.68863547397629], [-1.1460399203615779, -69.68491816365278], [-1.106575331435304, -69.66895163608565], [-1.1072387695312496, -69.66492462158192], [-1.106939200959939, -69.65066627726338], [-1.0831457085903573, -69.64648668484287], [-1.048004150390625, -69.63718414306629], [-1.0132141113281252, -69.63338470458973], [-0.9897460937499998, -69.62549591064442], [-0.9551696777343753, -69.62570190429676], [-0.9434509277343748, -69.62174987792957], [-0.8512573242187501, -69.62225341796864], [-0.839569091796875, -69.6182937622069], [-0.7819519042968751, -69.61857604980457], [-0.7702636718750003, -69.61461639404284], [-0.72418212890625, -69.61483001708973], [-0.7108752258472789, -69.6162319606735], [-0.6997117670144726, -69.61934840244508], [-0.6898803710937502, -69.62300872802723], [-0.6749826800309766, -69.63024397899996], [-0.6331761024819114, -69.6233210984065], [-0.5925030717564147, -69.62410063311306], [-0.5746154785156248, -69.62345123291003], [-0.5515747070312501, -69.62353515624989], [-0.5399169921875, -69.61955261230459], [-0.516876220703125, -69.6196289062499], [-0.5052490234375002, -69.61564636230457], [-0.447540283203125, -69.61179351806628], [-0.40130615234375, -69.60388183593739], [-0.37826538085937494, -69.6039352416991], [-0.34359741210937494, -69.595977783203], [-0.21679687500000003, -69.58013153076159], [-0.19378662109375008, -69.5801544189452], [-0.14791870117187503, -69.60028839111315], [-0.12490844726562499, -69.60432434082018], [-0.044311523437499986, -69.60838317871081], [-0.032806396484375, -69.6124038696288], [0.01328774355351925, -69.61240386962878], [0.02481389790773392, -69.61641693115223], [0.1054781600832939, -69.6163864135741], [0.10558433085680008, -69.63647460937487], [0.09408716857433316, -69.64451599121082], [0.09416303038597104, -69.66058349609364], [0.1403872668743134, -69.66456604003896], [0.14044389128685, -69.6726074218749], [0.128913938999176, -69.67662811279286], [0.1290180385112763, -69.69270324707021], [0.11747413128614427, -69.6967315673827], [0.11752160638570784, -69.7047653198241], [0.12912233173847204, -69.70877838134754], [0.12917453050613403, -69.71681213378895], [0.15239942073822021, -69.72483062744129], [0.1640520691871643, -69.73285675048818], [0.16418494284152985, -69.74892425537098], [0.15264639258384702, -69.75697326660145], [0.15270823240280154, -69.76501464843739], [0.16441795229911807, -69.77706146240223], [0.1644846498966217, -69.78509521484364], [0.1761419475078583, -69.78910064697256], [0.1762850135564805, -69.80517578124991], [0.21127076447010043, -69.81317901611318], [0.2345467507839203, -69.81314849853504], [0.2577179670333863, -69.80506896972646], [0.29273635149002064, -69.81305694580068], [0.3160120844841004, -69.8130111694335], [0.339356631040573, -69.81698608398426], [0.37442898750305165, -69.82495117187489], [0.38623079657554626, -69.8329620361327], [0.38662382960319513, -69.85305786132801], [0.3751151859760284, -69.86112213134756], [0.37557402253150945, -69.88524627685536], [0.3874123692512513, -69.89325714111318], [0.3875703811645509, -69.90129852294912], [0.43468445539474493, -69.91726684570303], [0.3997496962547302, -69.9253921508788], [0.3998313248157501, -69.92941284179676], [0.388204038143158, -69.93345642089834], [0.3884421885013581, -69.94551849365223], [0.376803070306778, -69.94956970214834], [0.37695732712745683, -69.95761108398428], [0.3653086125850678, -69.96166229248037], [0.3654581904411315, -69.9697036743163], [0.35379999876022344, -69.97374725341787], [0.35401749610900884, -69.98580932617178], [0.34234732389450073, -69.98986053466788], [0.3424877226352692, -69.99790191650382], [0.3308080136775971, -70.00194549560538], [0.331011712551117, -70.0140151977538], [0.3193199336528778, -70.01805877685538], [0.31951671838760387, -70.03012084960928], [0.3078130781650543, -70.03416442871082], [0.3079394996166228, -70.04220581054678], [0.2962262332439423, -70.04624938964834], [0.29634809494018555, -70.0542984008788], [0.2846251428127289, -70.05834197998037], [0.28480085730552684, -70.07040405273428], [0.2730658650398255, -70.07444763183584], [0.2614336609840393, -70.08653259277334], [0.26148748397827143, -70.09055328369132], [0.2732328614482306, -70.08639263869115], [0.2735002226324736, -70.08630156432592], [0.3084466159343721, -70.0743865966796], [0.30838313698768616, -70.0703659057616], [0.41365084052085876, -70.02991485595695], [0.413565903902054, -70.02589416503896], [0.495202749967575, -69.99752044677726], [0.5303350687026976, -69.99339294433584], [0.5652209520339966, -69.98120880126943], [0.5886951088905332, -69.98113250732412], [0.6120437383651736, -69.97702026367179], [0.647247314453125, -69.97689056396476], [0.765374004840851, -69.99649810791006], [0.836019277572632, -70.00018310546865], [0.8833723068237307, -70.00798797607413], [0.9534943103790283, -69.99955749511707], [0.9650431871414187, -69.99546813964835], [1.0472537279129028, -69.99497222900382], [1.0592147111892698, -69.99892425537101], [1.1531825065612793, -69.99829864501943], [1.1651668548583989, -70.00224304199209], [1.188662648200989, -70.0020751953124], [1.2124063968658447, -70.00592803955068], [1.2129039764404297, -70.01396942138662], [1.0611727237701416, -70.03511047363273], [1.0380631685256958, -70.04330444335929], [1.038489937782288, -70.05134582519523], [1.0006353855133057, -70.0558929443358], [0.9904443025588988, -70.06040191650375], [0.9725743532180783, -70.06779479980455], [0.9624231457710267, -70.07337188720689], [0.9547950625419614, -70.08799743652331], [0.9373303651809692, -70.10463714599595], [0.9379201531410217, -70.1169052124022], [0.9428800940513612, -70.12221527099597], [0.9459540843963622, -70.14247894287097], [0.9437718987464907, -70.16223144531237], [0.9516249895095827, -70.17286682128893], [0.959858357906342, -70.20163726806628], [0.9686353802680966, -70.20923614501939], [0.973700165748596, -70.22647094726548], [0.9869068264961243, -70.23813629150378], [1.0296084880828853, -70.25994873046861], [1.0420385599136348, -70.2659225463866], [1.0460408926010136, -70.27176666259753], [1.068905115127563, -70.28514862060536], [1.0818507671356203, -70.29040527343737], [1.0998018980026247, -70.300079345703], [1.1139646768569944, -70.30781555175768], [1.1208529472351072, -70.31738281249987], [1.1325010061264038, -70.32691955566393], [1.1429971456527719, -70.34358215332018], [1.1470587253570554, -70.37630462646473], [1.1549619436264038, -70.38444519042956], [1.1531132459640503, -70.39780426025379], [1.1507184505462646, -70.40209960937489], [1.1541062593460083, -70.41436004638659], [1.155520319938659, -70.42021942138659], [1.1580184698104865, -70.42643737792959], [1.1635962724685667, -70.43084716796864], [1.1806250810623167, -70.42272186279284], [1.1953072547912595, -70.41122436523426], [1.2033480405807493, -70.40404510498036], [1.2066463232040405, -70.39743804931628], [1.2098190784454348, -70.3888702392577], [1.2190057039260866, -70.3832855224608], [1.2216187715530396, -70.37436676025379], [1.2289576530456545, -70.3648757934569], [1.2358744144439693, -70.35717010498034], [1.239304780960084, -70.34468841552723], [1.2400186061859129, -70.33934020996081], [1.2433620691299443, -70.33380126953111], [1.2549797296524048, -70.32552337646472], [1.2646044492721553, -70.31922149658189], [1.2678087949752808, -70.31172180175768], [1.2658060789108279, -70.3053283691405], [1.2653199434280398, -70.28984832763659], [1.2675703763961805, -70.28395843505847], [1.268929362297058, -70.28057098388659], [1.2708262205123901, -70.2773513793944], [1.2758117914199831, -70.27304077148423], [1.2840013504028316, -70.26942443847643], [1.2930980920791628, -70.26365661621082], [1.3042341470718386, -70.2569885253905], [1.3142261505126955, -70.2490768432616], [1.3222891092300417, -70.24385833740222], [1.3341374397277834, -70.24020385742173], [1.3566702604293823, -70.23148345947251], [1.3610873222351074, -70.22699737548815], [1.3762413263320923, -70.21833038330062], [1.3834024667739873, -70.215606689453], [1.3889230489730833, -70.21199798583972], [1.3942500352859502, -70.205726623535], [1.4059681892395022, -70.19353485107409], [1.4165399074554441, -70.18739318847642], [1.420712113380432, -70.17988586425767], [1.4236220121383674, -70.17665863037095], [1.432607650756835, -70.17053222656234], [1.4329607486724862, -70.16110229492173], [1.4492503404617312, -70.15473175048815], [1.4584975242614742, -70.15234374999987], [1.4650059938430786, -70.14836883544906], [1.455415725708007, -70.14614105224595], [1.4577918052673338, -70.14291381835922], [1.4594209194183345, -70.12973785400376], [1.4591047763824465, -70.11853027343736], [1.4520878791809082, -70.10854339599595], [1.4449268579483039, -70.09650421142565], [1.4473083019256592, -70.07228851318345], [1.440634965896606, -70.06665802001939], [1.431963682174683, -70.05908966064445], [1.4515162706375118, -70.05779266357412], [1.4649404287338257, -70.06215667724601], [1.4711499214172359, -70.05763244628896], [1.4611647129058838, -70.05548095703115], [1.4869173765182497, -70.0496597290038], [1.4899300336837773, -70.046287536621], [1.5032712221145632, -70.04951477050773], [1.5162678956985476, -70.0482864379882], [1.5029281377792363, -70.04505157470693], [1.5089492797851562, -70.03829193115226], [1.5411980152130125, -70.03241729736318], [1.537490963935852, -70.02684783935538], [1.5307856798171993, -70.02469635009756], [1.530348300933838, -70.01909637451162], [1.5496754646301274, -70.01557159423818], [1.555762171745301, -70.00992584228506], [1.575254559516907, -70.00862121582021], [1.5875897407531738, -69.99957275390615], [1.587137699127197, -69.99398803710928], [1.6095987558364866, -69.98930358886707], [1.6124920845031736, -69.98480224609366], [1.6219946146011364, -69.98136138916006], [1.6476912498474128, -69.97663879394523], [1.6600637435913084, -69.96869659423818], [1.6922496557235724, -69.9638900756835], [1.718688726425171, -69.96810150146474], [1.727870941162109, -69.9613037109374], [1.7275763750076292, -69.95795440673817], [1.7305376529693606, -69.95455932617178], [1.7331000566482544, -69.94671630859366], [1.7523227930068979, -69.94316864013662], [1.8030065782385185, -69.9453117188433], [1.8700049899754172, -69.94612660448249], [1.9107080259092097, -69.95148214470063], [1.9723230137954086, -69.95620436685105], [1.9937488021630458, -69.96401492602213], [2.0217556953430176, -69.966941833496], [2.036230029205267, -69.97481168616294], [2.0422863474236848, -69.97652731635293], [2.0566141938587013, -69.98216209680616], [2.0667394427589647, -69.98516634215703], [2.093105554580688, -69.99401092529287], [2.0970814228057866, -70.00065612792959], [2.0952527523040763, -70.01410675048818], [2.0981776832487204, -70.02320812612125], [2.1015703560387036, -70.03660241400564], [2.10115800714635, -70.04487427751337], [2.1020705662872907, -70.05336622894608], [2.0908231735229488, -70.06446838378896], [2.0913289227868863, -70.06919523477218], [2.0791913946990777, -70.07027487492235], [2.0668588769223613, -70.07028207744291], [2.064888355804923, -70.07175711573123], [2.0681071110132727, -70.07403878043424], [2.0758922749307223, -70.07524844807476], [2.081886291799297, -70.07560948940045], [2.0881814528868636, -70.07480591127833], [2.091772108268185, -70.07258498118868], [2.0935714608976315, -70.0706018509022], [2.1042735576629643, -70.06766510009757], [2.1100933551788335, -70.06088256835929], [2.1225748062133785, -70.05511474609364], [2.1222116947174072, -70.05177307128896], [2.13165545463562, -70.04830169677724], [2.1312899589538574, -70.04494476318351], [2.1435093879699703, -70.03697204589834], [2.1748182773590092, -70.0242691040038], [2.1944077014923096, -70.02400970458974], [2.216057267974791, -70.02452981912066], [2.2373125620886634, -70.02767699745094], [2.2311154376602955, -70.04256017651078], [2.252343212056248, -70.04402202173527], [2.25274395942688, -70.04783630371082], [2.273392915725709, -70.05650329589834], [2.277123555291419, -70.06070929540735], [2.265782833099364, -70.0756149291991], [2.266560316085816, -70.08231353759756], [2.2804408073425297, -70.08882904052726], [2.281354188919068, -70.09664154052726], [2.2914462089538574, -70.09873962402334], [2.2919721603393555, -70.10321807861318], [2.275974750518799, -70.1067886352538], [2.279640913009643, -70.11008453369129], [2.287908828568571, -70.11356074053656], [2.2903873255327145, -70.12112469924253], [2.282569418679824, -70.12190379022252], [2.276145931364011, -70.12532859443176], [2.277914812948558, -70.12951324848676], [2.2807080874041983, -70.13150718238973], [2.288597461330608, -70.13328677410878], [2.2937952678371083, -70.13394168454325], [2.2984476490103996, -70.1335879867004], [2.301701883341419, -70.13223737879864], [2.3062679299082895, -70.13115899837297], [2.310204939825926, -70.13197579323658], [2.3133934968059005, -70.13367356585763], [2.3188682821998943, -70.13664600996664], [2.330920557225637, -70.13749555318637], [2.334616654191715, -70.1362832884403], [2.3377296830584613, -70.13377284197854], [2.338675758141669, -70.13143519541667], [2.3655785144245813, -70.13711809144833], [2.35250636402642, -70.1395175766843], [2.3542403677596027, -70.1432669194402], [2.360932687850535, -70.14564062697842], [2.3686411305054085, -70.14582270823468], [2.376137447617989, -70.14426573578413], [2.378820200462225, -70.14176048348114], [2.3797405005216814, -70.14010662882639], [2.408213976355702, -70.14610895827225], [2.418485287161976, -70.14930567458084], [2.420749259191069, -70.15191383888019], [2.407049690879458, -70.15253562692224], [2.4094372247320246, -70.15801717527088], [2.4202872238319633, -70.16279692541076], [2.440058158896468, -70.16367320831117], [2.4527116449518025, -70.16232836459093], [2.4544997669144095, -70.15918604392482], [2.4600536823272705, -70.16012573242179], [2.4862082004547115, -70.15862274169913], [2.493067502975464, -70.16075897216788], [2.490211963653564, -70.1641616821288], [2.5100903511047363, -70.16497802734366], [2.5123617649078382, -70.15711975097649], [2.521495819091797, -70.1513900756835], [2.5367181410259563, -70.15206549828194], [2.5745115280151367, -70.15394592285146], [2.592895804803423, -70.14874034125998], [2.596172094345093, -70.14353942871085], [2.6214114311420436, -70.14560919547766], [2.64100439443732, -70.14395271767324], [2.680740185606605, -70.14067371673637], [2.700471592027915, -70.13653053255406], [2.7181151826759966, -70.13088210118838], [2.731812843229907, -70.12976401469052], [2.7417539677263205, -70.12556224171216], [2.7485727907034194, -70.12115437894798], [2.7569616052485344, -70.12150748069675], [2.7769654391537495, -70.12706652157986], [2.801116876208747, -70.13151234273661], [2.8180879055138166, -70.13055576637034], [2.830438345834213, -70.12969328049078], [2.8437693119049072, -70.12611389160148], [2.8556835129552587, -70.11806283939276], [2.8717779028506656, -70.1155770393354], [2.914372703674999, -70.11886579692882], [2.947696214824403, -70.11738854146633], [2.9753938464308165, -70.10931883739647], [2.9932709030466342, -70.10137772131995], [3.0048043451167183, -70.09512204065759], [3.02623200416565, -70.09383392333974], [3.0358628542753694, -70.0936808358359], [3.0445181679647195, -70.09752010429676], [3.0276214198521423, -70.11598148942164], [2.953910835311312, -70.14214229508363], [3.02889353104559, -70.12802329650557], [3.0599062442779537, -70.12008666992179], [3.0772199051070803, -70.11326818185022], [3.1131467819213876, -70.10343170166006], [3.1324479579925546, -70.10084533691396], [3.1584999965991307, -70.10349728495395], [3.1910080884766616, -70.1053172581581], [3.225258350372315, -70.10579681396474], [3.238685462239668, -70.10372457845845], [3.27795393665229, -70.10633811767899], [3.325836587838204, -70.10585370134902], [3.348779439926147, -70.09779357910146], [3.3482046127319327, -70.09444427490224], [3.354175090789796, -70.090965270996], [3.3532159328460693, -70.08538818359365], [3.3622636795043954, -70.08071899414054], [3.3636891328693577, -70.07483832835106], [3.373615503311157, -70.07042694091787], [3.3855064390237004, -70.06705765606496], [3.4053399562835702, -70.06419372558585], [3.4359338283538827, -70.07028198242179], [3.462086439132691, -70.06974792480459], [3.4876363277435303, -70.06585693359365], [3.502908538784693, -70.06308628901455], [3.5158647011449777, -70.05901152390835], [3.5389268398284917, -70.05918121337882], [3.5592060944994897, -70.0559007814283], [3.5826483098823543, -70.05445647245695], [3.595218828496377, -70.05126998298745], [3.6405676554148445, -70.05208740411683], [3.664356933951749, -70.05648479914863], [3.698647473812085, -70.05731727523099], [3.7233364582061776, -70.06302642822256], [3.721136093139648, -70.06867980957021], [3.7087008953094474, -70.07231140136709], [3.7250361442565914, -70.07193756103506], [3.740845456496094, -70.07426618538663], [3.7231635792044018, -70.085008308083], [3.759018659591676, -70.07791137695303], [3.74976581488386, -70.08628901320768], [3.76854567111119, -70.08641945633985], [3.767827300761995, -70.09293515944348], [3.7522415423626927, -70.09731380478944], [3.7661340076440992, -70.09945949025469], [3.7653880180981543, -70.10754276957528], [3.754253705525408, -70.10946774158096], [3.7560784816741952, -70.11380004882803], [3.762843789839294, -70.11680986507217], [3.7568674747008406, -70.11707175022495], [3.753431900666729, -70.11918293213472], [3.754101427652404, -70.12265561337188], [3.7610389660675674, -70.12540698239583], [3.7753820517037173, -70.12668413600464], [3.7859865826093033, -70.12630040551097], [3.7864994077700342, -70.12454495571284], [3.785136068843173, -70.12218879923591], [3.7936220169067383, -70.12080383300771], [3.7894806861877455, -70.11640930175773], [3.798877716064453, -70.1139602661132], [3.822148862697143, -70.1153411013166]], [[-2.334257851371086, -71.10300222472549], [-2.3378222818790295, -71.1064987767894], [-2.333715268934645, -71.11110925751117], [-2.3227946180569785, -71.11125310056286], [-2.308690634636102, -71.11093163390395], [-2.310866475586489, -71.10330969969979], [-2.32140324803835, -71.10013420309058], [-2.334257851371086, -71.10300222472549]], [[2.815083224832708, -70.45734550186093], [2.783260068015614, -70.46696522149264], [2.7658289296794316, -70.47179733269589], [2.736216874954356, -70.47606448719009], [2.705831797731978, -70.48564622011683], [2.6499070343343645, -70.50219057910334], [2.623935375739922, -70.51143619740931], [2.6037445666024612, -70.5188208620089], [2.5870064348075497, -70.5294368513066], [2.5882711917660672, -70.53876982728094], [2.590157135012403, -70.54708262708478], [2.5946251393039654, -70.55763164806196], [2.599270073023316, -70.56944220046975], [2.606229936649934, -70.58147086766782], [2.6120245395089543, -70.59048382534557], [2.636293369919112, -70.60654683888554], [2.661098690840209, -70.61526733069189], [2.6960555150004257, -70.6255963301777], [2.7330753185396763, -70.62880643187562], [2.7625061349611837, -70.63213051772527], [2.790056191325612, -70.63295148241669], [2.8280257613663315, -70.6320803211524], [2.8987787112660017, -70.6263537465592], [2.9697077434206567, -70.61224882886609], [3.0437599235368906, -70.59451769215026], [3.104587665436568, -70.57572789773735], [3.1442102201342, -70.56716794807889], [3.158692454296101, -70.55830369097482], [3.164964312861484, -70.55034837177278], [3.1694645938882138, -70.54546034965344], [3.1803063697965834, -70.53767305621479], [3.183917682004376, -70.53204251033026], [3.183455225957134, -70.52926932395965], [3.1836224730039104, -70.52572582341253], [3.190715393033648, -70.52281231668198], [3.2040183955427235, -70.52079413894542], [3.212659376649805, -70.51810363007448], [3.214416275972869, -70.51503608539798], [3.234442228318381, -70.49013013993367], [3.2475679469521412, -70.46939953962217], [3.25174593632029, -70.44504646885693], [3.2553437581279834, -70.43511722169265], [3.2523013392455633, -70.42607324155833], [3.239083902618367, -70.40584629804916], [3.2212767533548625, -70.38949877454223], [3.2133529050385565, -70.38712046780098], [3.20551503213201, -70.3852458020912], [3.1945948081253217, -70.38292307908995], [3.181427400095725, -70.38064170844676], [3.166345379022904, -70.38041718329086], [3.1390176687067726, -70.37890083954049], [3.1286828667299083, -70.38010204615041], [3.089783758024156, -70.38611997698858], [3.0390981252542977, -70.39865812299867], [2.9950684875603875, -70.41081102244655], [2.962738774238619, -70.42098007511875], [2.9243580844880284, -70.43124643371932], [2.906166243085397, -70.43560098723297], [2.8860060143223953, -70.4369537676234], [2.8763766307518663, -70.43812715904629], [2.8416422477589687, -70.44805994906996], [2.815083224832708, -70.45734550186093]], [[-1.831771229774095, -71.21774896612432], [-1.8362284015744545, -71.21517180306624], [-1.8489352643332595, -71.21655879211076], [-1.8614399918247577, -71.21592204023754], [-1.8675129338466208, -71.21383336862317], [-1.8815843368189178, -71.21317870912911], [-1.8818936849399701, -71.21621291244854], [-1.8806334565399452, -71.21926375264403], [-1.865345496343165, -71.22347482780472], [-1.8511641744871878, -71.22311677663546], [-1.831771229774095, -71.21774896612432]], [[2.0588398819434803, -70.59141505064783], [2.0482963601477944, -70.59229888383747], [2.0149014186695404, -70.59269280693475], [1.9986007311089098, -70.5966731993615], [1.9786802368419951, -70.6024625214536], [1.9700114727011124, -70.60685775546801], [1.9618852356516416, -70.61655321857292], [1.9561356649490464, -70.62723240130467], [1.9569150996272442, -70.63480509547784], [1.9596656988672716, -70.63932289298388], [1.9671146420162042, -70.64505090503769], [1.9823394595589205, -70.65220609572992], [1.9902707732575717, -70.6551477676571], [1.995396899798311, -70.66039624183374], [2.005645797465098, -70.66356331700216], [2.02982916710984, -70.66858883662323], [2.062409607953923, -70.67351125148551], [2.0885186154434727, -70.67496726555194], [2.114603478160211, -70.67616691383334], [2.134195339221863, -70.67390402677479], [2.1474000866162295, -70.66919055901623], [2.150895208808292, -70.66636658376349], [2.1464861702207214, -70.6611131908204], [2.149636917278054, -70.65526036452252], [2.1491225856799834, -70.65071701030385], [2.1479901627051246, -70.64744520336579], [2.132532766923669, -70.63196616278917], [2.1244763104686255, -70.62802164329206], [2.1127063418004646, -70.62488056901036], [2.103896920901102, -70.62094447843046], [2.0963884526732675, -70.61497038626437], [2.095322810620088, -70.61220334576919], [2.0920063587693787, -70.60971637987838], [2.0856249629935966, -70.6070137740939], [2.077423509168317, -70.60155304808309], [2.0755746524647813, -70.59854276432847], [2.072263157156674, -70.59605551638828], [2.0588398819434803, -70.59141505064783]], [[-0.7028887636187919, -71.67223699294854], [-0.7103112134365389, -71.66984294975869], [-0.7291933530559603, -71.67213354665083], [-0.7406366764725559, -71.67622658775974], [-0.7332637381515674, -71.67980436599618], [-0.7201531490906607, -71.68103932412336], [-0.7049526230213322, -71.67695953099218], [-0.7028887636187919, -71.67223699294854]], [[-1.9173233586373026, -71.38289630913118], [-1.9093447558227465, -71.38623267303204], [-1.9027208493855352, -71.38482525781976], [-1.9005042807190091, -71.38130201785992], [-1.9031537240708265, -71.38009166731221], [-1.9123631038155051, -71.37969809465457], [-1.9161518482611326, -71.38054432246051], [-1.9173233586373026, -71.38289630913118]], [[-2.586757020902841, -71.27425780548003], [-2.5961480025313652, -71.27559933127594], [-2.590928794644087, -71.2777445828885], [-2.584375190879036, -71.27695287467947], [-2.583332454513057, -71.27608114991355], [-2.586757020902841, -71.27425780548003]], [[2.538177774151025, -70.20476100674662], [2.5213775231478586, -70.20733550229887], [2.518408130666782, -70.21086420120123], [2.522243953810211, -70.21400108157691], [2.5368627579524605, -70.21436304682373], [2.5451894052592823, -70.21249560065648], [2.5492378818425543, -70.21069232160242], [2.552316002904506, -70.2080324787262], [2.553950104415492, -70.20742703790306], [2.538177774151025, -70.20476100674662]]]}}]}