{"type": "FeatureCollection", "features": [{"id": "0", "type": "Feature", "properties": {"NAME": "LarsenC", "Regions": "Peninsula", "TYPE": "FL"}, "geometry": {"type": "Polygon", "coordinates": [[[-60.375128143498316, -66.64466901818808], [-60.39323560719592, -66.64769350571113], [-60.42453028092214, -66.6606802376895], [-60.4363018557632, -66.67454044209573], [-60.41367112849277, -66.6984753879919], [-60.342489898739494, -66.73988197770518], [-60.29409826191491, -66.76068508244899], [-60.25211234808994, -66.76773658199924], [-60.221826927903905, -66.77015277301668], [-60.197879437908966, -66.76895036769255], [-60.20180931955081, -66.77385794341097], [-60.13681030273436, -66.80167388915966], [-60.135498046874986, -66.81056213378857], [-60.08410644531249, -66.84401702880808], [-60.1463623046875, -66.86575317382763], [-60.16375732421874, -66.87605285644483], [-60.171752929687486, -66.88168334960889], [-60.17489624023436, -66.88621520996047], [-60.18917846679686, -66.89198303222608], [-60.18988037109376, -66.89595794677683], [-60.205629860273405, -66.90866742361143], [-60.24231883464379, -66.90223508878562], [-60.27462768554686, -66.9152984619136], [-60.29425195343502, -66.92195339928851], [-60.341596052579376, -66.93603196685575], [-60.37023676953871, -66.94544672893772], [-60.42727661132812, -66.96311187744092], [-60.431091308593736, -66.96854400634719], [-60.53076757403174, -66.9972105448437], [-60.56280517578125, -67.00686645507764], [-60.578277587890625, -67.02857208251908], [-60.596069335937486, -67.03248596191361], [-60.60769653320313, -67.04875946044876], [-60.66107177734375, -67.0604858398433], [-60.66497802734374, -67.065910339355], [-60.736267089843736, -67.0815048217769], [-60.74017333984376, -67.08692932128861], [-60.82920748256386, -67.10169890046994], [-60.8415724253391, -67.11080985350323], [-60.85499483607949, -67.11642363191525], [-60.86731271201392, -67.12546044811715], [-60.872147518001825, -67.13800583873096], [-60.8697958614701, -67.1470175039856], [-60.87498701999568, -67.15655383268675], [-60.87194824218751, -67.17491912841754], [-60.866943359374986, -67.17839813232379], [-60.874908447265625, -67.18923950195268], [-60.86990356445312, -67.19272613525348], [-60.87786865234372, -67.20356750488239], [-60.86691221995643, -67.20770585832128], [-60.87487730784706, -67.2185472279502], [-60.869872425034565, -67.22202623185646], [-60.87783751292518, -67.23287523087988], [-60.867827747300176, -67.23984086808693], [-60.8757928351908, -67.25068223771584], [-60.870787952378286, -67.25416887101662], [-60.878753040268926, -67.26501787004005], [-60.8737176398783, -67.2684968739463], [-60.87771544261266, -67.27392137345802], [-60.87271055980019, -67.27740037736427], [-60.88229266462888, -67.28518410268885], [-60.878173413422445, -67.29149801975774], [-60.88214069857869, -67.29692251926944], [-60.877135815766195, -67.30040915257024], [-60.88510090365682, -67.31125052219912], [-60.8975684924932, -67.31624512962414], [-60.90960693359372, -67.32904815673785], [-60.90856933593751, -67.33795166015584], [-60.91659545898437, -67.34880065917926], [-60.92506820694035, -67.3609499476801], [-60.89499953918905, -67.37615377130113], [-60.86026784885383, -67.38082512850504], [-60.80107460162668, -67.39030351717534], [-60.76032652540903, -67.41912845086969], [-60.761105419157865, -67.43743715364471], [-60.73160316732934, -67.4707791111519], [-60.72436523437498, -67.48114013671837], [-60.71417236328125, -67.48810577392538], [-60.71817016601561, -67.49353790283163], [-60.713073730468736, -67.4970169067379], [-60.72106933593751, -67.50787353515587], [-60.73922729492187, -67.51177978515587], [-60.7714452311618, -67.53448817270346], [-60.78020379248156, -67.54582027481581], [-60.804534912109354, -67.5897674560543], [-60.79431152343751, -67.59673309326134], [-60.84015525763419, -67.6387182514111], [-60.84092358618754, -67.65182754792863], [-60.83396722078293, -67.66460803562174], [-60.828840267657924, -67.66809466892254], [-60.83289910554855, -67.67351916843425], [-60.827772152423556, -67.67700580173505], [-60.82638549804686, -67.68128204345668], [-60.82146676297542, -67.69340937665129], [-60.82549508328792, -67.69884150555752], [-60.820368130162926, -67.7023281388583], [-60.82442696805355, -67.70776026776457], [-60.81930001492856, -67.71124690106534], [-60.82335885281917, -67.7166790299716], [-60.81677533117859, -67.73049168714843], [-60.79573884585054, -67.73694628183088], [-60.76559448242186, -67.75529479980435], [-60.74609375000001, -67.76031494140591], [-60.71462169564921, -67.78020099921865], [-60.7112915019227, -67.79336632622848], [-60.69455503224344, -67.81489531190493], [-60.688322014095185, -67.82241617009173], [-60.667854147338154, -67.83342935074297], [-60.56951904296875, -67.84648895263636], [-60.5643310546875, -67.84996795654261], [-60.53546142578123, -67.85300445556608], [-60.5302734375, -67.85647583007778], [-60.504113008460955, -67.86028686139898], [-60.493675996742205, -67.86723723981693], [-60.47924118228908, -67.86874785993412], [-60.468804170570344, -67.87569823835207], [-60.46758346744534, -67.88462462995365], [-60.46233444400782, -67.88809600446535], [-60.470330049476594, -67.898990779856], [-60.46910934635159, -67.90790954206302], [-60.482353975257844, -67.91532531354741], [-60.49034958072659, -67.92622008893802], [-60.48513107486722, -67.92969146344974], [-60.489128877601566, -67.93513885114508], [-60.483910371742205, -67.93861785505132], [-60.49707956331618, -67.96810890124254], [-60.496166235858354, -67.97874206338679], [-60.487023164710955, -67.98520293805913], [-60.421264648437486, -68.02613830566375], [-60.433288574218736, -68.04248809814422], [-60.45187377929687, -68.04642486572234], [-60.45993041992186, -68.05732727050749], [-60.46923828125001, -68.05929565429656], [-60.4732666015625, -68.06475067138639], [-60.49188232421875, -68.06868743896453], [-60.50453353791019, -68.07324107446242], [-60.52831117000712, -68.08207272890661], [-60.5376281738281, -68.1196823120114], [-60.56970123905507, -68.15152015955002], [-60.5868992515741, -68.1811133682494], [-60.58402248611011, -68.19401947945887], [-60.586425457461736, -68.20526187142572], [-60.58523527191487, -68.21419589242181], [-60.597503338321104, -68.23053805550775], [-60.592223797305486, -68.23402468880855], [-60.662431157743505, -68.29113250222517], [-60.62302511128879, -68.30749394503441], [-60.624421406750805, -68.32703049471799], [-60.645518462976064, -68.34224233573435], [-60.64519835568606, -68.37049332391108], [-60.641480732922666, -68.38109238436644], [-60.65485056595771, -68.41108268972839], [-60.664462854255696, -68.41721408754087], [-60.66997854090707, -68.42980565929315], [-60.66728070238983, -68.43848817257287], [-60.66398659604708, -68.44466626952101], [-60.59745154139158, -68.48944976974494], [-60.60575232264158, -68.50035980392464], [-60.6194241976416, -68.507775575409], [-60.62772497889161, -68.5186856095887], [-60.65094118214141, -68.53000290682738], [-60.6801389725391, -68.5364715416417], [-60.705623596101006, -68.5400780622868], [-60.709835021882256, -68.54552544998208], [-60.719356506257256, -68.5474862043766], [-60.72838915605158, -68.55797142305182], [-60.741995709797926, -68.56643812016765], [-60.75459946956356, -68.58279554204265], [-60.76836289729793, -68.59020368413252], [-60.78596393689564, -68.60024278551899], [-60.80823678627857, -68.61257268814335], [-60.80660042751879, -68.62236099501713], [-60.7990616304745, -68.62657666201184], [-60.79869917668856, -68.6349069708691], [-60.79339723682893, -68.64183457186644], [-60.80185060596954, -68.65273697665162], [-60.79647951221955, -68.65623123934695], [-60.80072145557891, -68.66168625643678], [-60.79535036182893, -68.66518051913208], [-60.79080200195312, -68.67246246337865], [-60.78976846816505, -68.68384725236996], [-60.79660908260338, -68.6895110719035], [-60.82101440429687, -68.6869964599607], [-60.840717315673835, -68.68395996093724], [-60.87699890136719, -68.68271636962866], [-60.90744400024413, -68.68106842040991], [-60.94335174560544, -68.68286895751926], [-60.97999572753904, -68.68558502197241], [-61.004798889160156, -68.68902587890601], [-61.021236419677734, -68.69275665283179], [-61.03196334838866, -68.69960784912084], [-61.05158615112303, -68.70733642578101], [-61.21581268310546, -68.66432952880832], [-61.3475532531738, -68.6392440795896], [-61.63080749657776, -68.59656494326151], [-61.73225914725868, -68.58354732374953], [-61.89441937317078, -68.56246152233645], [-62.05598385446047, -68.54283581567442], [-62.23149242208581, -68.52215544229897], [-62.64425072235336, -68.48544537176642], [-62.7262974997212, -68.45845423956527], [-62.726676826809225, -68.45701059273435], [-62.721205025643485, -68.45376180159334], [-62.73412557151087, -68.44883822315253], [-62.74127916729089, -68.44945636886274], [-62.7445075689204, -68.45214572045013], [-62.736800935750495, -68.45499169461952], [-62.8632698059082, -68.42037200927709], [-62.88109588623047, -68.42028808593723], [-62.89105224609374, -68.41986083984347], [-62.93667221069337, -68.41848754882784], [-62.99685287475586, -68.41409301757785], [-63.01964187622071, -68.4141540527341], [-63.07596588134766, -68.41551971435518], [-63.11367416381837, -68.41529846191379], [-63.174121856689474, -68.4189147949216], [-63.24044036865235, -68.41748809814426], [-63.261165618896484, -68.41674804687473], [-63.342769622802734, -68.42230987548803], [-63.36556625366211, -68.42232513427706], [-63.40121841430664, -68.41821289062473], [-63.422767639160156, -68.41913604736301], [-63.60780715942384, -68.44543457031223], [-63.63227081298828, -68.44342041015598], [-63.66887283325196, -68.45161437988254], [-63.68300247192383, -68.45342254638646], [-63.69794464111328, -68.45308685302707], [-63.716209411621094, -68.4533615112302], [-63.73073959350585, -68.45333862304662], [-63.743236541748054, -68.45636749267551], [-63.794170379638665, -68.4731903076169], [-63.80541610717774, -68.4748458862302], [-63.83955001831054, -68.47796630859348], [-63.86120986938476, -68.48034667968722], [-63.873661041259766, -68.47955322265598], [-63.886455535888665, -68.47539520263646], [-63.89481353759766, -68.47766113281223], [-63.90656661987305, -68.48281097412082], [-63.91913986206054, -68.48735046386692], [-63.930831909179695, -68.48944854736298], [-63.95123291015624, -68.49045562744116], [-63.959102630615234, -68.48920440673801], [-63.9681739807129, -68.486274719238], [-63.978588104248054, -68.4869995117185], [-63.98577880859375, -68.49170684814428], [-63.9955406188965, -68.49915313720676], [-64.03751373291016, -68.51197052001928], [-64.05890655517578, -68.51768493652315], [-64.11310577392577, -68.54553985595676], [-64.13272857666016, -68.55889129638645], [-64.1251220703125, -68.56853485107396], [-64.13922119140625, -68.57824707031226], [-64.15979766845702, -68.58151245117162], [-64.22510528564453, -68.57447814941382], [-64.25924682617188, -68.57216644287082], [-64.27117156982422, -68.57805633544896], [-64.2743148803711, -68.58353424072241], [-64.2589340209961, -68.59597778320288], [-64.19485473632812, -68.61538696289038], [-64.17051696777344, -68.62512207031223], [-64.16116333007812, -68.63294982910129], [-64.1664047241211, -68.63919067382785], [-64.17904663085936, -68.64141845703101], [-64.19120025634767, -68.641662597656], [-64.21244049072266, -68.63820648193334], [-64.28677368164062, -68.63308715820288], [-64.31642150878906, -68.63108825683568], [-64.32316589355469, -68.63227081298803], [-64.3327407836914, -68.64076995849585], [-64.33010101318361, -68.64749908447239], [-64.31210327148438, -68.65798950195288], [-64.2798843383789, -68.66976928710913], [-64.23378753662111, -68.68177032470679], [-64.15873718261719, -68.69587707519507], [-64.14334869384766, -68.70037078857399], [-64.1175537109375, -68.7079696655271], [-64.07613372802734, -68.72723388671851], [-64.06919097900392, -68.73397827148413], [-64.06226348876953, -68.74149322509741], [-64.06658935546875, -68.74529266357398], [-64.0754623413086, -68.74648284912084], [-64.08393096923828, -68.74797058105445], [-64.0961685180664, -68.74899291992163], [-64.10918426513672, -68.74786376953102], [-64.13097381591797, -68.74487304687476], [-64.17377471923828, -68.74101257324195], [-64.18054962158203, -68.74220275878882], [-64.18205261230469, -68.74891662597632], [-64.17467498779297, -68.75444793701149], [-64.16646575927734, -68.76059722900366], [-64.16336822509766, -68.76840209960916], [-64.15679931640625, -68.77331542968726], [-64.15816497802734, -68.77621459960915], [-64.15789031982422, -68.78034210205054], [-64.15464782714844, -68.78432464599587], [-64.15229034423828, -68.78922271728493], [-64.15376281738281, -68.7951736450193], [-64.15937805175781, -68.79881286621071], [-64.1741714477539, -68.79950714111305], [-64.19230651855469, -68.79927062988259], [-64.2158432006836, -68.79656219482398], [-64.22630310058594, -68.79421997070287], [-64.24057006835936, -68.79216003417945], [-64.2882308959961, -68.7815246582029], [-64.30936431884766, -68.77269744873023], [-64.34872436523438, -68.75720214843727], [-64.37835693359376, -68.74190521240207], [-64.39402770996095, -68.73478698730445], [-64.41019439697266, -68.72964477539038], [-64.41901397705078, -68.72928619384743], [-64.42044830322266, -68.73294067382788], [-64.417236328125, -68.73616790771459], [-64.40296936035156, -68.74618530273415], [-64.39347076416016, -68.75021362304665], [-64.3862533569336, -68.75804901123021], [-64.38232421875, -68.76418304443337], [-64.38035583496094, -68.76725006103491], [-64.39120483398438, -68.77405548095679], [-64.39884948730469, -68.77539062499976], [-64.41326904296875, -68.7771301269529], [-64.42842864990234, -68.77673339843727], [-64.44044494628905, -68.77237701415991], [-64.45681762695312, -68.77104949951148], [-64.46846008300781, -68.76776885986303], [-64.4890365600586, -68.76641082763648], [-64.50486755371094, -68.77104187011696], [-64.52293395996094, -68.77794647216774], [-64.54000091552734, -68.78164672851538], [-64.56095123291016, -68.7792053222654], [-64.58135223388672, -68.76683807373023], [-64.58797454833984, -68.75701141357398], [-64.59647369384766, -68.74335479736304], [-64.59422302246094, -68.73313903808571], [-64.59679412841795, -68.72639465332007], [-64.62476348876953, -68.71533966064429], [-64.64434814453124, -68.70511627197241], [-64.65193939208984, -68.69130706787084], [-64.65065002441406, -68.6835327148435], [-64.6585922241211, -68.67583465576146], [-64.67522430419922, -68.66622924804662], [-64.68655395507812, -68.6662979125974], [-64.69306945800783, -68.6700592041013], [-64.71410369873047, -68.67783355712866], [-64.73425292968751, -68.68469238281226], [-64.77649688720703, -68.69533538818335], [-64.7971420288086, -68.69622802734351], [-64.83885955810547, -68.69204711914038], [-64.86907196044922, -68.6855087280271], [-64.8916702270508, -68.67842864990212], [-64.94013214111328, -68.6753768920896], [-64.95464324951172, -68.67294311523413], [-64.98127746582031, -68.65863800048803], [-64.99327850341797, -68.65087890624973], [-65.05474090576172, -68.64888000488257], [-65.1456298828125, -68.64807128906224], [-65.15650939941406, -68.6427612304685], [-65.16202545166016, -68.63353729248023], [-65.17616271972656, -68.62727355957004], [-65.19532775878906, -68.62110137939429], [-65.20755004882812, -68.61225891113254], [-65.242431640625, -68.60910797119115], [-65.29635620117188, -68.6038970947263], [-65.32946014404297, -68.59066772460913], [-65.35135650634766, -68.56505584716771], [-65.34130859375, -68.55097198486303], [-65.29324340820312, -68.53124237060518], [-65.25354766845703, -68.52529144287084], [-65.25041961669922, -68.51800537109348], [-65.2503433227539, -68.51235198974582], [-65.23045349121094, -68.50861358642551], [-65.21660614013672, -68.50740051269504], [-65.20503997802734, -68.50844573974582], [-65.19158935546875, -68.5069198608396], [-65.17412567138673, -68.49719238281223], [-65.16239166259764, -68.49105834960912], [-65.12566375732422, -68.48443603515597], [-65.10337829589844, -68.47612762451143], [-65.07145690917969, -68.46329498290989], [-65.03748321533203, -68.44017028808568], [-65.02409362792969, -68.43360900878879], [-65.00458526611328, -68.42235565185521], [-64.98963928222655, -68.41640472412081], [-64.97905731201172, -68.40781402587862], [-64.98733520507814, -68.40208435058567], [-65.01205444335939, -68.39466094970676], [-65.01349639892578, -68.3862533569333], [-65.01705932617188, -68.37858581542942], [-65.0353775024414, -68.3745803833005], [-65.04475402832033, -68.37281036376926], [-65.06156158447264, -68.37080383300754], [-65.07585144042969, -68.36836242675754], [-65.07471466064455, -68.36440277099581], [-65.08893585205078, -68.36120605468722], [-65.142822265625, -68.36290740966768], [-65.15973663330078, -68.36241912841768], [-65.18187713623047, -68.36018371582003], [-65.23493194580078, -68.36660003662082], [-65.28911590576172, -68.37129974365206], [-65.33546447753906, -68.38066101074189], [-65.34555053710938, -68.38236999511692], [-65.37946319580078, -68.38210296630831], [-65.42994689941406, -68.37749481201145], [-65.46410369873047, -68.37125396728486], [-65.4871597290039, -68.36576080322239], [-65.5062255859375, -68.35771942138643], [-65.50264739990234, -68.35074615478487], [-65.48815155029297, -68.34193420410129], [-65.49555969238281, -68.31619262695284], [-65.4822998046875, -68.31133270263643], [-65.44401550292969, -68.30786895751923], [-65.42274475097656, -68.30539703369111], [-65.40067291259766, -68.29866027832], [-65.35858917236328, -68.28926849365205], [-65.33653259277345, -68.2776412963864], [-65.33494567871095, -68.26911926269501], [-65.32827758789062, -68.25897979736297], [-65.30583190917969, -68.2517776489255], [-65.28837585449219, -68.25442504882783], [-65.25447845458984, -68.262153625488], [-65.23148345947266, -68.26272583007781], [-65.18769073486328, -68.25071716308562], [-65.17839813232422, -68.24273681640594], [-65.18905639648438, -68.23743438720675], [-65.19798278808594, -68.2310791015622], [-65.19075775146484, -68.21819305419892], [-65.17634582519531, -68.2127151489255], [-65.15019226074219, -68.21422576904264], [-65.12890625, -68.21507263183564], [-65.11573791503908, -68.21994018554659], [-65.09492492675781, -68.22688293457], [-65.010986328125, -68.2251663208005], [-64.9643325805664, -68.22762298583957], [-64.94536590576172, -68.22658538818331], [-64.94259643554688, -68.2223434448239], [-64.94212341308595, -68.20983886718722], [-64.92501068115234, -68.20573425292939], [-64.88939666748047, -68.20104217529267], [-64.87037658691406, -68.19283294677705], [-64.87385559082031, -68.18365478515594], [-64.87359619140626, -68.17984008789033], [-64.86476135253906, -68.17641448974581], [-64.85237121582031, -68.17501068115205], [-64.837158203125, -68.17423248290986], [-64.81995391845703, -68.17423248290986], [-64.80088806152344, -68.1708984374997], [-64.7927474975586, -68.1653289794919], [-64.78909301757812, -68.15941619873017], [-64.78671264648438, -68.15409851074187], [-64.77594757080078, -68.15220642089815], [-64.7701187133789, -68.14402770996062], [-64.77864837646484, -68.13008117675751], [-64.77033996582031, -68.12145996093719], [-64.76197814941408, -68.11848449707], [-64.75245666503906, -68.1164321899411], [-64.75577545166016, -68.11061096191376], [-64.76879464643864, -68.10573872327265], [-64.79070508775851, -68.08997004570085], [-64.79340362548828, -68.08558654785125], [-64.79811096191406, -68.08264923095672], [-64.81156158447266, -68.0823745727536], [-64.81879425048828, -68.08063507080048], [-64.8287353515625, -68.07672882080047], [-64.8321304321289, -68.07243347167937], [-64.8421630859375, -68.07005310058562], [-64.85008239746094, -68.07257080078094], [-64.85693359375, -68.0775375366208], [-64.85828399658203, -68.0917053222653], [-64.8667984008789, -68.09696197509734], [-64.87263488769531, -68.0987319946286], [-64.8841552734375, -68.09999847412078], [-64.8913116455078, -68.10313415527312], [-64.89764404296875, -68.10612487792936], [-64.91368865966798, -68.10779571533173], [-64.93355560302734, -68.10562133789031], [-64.96814727783203, -68.09811401367156], [-64.99091339111328, -68.09117889404266], [-64.99565124511719, -68.0833511352536], [-64.99493408203125, -68.07909393310517], [-64.99052429199217, -68.0745620727536], [-64.95941925048828, -68.06161499023406], [-64.94918823242188, -68.05531311035125], [-64.9426498413086, -68.04927825927702], [-64.95134735107422, -68.04553222656217], [-64.9571304321289, -68.04090118408172], [-64.94822692871094, -68.03596496582], [-64.93658447265625, -68.03241729736297], [-64.92213439941406, -68.02951049804655], [-64.92060852050781, -68.02510833740202], [-64.92940521240234, -68.02288818359342], [-64.93753814697266, -68.0228042602536], [-64.94780731201172, -68.02423095703092], [-64.95764160156251, -68.02519989013639], [-64.96671295166016, -68.0267868041989], [-64.9795150756836, -68.02940368652311], [-64.98539733886719, -68.03192901611297], [-64.9913330078125, -68.03522491455047], [-64.99947357177734, -68.04077911376919], [-65.01731872558594, -68.05629730224578], [-65.0475845336914, -68.07397460937469], [-65.07804870605469, -68.0882873535153], [-65.12080383300783, -68.1024627685544], [-65.13225555419922, -68.10782623290984], [-65.18358612060547, -68.14598083496064], [-65.19048309326172, -68.15016937255827], [-65.22767639160156, -68.15919494628876], [-65.256591796875, -68.17166900634734], [-65.26868438720705, -68.17411804199187], [-65.2777099609375, -68.17416381835906], [-65.3029556274414, -68.16760253906219], [-65.31393432617189, -68.16197967529266], [-65.33910369873047, -68.14566040039033], [-65.36620330810547, -68.13754272460906], [-65.39203643798828, -68.13370513915986], [-65.40052032470703, -68.13253021240203], [-65.41374969482422, -68.13404083251923], [-65.43453979492188, -68.1375808715817], [-65.45185852050783, -68.13903045654267], [-65.47464752197266, -68.13766479492156], [-65.48615264892578, -68.13812255859342], [-65.4969711303711, -68.13996124267548], [-65.53314208984375, -68.14572143554656], [-65.56243896484375, -68.14806365966766], [-65.62310028076172, -68.15270996093717], [-65.66582489013672, -68.15392303466767], [-65.69512176513672, -68.1521224975583], [-65.72868347167969, -68.14430236816376], [-65.74345397949219, -68.1370620727536], [-65.75747680664062, -68.12297058105439], [-65.74889373779297, -68.1192855834958], [-65.73099517822266, -68.11254119873017], [-65.71549224853516, -68.10133361816376], [-65.71931457519531, -68.08739471435517], [-65.71346282958984, -68.08229827880828], [-65.70236206054688, -68.08154296874969], [-65.69520568847656, -68.08332824707], [-65.6885757446289, -68.0863265991208], [-65.66883087158203, -68.09271240234345], [-65.65206146240234, -68.09249877929658], [-65.64464569091797, -68.08787536621065], [-65.62702178955078, -68.07928466796844], [-65.58013916015624, -68.06759643554656], [-65.54898834228516, -68.06192779540983], [-65.50663757324219, -68.04985046386689], [-65.4573974609375, -68.03770446777311], [-65.42526245117188, -68.0336990356442], [-65.39895629882812, -68.02657318115202], [-65.3515625, -68.00643920898405], [-65.29850769042969, -67.99017333984342], [-65.29328918457031, -67.98627471923794], [-65.3037338256836, -67.98020172119111], [-65.32127380371094, -67.97647857665982], [-65.34623718261717, -67.97403717040984], [-65.36833953857422, -67.97147369384733], [-65.37902832031251, -67.9684371948239], [-65.38548278808594, -67.95906066894499], [-65.39479064941406, -67.9497909545895], [-65.40696716308594, -67.94551849365203], [-65.4291763305664, -67.94447326660125], [-65.46622467041016, -67.94596099853482], [-65.49224853515625, -67.94667816162077], [-65.50942993164062, -67.94400787353484], [-65.52293395996094, -67.94107818603484], [-65.53711700439453, -67.92854309081999], [-65.54357147216797, -67.91991424560516], [-65.56896209716797, -67.91041564941374], [-65.58010864257812, -67.90446472167936], [-65.58832550048828, -67.8894119262692], [-65.5960922241211, -67.88214111328094], [-65.59195709228516, -67.86909484863246], [-65.58402252197266, -67.86250305175747], [-65.54054260253906, -67.85167694091763], [-65.52763366699219, -67.84758758544888], [-65.53070068359376, -67.841758728027], [-65.53540802001953, -67.83620452880825], [-65.53556060791016, -67.82949829101527], [-65.52944946289062, -67.82470703124966], [-65.5287857055664, -67.81786346435513], [-65.53453063964845, -67.81473541259733], [-65.5448226928711, -67.81276702880825], [-65.55026245117188, -67.81070709228482], [-65.57283782958984, -67.794395446777], [-65.57878875732423, -67.78531646728482], [-65.57610321044922, -67.78261566162075], [-65.56820678710938, -67.77191162109341], [-65.57325744628906, -67.7619323730465], [-65.5818862915039, -67.7596817016598], [-65.58477783203126, -67.75643920898402], [-65.57205200195312, -67.74153900146449], [-65.56536865234375, -67.73889160156214], [-65.55310821533203, -67.73677825927699], [-65.5383987426758, -67.73424530029261], [-65.51969146728516, -67.72764587402308], [-65.4870376586914, -67.72200012206994], [-65.4701156616211, -67.72131347656214], [-65.45623016357422, -67.72303009033165], [-65.4374465942383, -67.72388458251918], [-65.39910888671875, -67.71723175048793], [-65.38140869140625, -67.71228027343714], [-65.35931396484375, -67.69383239746058], [-65.35317993164062, -67.69239044189418], [-65.34340667724611, -67.6906890869137], [-65.33296203613281, -67.69036102294886], [-65.3185043334961, -67.69008636474574], [-65.30610656738281, -67.68566894531213], [-65.29876708984375, -67.67951965331996], [-65.27606201171875, -67.67629241943322], [-65.26493072509766, -67.67247009277308], [-65.26223754882812, -67.6690063476559], [-65.26728057861328, -67.66239166259729], [-65.28113555908203, -67.65583038330041], [-65.31034851074219, -67.65120697021449], [-65.3626708984375, -67.65023803710899], [-65.37689208984375, -67.6482315063473], [-65.38816833496094, -67.64457702636682], [-65.39391326904298, -67.63735198974572], [-65.3959732055664, -67.62909698486291], [-65.39069366455078, -67.62368774414024], [-65.39291381835938, -67.61284637451135], [-65.40433502197266, -67.60661315917932], [-65.41905975341795, -67.6016998291012], [-65.43730163574219, -67.60038757324182], [-65.45118713378906, -67.59944152831996], [-65.48094177246094, -67.59751892089805], [-65.49275207519531, -67.59583282470665], [-65.50656890869142, -67.59001159667932], [-65.51698303222656, -67.58209991455041], [-65.52503204345703, -67.5786361694332], [-65.53874969482422, -67.57616424560509], [-65.55917358398436, -67.57298278808555], [-65.57008361816406, -67.57038879394493], [-65.58966827392577, -67.5547332763668], [-65.58332824707031, -67.54690551757774], [-65.5799331665039, -67.5407180786129], [-65.57940673828125, -67.53539276123007], [-65.58352661132812, -67.52864074706991], [-65.59661102294922, -67.52418518066368], [-65.61388397216797, -67.51784515380821], [-65.62313079833984, -67.51086425781212], [-65.62896728515625, -67.49768829345665], [-65.62115478515625, -67.49110412597618], [-65.61240386962892, -67.48696899414024], [-65.5953598022461, -67.48326110839805], [-65.57722473144531, -67.48047637939415], [-65.55696105957031, -67.48030853271445], [-65.53787231445312, -67.47997283935507], [-65.52017974853516, -67.47763061523399], [-65.50374603271484, -67.47588348388632], [-65.4970703125, -67.47247314453085], [-65.50648498535156, -67.46290588378868], [-65.50951385498047, -67.45297241210899], [-65.49686431884766, -67.44066619873007], [-65.49571228027345, -67.43261718749962], [-65.4908218383789, -67.4269027709957], [-65.48981475830077, -67.42037963867148], [-65.49803161621092, -67.41509246826132], [-65.50858306884766, -67.40946197509726], [-65.50611114501953, -67.40417480468712], [-65.51907348632812, -67.39486694335898], [-65.53070831298828, -67.38831329345662], [-65.52764892578125, -67.37694549560506], [-65.50372314453125, -67.36190795898398], [-65.46994018554688, -67.35522460937459], [-65.454345703125, -67.34874725341756], [-65.43878173828125, -67.33815765380818], [-65.41441345214844, -67.33908843994098], [-65.40186309814453, -67.33986663818317], [-65.38970947265625, -67.34519958496051], [-65.3772201538086, -67.35570526123004], [-65.35802459716797, -67.37998962402305], [-65.34810638427734, -67.39320373535115], [-65.3213653564453, -67.40419769287071], [-65.26469421386719, -67.40763854980429], [-65.24073028564453, -67.40489196777304], [-65.21331787109375, -67.39852905273396], [-65.21098327636719, -67.38912200927693], [-65.22270202636719, -67.36798858642537], [-65.21420288085938, -67.36048889160116], [-65.19819641113281, -67.3479003906246], [-65.18280792236328, -67.34291076660115], [-65.16657257080078, -67.3370132446285], [-65.15068817138672, -67.33567810058553], [-65.13146209716798, -67.34198760986285], [-65.12501525878906, -67.35057830810507], [-65.11869049072266, -67.36068725585895], [-65.09708404541016, -67.36731719970663], [-65.07009887695312, -67.36548614501912], [-65.0427780151367, -67.35909271240195], [-65.02326202392578, -67.35108947753865], [-64.98458099365234, -67.33963775634727], [-64.92261505126953, -67.33296966552692], [-64.8410873413086, -67.32798767089801], [-64.80310821533203, -67.32559967040973], [-64.77123260498047, -67.31980895996054], [-64.7589645385742, -67.31231689453085], [-64.75346374511719, -67.299293518066], [-64.74637603759766, -67.28597259521443], [-64.74667358398438, -67.27776336669879], [-64.7703628540039, -67.26630401611284], [-64.79131317138672, -67.26185607910114], [-64.82422637939455, -67.2603302001949], [-64.85395050048828, -67.25822448730426], [-64.8675765991211, -67.25019073486287], [-64.92147064208984, -67.24570465087848], [-64.98319244384766, -67.2298660278316], [-64.99431610107422, -67.22062683105426], [-64.9898681640625, -67.21307373046832], [-64.97610473632812, -67.20683288574175], [-64.95154571533203, -67.20314025878864], [-64.91693878173828, -67.20136260986284], [-64.88867950439455, -67.20072937011676], [-64.85855102539062, -67.1952514648433], [-64.85890197753906, -67.18855285644489], [-64.85608673095703, -67.18128967285112], [-64.82608795166014, -67.17731475830035], [-64.80010223388672, -67.17482757568317], [-64.77477264404297, -67.1701965332027], [-64.74871063232422, -67.1661758422847], [-64.72863006591797, -67.15723419189409], [-64.70640563964844, -67.15164947509722], [-64.69135284423828, -67.14813232421831], [-64.68827056884766, -67.14550018310503], [-64.69729614257812, -67.13569641113237], [-64.70938873291016, -67.128524780273], [-64.7222671508789, -67.11830902099565], [-64.71932220458984, -67.11119842529251], [-64.7187271118164, -67.10770416259722], [-64.7238540649414, -67.10189056396439], [-64.7332992553711, -67.09648895263626], [-64.76056671142578, -67.09267425537065], [-64.79253387451172, -67.08934020996047], [-64.80127716064453, -67.08888244628862], [-64.83319091796875, -67.08797454833939], [-64.84374237060547, -67.08840179443314], [-64.86386108398438, -67.09208679199173], [-64.88346099853516, -67.09059906005814], [-64.89258575439453, -67.08701324462845], [-64.89713287353516, -67.08203124999953], [-64.89630126953125, -67.07831573486283], [-64.89591979980469, -67.07543182373003], [-64.90058898925781, -67.07234954833939], [-64.90746307373047, -67.0702285766597], [-64.91596221923828, -67.06916046142531], [-64.92291259765625, -67.0681762695308], [-64.94325256347656, -67.0608291625972], [-64.94620513916016, -67.0583648681636], [-64.94926452636719, -67.05180358886672], [-64.95249938964844, -67.04788970947219], [-64.95938873291016, -67.04615020751908], [-64.97221374511719, -67.0458679199214], [-64.98209381103516, -67.0424194335933], [-64.98944091796875, -67.03626251220658], [-64.98976135253906, -67.03238677978469], [-64.98188018798828, -67.02532958984328], [-64.97581481933594, -67.02197265624953], [-64.96253967285156, -67.01824188232375], [-64.94342041015625, -67.01137542724564], [-64.93424224853516, -67.00782012939406], [-64.91935729980469, -67.00303649902297], [-64.9001235961914, -66.9998931884761], [-64.87688446044922, -66.99488067626906], [-64.84981536865234, -66.99347686767533], [-64.82881927490234, -66.99298858642531], [-64.81339263916016, -66.99147033691361], [-64.80120086669922, -66.99522399902298], [-64.76724243164062, -66.99553680419876], [-64.74188995361328, -66.99349212646436], [-64.70838165283202, -66.99143218994094], [-64.69766998291016, -66.9907608032222], [-64.68829345703125, -66.98621368408156], [-64.69446563720703, -66.97515106201125], [-64.70216369628906, -66.96718597412062], [-64.70378112792969, -66.96147155761672], [-64.7007064819336, -66.95170593261672], [-64.69432067871094, -66.94151306152295], [-64.69741058349611, -66.93100738525342], [-64.70633697509766, -66.91764068603467], [-64.71095275878906, -66.91380310058547], [-64.71514892578125, -66.9059524536128], [-64.73118591308594, -66.88903045654249], [-64.73609924316406, -66.88375091552685], [-64.74394989013672, -66.8791961669917], [-64.75353240966797, -66.87797546386669], [-64.7627944946289, -66.87781524658155], [-64.77164459228517, -66.87401580810497], [-64.77826690673828, -66.86848449706983], [-64.7859878540039, -66.86203765869091], [-64.78082275390625, -66.85958099365185], [-64.7872085571289, -66.85344696044872], [-64.7926712036133, -66.84808349609327], [-64.78868103027344, -66.8458480834956], [-64.77812957763672, -66.84032440185499], [-64.76416778564453, -66.83567047119091], [-64.75627899169922, -66.83271026611278], [-64.73736572265625, -66.8321990966792], [-64.70565032958983, -66.83361816406203], [-64.69488525390625, -66.83424377441357], [-64.66879272460938, -66.82937622070264], [-64.64789581298828, -66.82773590087841], [-64.6407241821289, -66.82695770263621], [-64.63529968261719, -66.82275390624949], [-64.63430786132812, -66.8148651123042], [-64.6316909790039, -66.80555725097607], [-64.63093566894531, -66.8022232055659], [-64.6449203491211, -66.79019165039014], [-64.64843750000001, -66.78408813476511], [-64.64102172851562, -66.77838897705027], [-64.62967681884766, -66.77476501464793], [-64.60426330566405, -66.77018737792918], [-64.59400177001953, -66.76882934570261], [-64.56107330322266, -66.77128601074168], [-64.53948211669923, -66.773803710937], [-64.52794647216797, -66.78178405761668], [-64.52755737304688, -66.78565979003855], [-64.52759552001953, -66.79035949706982], [-64.52796173095702, -66.79400634765575], [-64.52472686767578, -66.79865264892527], [-64.52388763427734, -66.80526733398388], [-64.5262680053711, -66.81473541259716], [-64.53173065185548, -66.82797241210888], [-64.5326156616211, -66.83828735351511], [-64.53628540039062, -66.84630584716749], [-64.54318237304688, -66.86112976074169], [-64.54492950439453, -66.8691635131831], [-64.54344940185545, -66.87828063964795], [-64.53035736083984, -66.8910598754878], [-64.51543426513672, -66.9021759033198], [-64.50579071044922, -66.90262603759719], [-64.4847412109375, -66.90300750732375], [-64.46629333496094, -66.90123748779247], [-64.4548110961914, -66.89532470703078], [-64.4412384033203, -66.89427947998001], [-64.43396759033203, -66.89159393310497], [-64.42340087890625, -66.89280700683544], [-64.41986846923828, -66.89609527587842], [-64.41961669921875, -66.89905548095655], [-64.41683197021484, -66.90173339843703], [-64.41057586669922, -66.90451049804639], [-64.40465545654297, -66.9062194824214], [-64.39385986328125, -66.91152954101514], [-64.3868179321289, -66.91415405273389], [-64.3770980834961, -66.91307830810497], [-64.36587524414062, -66.90814208984325], [-64.355712890625, -66.91017913818311], [-64.34635925292969, -66.90841674804639], [-64.34783935546875, -66.90210723876902], [-64.35072326660156, -66.89700317382761], [-64.34957122802734, -66.89245605468702], [-64.33699798583984, -66.88236236572219], [-64.331298828125, -66.87996673583936], [-64.32333374023438, -66.87865447997999], [-64.31631469726562, -66.876945495605], [-64.3099594116211, -66.87235260009716], [-64.31155395507814, -66.86870574951124], [-64.32127380371094, -66.86074829101513], [-64.32237243652344, -66.85437011718702], [-64.314697265625, -66.84538269042919], [-64.2986831665039, -66.84009552001902], [-64.28727722167969, -66.83924865722608], [-64.27073669433594, -66.84025573730419], [-64.26136016845703, -66.84205627441355], [-64.2501449584961, -66.84651947021435], [-64.23783111572266, -66.85812377929638], [-64.2336196899414, -66.86429595947216], [-64.23050689697266, -66.86917114257763], [-64.22604370117188, -66.87397766113233], [-64.21568298339844, -66.87577819824169], [-64.20552062988281, -66.8777999877925], [-64.1852035522461, -66.88223266601513], [-64.17424011230469, -66.88957977294875], [-64.17593383789062, -66.89405059814406], [-64.17475128173828, -66.89929199218702], [-64.17233276367189, -66.90203857421828], [-64.16756439208984, -66.90396118164013], [-64.15778350830078, -66.90643310546828], [-64.14214324951173, -66.90704345703077], [-64.13699340820312, -66.90927124023389], [-64.13115692138672, -66.91438293456983], [-64.12641906738281, -66.91744232177687], [-64.11786651611328, -66.92241668701125], [-64.1137786169379, -66.92614763131616], [-64.1124481783101, -66.93064863296715], [-64.10993957519531, -66.93543243408155], [-64.1055908203125, -66.93894958496045], [-64.10002899169922, -66.94071960449172], [-64.07186889648438, -66.9378051757808], [-64.05901336669922, -66.93497467040969], [-64.05184173583984, -66.93455505371047], [-64.03461456298828, -66.93447113037062], [-64.02300262451172, -66.93451690673781], [-64.00977325439453, -66.93199157714797], [-63.99950027465821, -66.93135070800733], [-63.98418045043946, -66.93011474609328], [-63.96693801879883, -66.9292678833003], [-63.93821716308594, -66.92565155029247], [-63.92814636230468, -66.92523193359327], [-63.91245651245117, -66.92429351806594], [-63.89580535888671, -66.92374420165967], [-63.882438659667976, -66.92287445068311], [-63.86778259277344, -66.92534637451122], [-63.84676496767847, -66.92659208437252], [-63.79695661451123, -66.91403082336733], [-63.7444190979004, -66.90228271484327], [-63.73503494262696, -66.894409179687], [-63.73093032836915, -66.87619781494092], [-63.72227096557617, -66.86316680908153], [-63.717514038085945, -66.85315704345653], [-63.71125411987305, -66.84588623046825], [-63.71503448486329, -66.83980560302685], [-63.72734069824219, -66.83765411376905], [-63.734226226806626, -66.83369445800732], [-63.75264739990235, -66.8281936645503], [-63.75798034667969, -66.82393646240185], [-63.7625503540039, -66.82028198242138], [-63.76940155029297, -66.81480407714794], [-63.77313995361328, -66.80720520019482], [-63.769222259521484, -66.80266571044872], [-63.76911163330079, -66.79507446289014], [-63.775169372558594, -66.78868865966747], [-63.8017463684082, -66.76737976074169], [-63.81771850585938, -66.75762939453074], [-63.829029083251946, -66.7454605102534], [-63.85110855102539, -66.73538208007761], [-63.88005447387695, -66.72437286376902], [-63.89225387573242, -66.72069549560494], [-63.91280746459962, -66.71334838867136], [-63.925682067871094, -66.70602416992133], [-63.948570251464844, -66.70139312744087], [-63.979217529296875, -66.70127868652293], [-64.01966094970703, -66.69475555419871], [-64.0562515258789, -66.68822479247993], [-64.09066772460938, -66.68656158447213], [-64.11275482177734, -66.68251037597602], [-64.1147689819336, -66.67309570312449], [-64.12989044189453, -66.66696166992135], [-64.14747619628906, -66.66657257080027], [-64.16709899902344, -66.65827941894479], [-64.172119140625, -66.64794158935496], [-64.15738677978516, -66.6413421630854], [-64.14350128173828, -66.6371612548823], [-64.13953399658203, -66.63263702392526], [-64.12640380859375, -66.62784576415964], [-64.10665130615234, -66.6315765380854], [-64.08834838867188, -66.63256835937446], [-64.06995391845703, -66.63053131103463], [-64.06671905517578, -66.62387084960883], [-64.07401275634766, -66.61170959472604], [-64.07980346679688, -66.6007614135737], [-64.07701110839844, -66.58287811279241], [-64.06222534179688, -66.57172393798776], [-64.04988861083984, -66.56631469726507], [-64.0377197265625, -66.56697845458929], [-64.02400970458984, -66.56733703613227], [-64.01023101806642, -66.56465911865179], [-63.99578475952148, -66.56562805175726], [-63.986785888671875, -66.57142639160104], [-63.973365783691406, -66.58390808105416], [-63.95608139038087, -66.59489440917915], [-63.92042541503906, -66.60381317138616], [-63.903572082519524, -66.60053253173774], [-63.86473846435547, -66.60429382324163], [-63.82586288452149, -66.60652923583929], [-63.80834197998047, -66.60839080810496], [-63.798355102539055, -66.60417175292916], [-63.779991149902344, -66.60057830810493], [-63.7814521789551, -66.596328735351], [-63.79209136962891, -66.5938796997065], [-63.80270385742188, -66.58990478515571], [-63.80872344970704, -66.58503723144476], [-63.813236236572266, -66.58139038085883], [-63.81616973876954, -66.57440185546818], [-63.824306488037124, -66.56012725830024], [-63.83406829833986, -66.55222320556585], [-63.83321380615234, -66.54676055908149], [-63.81483459472657, -66.54014587402285], [-63.80785369873047, -66.53197479247991], [-63.82138442993165, -66.52253723144477], [-63.8668556213379, -66.51483154296821], [-63.91525268554688, -66.50315093994087], [-63.92346572875976, -66.49645996093696], [-63.920318603515625, -66.49131011962834], [-63.90793228149414, -66.47983551025332], [-63.88782501220703, -66.46080017089788], [-63.88609313964844, -66.44989013671818], [-63.83211517333984, -66.44004821777285], [-63.82224655151368, -66.4388656616205], [-63.78136062622071, -66.43988037109317], [-63.76394271850586, -66.44022369384707], [-63.763126373291016, -66.43628692626896], [-63.81225585937499, -66.4300994873041], [-63.87942123413085, -66.41838836669864], [-63.90491485595703, -66.40679168701114], [-63.90249633789062, -66.39952850341739], [-63.896331787109375, -66.39378356933535], [-63.88790893554687, -66.38835906982364], [-63.882495880126974, -66.38201141357364], [-63.8711051940918, -66.37901306152285], [-63.86128997802735, -66.37934875488223], [-63.85072708129883, -66.38028717040957], [-63.834129333496094, -66.38154602050723], [-63.747215270996094, -66.38024902343692], [-63.66863250732422, -66.37979125976506], [-63.63920211791993, -66.38378143310487], [-63.58863449096679, -66.39263153076114], [-63.57353210449219, -66.3956756591791], [-63.56444931030275, -66.3938674926752], [-63.5696907043457, -66.38507080078067], [-63.575679779052734, -66.37567138671817], [-63.5696029663086, -66.3699188232416], [-63.57181930541992, -66.36203765869084], [-63.574039459228516, -66.35415649414004], [-63.58227539062501, -66.34445190429629], [-63.59732055664063, -66.3383789062494], [-63.6070556640625, -66.32897186279237], [-63.6054801940918, -66.3195800781244], [-63.5654640197754, -66.3062973022455], [-63.52023696899415, -66.29572296142517], [-63.51041030883789, -66.28240203857362], [-63.49384689331055, -66.2775650024408], [-63.48180389404297, -66.2751464843744], [-63.46525955200196, -66.27484130859315], [-63.45021438598633, -66.27182006835876], [-63.42464828491211, -66.26515197753845], [-63.40059661865233, -66.2633285522455], [-63.374286651611335, -66.26332092285097], [-63.358497619628906, -66.2639236450189], [-63.329910278320305, -66.2687530517572], [-63.30662155151367, -66.2647933959955], [-63.30214309692382, -66.25933837890564], [-63.29241943359375, -66.25205993652283], [-63.27062225341797, -66.25294494628847], [-63.25031280517579, -66.25564575195251], [-63.23078536987305, -66.25470733642517], [-63.2187843322754, -66.25226593017517], [-63.2052574157715, -66.25254821777283], [-63.196922302246094, -66.25920104980408], [-63.193099975585945, -66.26525115966736], [-63.200511932373054, -66.27586364746033], [-63.20111465454103, -66.29040527343689], [-63.20703506469727, -66.30072021484315], [-63.20244979858399, -66.3073730468744], [-63.192562103271484, -66.31674957275331], [-63.18722534179688, -66.32250213622987], [-63.17882537841797, -66.33218383789003], [-63.1673583984375, -66.34579467773376], [-63.15444564819337, -66.35304260253848], [-63.13016128540039, -66.36329650878848], [-63.101139068603516, -66.38626098632756], [-63.0904541015625, -66.393203735351], [-63.019844055175795, -66.40998840331973], [-62.997570037841804, -66.4275054931635], [-62.989852905273445, -66.43505859374942], [-62.985027313232415, -66.44928741455021], [-62.978809356689446, -66.45715332031193], [-62.96577453613282, -66.46438598632756], [-62.9490966796875, -66.4640274047846], [-62.92097854614258, -66.46665954589788], [-62.87462615966797, -66.50135040283146], [-62.855953216552734, -66.5188598632807], [-62.84244918823243, -66.54124450683538], [-62.85246658325195, -66.5661468505854], [-62.84889221191406, -66.58676147460883], [-62.83795547485352, -66.59671783447213], [-62.818805694580085, -66.59967041015571], [-62.801948547363274, -66.60233306884712], [-62.79562377929688, -66.6101913452143], [-62.792205810546896, -66.62321472167915], [-62.78964614868164, -66.6326065063471], [-62.800113677978516, -66.64084625244087], [-62.80450439453126, -66.64784240722602], [-62.79821014404297, -66.65418243408152], [-62.79273986816407, -66.6584091186518], [-62.776397705078125, -66.66803741455026], [-62.763175964355476, -66.67526245117135], [-62.743766784667976, -66.68427276611274], [-62.72734069824219, -66.69541931152291], [-62.71099090576172, -66.70352935790963], [-62.68780517578124, -66.70948028564403], [-62.66724014282227, -66.72817993164013], [-62.66215133666992, -66.74241638183541], [-62.64826965332031, -66.76631927490182], [-62.643531799316406, -66.76993560790964], [-62.631107330322266, -66.77350616455027], [-62.62020492553712, -66.77738952636669], [-62.60805130004882, -66.77337646484325], [-62.5943717956543, -66.76905059814402], [-62.57550811767579, -66.75983428955026], [-62.575119018554666, -66.74981689453074], [-62.58167266845703, -66.73892974853464], [-62.589801788330085, -66.72684478759716], [-62.56921768188475, -66.72338104247996], [-62.55004882812501, -66.72326660156197], [-62.509700775146484, -66.7157287597651], [-62.49231386937417, -66.71145921550759], [-62.464597266638584, -66.70188801751351], [-62.456424713134766, -66.6884613037104], [-62.45602416992187, -66.68018341064399], [-62.459320068359375, -66.67474365234321], [-62.45054244995118, -66.66527557372994], [-62.44230270385743, -66.66127777099558], [-62.43083190917967, -66.66119384765572], [-62.43123245239258, -66.65209960937446], [-62.442241668701165, -66.64519500732368], [-62.46134567260743, -66.64532470703071], [-62.50524902343751, -66.65592956542915], [-62.5356559753418, -66.66067504882761], [-62.55398559570313, -66.66139221191354], [-62.5602912902832, -66.65657806396432], [-62.5714912414551, -66.64360046386663], [-62.57638549804688, -66.63543701171821], [-62.5682487487793, -66.62841796874946], [-62.5684242248535, -66.62386322021433], [-62.56399154663086, -66.61989593505805], [-62.551143646240234, -66.61647796630805], [-62.5329704284668, -66.61272430419866], [-62.52249145507812, -66.60750579833932], [-62.516620635986335, -66.60170745849557], [-62.52909088134766, -66.59510803222602], [-62.5390739440918, -66.59335327148382], [-62.55365753173828, -66.59101867675726], [-62.57731628417968, -66.59055328369087], [-62.59553527832032, -66.59278106689398], [-62.61981582641602, -66.59626007080024], [-62.63663864135742, -66.59513854980416], [-62.64891052246094, -66.59308624267524], [-62.66954040527344, -66.5919799804682], [-62.6909523010254, -66.59027862548774], [-62.71088790893555, -66.58673858642524], [-62.73004150390624, -66.58380126953071], [-62.73937225341798, -66.55290985107366], [-62.736576080322266, -66.54470825195256], [-62.730899810791016, -66.53134155273382], [-62.71753692626954, -66.52096557617133], [-62.652244567871094, -66.49606323242132], [-62.62733840942383, -66.4916839599604], [-62.560031890869155, -66.4846115112299], [-62.52750778198243, -66.48168182372993], [-62.519317626953125, -66.47769165039008], [-62.53634262084961, -66.44990539550723], [-62.53260803222656, -66.4292678833002], [-62.558963775634766, -66.41336822509707], [-62.57070922851562, -66.40283203124942], [-62.58778381347656, -66.39111328124942], [-62.64089965820311, -66.38535308837831], [-62.656166076660156, -66.38088989257756], [-62.67985534667969, -66.37283325195254], [-62.71030426025391, -66.36541748046817], [-62.717411041259766, -66.35545349121035], [-62.727020263671875, -66.33762359619081], [-62.74618911743163, -66.32711029052675], [-62.7553596496582, -66.32291412353455], [-62.760208129882805, -66.3117218017572], [-62.76124572753906, -66.30203247070251], [-62.75854492187501, -66.26566314697206], [-62.75437545776366, -66.25413513183533], [-62.73451232910157, -66.24010467529234], [-62.71439836399504, -66.23513601878226], [-62.67782211303711, -66.22830200195271], [-62.630128797378866, -66.22165736606287], [-62.61613145850687, -66.22269348244835], [-62.60939817362906, -66.22597311317831], [-62.59723837908771, -66.23840497707258], [-62.594051361083984, -66.24055480956972], [-62.589725395655854, -66.23950379895606], [-62.58516311645508, -66.23716735839783], [-62.57122250347421, -66.23306688165763], [-62.56019714552277, -66.22995372989962], [-62.54333832391468, -66.22733449817643], [-62.54389756182733, -66.21569426800885], [-62.5229933884202, -66.20857098413299], [-62.489771178877504, -66.2054365740621], [-62.47303656016955, -66.20506091306525], [-62.46768972679469, -66.20147643638731], [-62.461639798215664, -66.19715289790572], [-62.44087237725065, -66.19179606416327], [-62.41027331092363, -66.18769104484066], [-62.39590454101563, -66.18743896484314], [-62.38459777832031, -66.188873291015], [-62.37187576293946, -66.18847656249937], [-62.3548661004678, -66.18763127713424], [-62.327025799761344, -66.19085908253997], [-62.31209449825962, -66.183731943124], [-62.2800400780036, -66.17777487095267], [-62.23898048689788, -66.17775780167307], [-62.198214313865215, -66.17842260920085], [-62.16736632831097, -66.20148235652819], [-62.150285225998964, -66.21278307964782], [-62.09647731791316, -66.21639274568075], [-62.0574836730957, -66.20727539062439], [-62.02471923828124, -66.2033233642574], [-62.005382537841804, -66.20070648193298], [-61.99275588989257, -66.19875335693297], [-61.973926544189446, -66.2000808715814], [-61.96623992919922, -66.20302581787047], [-61.96477890014649, -66.21422576904236], [-61.96381378173828, -66.22936248779237], [-61.9742088317871, -66.24310302734314], [-61.98846817016602, -66.25537109374939], [-61.991939544677734, -66.25994873046814], [-61.98691940307618, -66.26808166503845], [-61.97990417480469, -66.27194976806581], [-61.96469497680665, -66.28633880615173], [-61.95016098022461, -66.30164337158145], [-61.917869567871094, -66.31160736083925], [-61.889400482177734, -66.3316116333002], [-61.87445449829101, -66.36296844482364], [-61.86286163330079, -66.38891601562442], [-61.859325408935554, -66.40737152099551], [-61.86574935913086, -66.4241180419916], [-61.85356140136719, -66.43611145019472], [-61.844352722167955, -66.4487457275385], [-61.84590911865235, -66.45906829833928], [-61.78947830200196, -66.47389984130803], [-61.757431030273445, -66.47625732421818], [-61.7122688293457, -66.47117614746037], [-61.708019256591804, -66.467178344726], [-61.708473205566406, -66.4611206054682], [-61.700435638427734, -66.45708465576115], [-61.68425369262695, -66.45051574706974], [-61.68930435180665, -66.44390869140567], [-61.67784118652343, -66.43527221679629], [-61.681514739990234, -66.42682647705021], [-61.68977737426758, -66.41783142089787], [-61.679695129394524, -66.41104125976504], [-61.671226501464844, -66.40305328369082], [-61.67204284667969, -66.3924484252924], [-61.70077514648439, -66.3824920654291], [-61.73701858520508, -66.36261749267521], [-61.73563003540039, -66.35077667236268], [-61.71231079101563, -66.33958435058535], [-61.70271301269532, -66.32673645019473], [-61.698375701904304, -66.31425476074159], [-61.70772552490236, -66.30011749267517], [-61.724250793457024, -66.29061889648375], [-61.73551940917969, -66.28075408935486], [-61.767951965332024, -66.26931762695251], [-61.78226470947266, -66.2585754394525], [-61.77709960937501, -66.24669647216737], [-61.75066757202149, -66.22790527343687], [-61.72769927978515, -66.2236862182611], [-61.69462966918947, -66.22419738769469], [-61.667579650878885, -66.2244644165033], [-61.60940933227538, -66.2194900512689], [-61.57130432128906, -66.22657012939392], [-61.55746841430663, -66.2397232055658], [-61.52902603149414, -66.25661468505798], [-61.50932312011718, -66.25847625732362], [-61.49564743041993, -66.26010894775331], [-61.47873306274415, -66.25563049316345], [-61.48072052001954, -66.24990081787048], [-61.49531555175779, -66.24616241455017], [-61.505313873291016, -66.2344741821283], [-61.50822067260741, -66.22663879394469], [-61.49760055541993, -66.21891784667909], [-61.487537384033196, -66.21362304687439], [-61.492557525634766, -66.19853973388611], [-61.49693679809571, -66.19102478027281], [-61.49008178710938, -66.1833572387689], [-61.47574996948242, -66.17558288574158], [-61.46516799926758, -66.16786193847592], [-61.441383361816406, -66.16571044921811], [-61.41947555541993, -66.16782379150328], [-61.40291213989257, -66.16880035400328], [-61.37979507446289, -66.17604064941342], [-61.355342864990234, -66.17295837402284], [-61.343997955322244, -66.1658248901361], [-61.33119201660156, -66.15836334228455], [-61.31731796264648, -66.15451812744078], [-61.300231933593736, -66.15304565429625], [-61.27738189697264, -66.15724945068298], [-61.263042449951165, -66.16641998290953], [-61.23979568481444, -66.16667175292906], [-61.20034408569336, -66.17181396484312], [-61.170406341552734, -66.18679046630798], [-61.15460205078125, -66.20259857177672], [-61.14783096313476, -66.21037292480408], [-61.145313262939446, -66.22064208984312], [-61.14699554443359, -66.22642517089783], [-61.150505065917976, -66.23648834228453], [-61.14894866943359, -66.24464416503845], [-61.16078186035155, -66.25423431396423], [-61.17992401123047, -66.26410675048768], [-61.17917251586913, -66.28150939941345], [-61.170536041259766, -66.30046844482362], [-61.1641731262207, -66.31916809081972], [-61.15972518920899, -66.33364868164001], [-61.155872344970696, -66.34207916259705], [-61.14100646972656, -66.34729766845643], [-61.07534027099609, -66.3544158935541], [-61.013042449951165, -66.35064697265565], [-60.96795272827147, -66.3453598022455], [-60.97870635986326, -66.33978271484317], [-60.98775863647462, -66.32564544677676], [-60.990520477294915, -66.3138656616205], [-61.007328033447266, -66.29747772216737], [-60.99388885498047, -66.28208160400331], [-60.97492599487305, -66.27629852294864], [-60.94739913940429, -66.27213287353453], [-60.920928955078125, -66.2724151611322], [-60.9028205871582, -66.26635742187439], [-60.89891052246093, -66.25452423095642], [-60.91398620605469, -66.23941040039001], [-60.920581817626946, -66.22926330566344], [-60.89696502685545, -66.2185363769525], [-60.86828231811522, -66.21088409423766], [-60.85403823852538, -66.19515228271422], [-60.87893676757813, -66.17753601074156], [-60.89591979980468, -66.1733474731439], [-60.914630889892564, -66.16670989990172], [-60.959823608398445, -66.15750122070249], [-61.00056076049804, -66.13336181640562], [-61.01979446411132, -66.10671997070249], [-61.01018142700196, -66.09140777587828], [-60.967716217041, -66.08339691162044], [-60.94293212890626, -66.0847778320306], [-60.914588928222656, -66.07760620117122], [-60.906658172607415, -66.07504272460872], [-60.89566421508789, -66.06636047363217], [-60.8869285583496, -66.0643844604486], [-60.877525329589844, -66.06845855712827], [-60.861320495605455, -66.07331085205013], [-60.832103729248026, -66.08762359619077], [-60.820072174072244, -66.0949783325189], [-60.80897903442382, -66.10720062255798], [-60.801307678222635, -66.11553955078061], [-60.79264068603515, -66.12599182128842], [-60.78010559082031, -66.13090515136655], [-60.75817489624024, -66.1329193115228], [-60.74306869506837, -66.13414764404233], [-60.72777938842772, -66.13688659667905], [-60.71220397949218, -66.13568115234311], [-60.70281982421875, -66.13276672363217], [-60.697345733642585, -66.12841796874939], [-60.695323944091804, -66.12019348144467], [-60.69539642333984, -66.11322784423763], [-60.69536972045899, -66.1007995605462], [-60.69125747680663, -66.09132385253844], [-60.7061309814453, -66.07918548583919], [-60.70545959472656, -66.06583404540949], [-60.706417083740234, -66.051307678222], [-60.701953887939446, -66.04486083984311], [-60.6942367553711, -66.04077148437435], [-60.68580627441407, -66.04272460937435], [-60.67166519165039, -66.04881286621027], [-60.65670013427733, -66.05548858642513], [-60.640819549560554, -66.05729675292905], [-60.6191291809082, -66.05777740478452], [-60.61061837241655, -66.0589222045298], [-60.60922241210937, -66.06891632080014], [-60.611297607421875, -66.07191467285092], [-60.59312301722449, -66.07422331589017], [-60.595384186881354, -66.0808620546901], [-60.577720380581844, -66.08988726740573], [-60.57680485323809, -66.09728015070651], [-60.57518742159745, -66.10070574885107], [-60.56819889620684, -66.1079689324448], [-60.55355851430822, -66.12159100318601], [-60.5516447656614, -66.13127270095507], [-60.56884606770991, -66.15876139299276], [-60.54908428158568, -66.1760453140131], [-60.54545268978881, -66.18536080473574], [-60.5475278851013, -66.18836678618105], [-60.55198345150755, -66.19190682524356], [-60.535652323677056, -66.19954789659076], [-60.53513829606581, -66.20438855794755], [-60.528781908648995, -66.20866094922549], [-60.51603020497105, -66.21644761462282], [-60.50813185063066, -66.21773083069242], [-60.51324462890625, -66.22306060790955], [-60.508575439453125, -66.23085784912048], [-60.52099609375, -66.24891662597595], [-60.51498413085937, -66.25768280029234], [-60.5079345703125, -66.26495361328062], [-60.49986262729162, -66.26945894024144], [-60.50193782260413, -66.27246492168675], [-60.49894709994788, -66.27685182354223], [-60.4824972124601, -66.2890047152127], [-60.4801778765226, -66.29736653161892], [-60.47852992730384, -66.30078450036893], [-60.47923183160073, -66.30476704431423], [-60.450209614803846, -66.32986012292753], [-60.45228481011635, -66.33286610437285], [-60.46618652343749, -66.34169006347597], [-60.447279927303846, -66.34314289880645], [-60.46032343394398, -66.35488556276806], [-60.46738446589053, -66.3659698012284], [-60.46842838414265, -66.37534319496613], [-60.472182046252016, -66.38076769447785], [-60.44282413609576, -66.40151201820834], [-60.44654728062702, -66.40692888832552], [-60.42110419006221, -66.43189104619822], [-60.40541154038371, -66.44151013111941], [-60.37292480468751, -66.46120452880803], [-60.37664794921874, -66.46662902831974], [-60.34713745117186, -66.48736572265567], [-60.34594726562499, -66.49623870849554], [-60.3442657121571, -66.50759395550133], [-60.332112923579025, -66.51668924581217], [-60.32716907592277, -66.5201377321403], [-60.33089222045403, -66.525562231652], [-60.33340333414232, -66.53116094535062], [-60.34429212950201, -66.53892227394599], [-60.357269287109375, -66.54457092285104], [-60.36474609375, -66.55541992187446], [-60.373413085937486, -66.55738067626898], [-60.38467407226562, -66.57365417480413], [-60.38348388671875, -66.58253479003852], [-60.3909912109375, -66.59338378906196], [-60.38604736328125, -66.59683990478463], [-60.38980102539061, -66.60226440429632], [-60.384857177734375, -66.60572052001899], [-60.38366699218749, -66.6146087646479], [-60.37872314453125, -66.61806488037054], [-60.38247680664062, -66.62348937988227], [-60.377502441406236, -66.62694549560493], [-60.381286621093736, -66.63236999511666], [-60.37631225585936, -66.63582611083932], [-60.375128143498316, -66.64466901818808]], [[-64.61491726891309, -67.23566606024337], [-64.63556335525504, -67.23515174376442], [-64.64488323347045, -67.23298683207805], [-64.66074611255586, -67.22728567667042], [-64.6706835939522, -67.22824742089269], [-64.67446085734205, -67.23152331495741], [-64.67580667177356, -67.2395198449364], [-64.68541865481127, -67.2425724661095], [-64.68202912955711, -67.24625693811277], [-64.67084146303003, -67.24722125259514], [-64.66223418808622, -67.24607427091594], [-64.65314971082161, -67.24440846953922], [-64.64143656873571, -67.24398218861], [-64.63020140407248, -67.24407337889868], [-64.62068937920296, -67.24275724308956], [-64.61601024539047, -67.239313022675], [-64.61491726891309, -67.23566606024337]], [[-64.61103647341639, -67.31508761433253], [-64.61785912996925, -67.30772018247033], [-64.62500482662945, -67.30644417907752], [-64.63315467873595, -67.307075061628], [-64.63928837177046, -67.31207499219157], [-64.63640701923306, -67.31714803333016], [-64.62727564817516, -67.33184878121], [-64.61594924870386, -67.33106861340077], [-64.61489820224786, -67.32829081792617], [-64.61102063616053, -67.323271757052], [-64.60992433274141, -67.31962372343786], [-64.61103647341639, -67.31508761433253]], [[-64.41217316471104, -67.31600801801208], [-64.42364758644845, -67.31036037865697], [-64.43345485700911, -67.30785713602425], [-64.43594478662024, -67.31306374043162], [-64.4371303829365, -67.31932392194805], [-64.4341230494188, -67.32265245592264], [-64.41371075261661, -67.32017667196565], [-64.41217316471104, -67.31600801801208]], [[-64.28747579461997, -66.92459551901607], [-64.29405542920749, -66.92281818833811], [-64.30827306871066, -66.92377710503727], [-64.31366445689096, -66.92565742135442], [-64.31075925433731, -66.9307174026362], [-64.30417862822925, -66.9324955340494], [-64.29706698627476, -66.93201603460415], [-64.28813660918917, -66.93032966022652], [-64.28747579461997, -66.92459551901607]], [[-64.19563711786184, -67.31466425630973], [-64.20140231169849, -67.3118489381636], [-64.21088831606835, -67.31232194670001], [-64.21326507056452, -67.31579158736159], [-64.21113263793514, -67.31928488242957], [-64.19622582077075, -67.31866565798687], [-64.19563711786184, -67.31466425630973]], [[-63.747032732600324, -66.97056696302225], [-63.78881708256553, -66.94525912556622], [-63.79943899454395, -66.94384203609512], [-63.81186842865035, -66.94450600146791], [-63.82603330937991, -66.94290392463658], [-63.83263921588171, -66.94027801520201], [-63.84236606898143, -66.93868637920129], [-63.84956615740224, -66.94440391741999], [-63.84828684754811, -66.94718954106223], [-63.83677615781603, -66.94843877016572], [-63.8261392852326, -66.94898925237761], [-63.820858001605, -66.95143756911538], [-63.81737105515841, -66.95509818693141], [-63.81743029678663, -66.95857565044511], [-63.815299765569435, -66.96379771160994], [-63.81312428440388, -66.96641163901967], [-63.809181038529694, -66.9695517533558], [-63.80122025572582, -66.97148467646495], [-63.79771292914601, -66.9742756559836], [-63.796000918944905, -66.97827940810463], [-63.784950840351826, -66.98178413361428], [-63.78187879609603, -66.98422598858353], [-63.78060220803567, -66.98788085830881], [-63.78154738692052, -66.99153051972418], [-63.783837227028535, -66.99587263748823], [-63.774055090421356, -66.99572170993721], [-63.75070481839089, -66.97907971381895], [-63.74488467556138, -66.97578820906239], [-63.747032732600324, -66.97056696302225]], [[-65.01612137165692, -67.79516425198024], [-65.03935322500435, -67.79753643433124], [-65.05437280847669, -67.80103980279922], [-65.08225398464882, -67.80981030875769], [-65.10657902148785, -67.814079632997], [-65.14778618562052, -67.81571296139826], [-65.17222784996633, -67.80967762983565], [-65.19083702317926, -67.794460084771], [-65.20372271621174, -67.79413565178193], [-65.23381501763238, -67.80110823155862], [-65.25844488704367, -67.80325612735615], [-65.28429869892217, -67.80346605025727], [-65.30014866646277, -67.80536528156036], [-65.31458115861633, -67.81216565974987], [-65.3230676142825, -67.82479689335631], [-65.31459803087026, -67.83362621062142], [-65.30718971274429, -67.83877790288567], [-65.29810725624233, -67.84063458713014], [-65.21616029845616, -67.8332439746194], [-65.14672070190072, -67.83142658782276], [-65.1076261255928, -67.83360745598266], [-65.07821962500918, -67.84177979707268], [-65.0534754606958, -67.8507691191479], [-65.04318783990854, -67.85541468878937], [-65.03407581572571, -67.85725565257938], [-65.01702938961984, -67.85813211791275], [-65.01047081811782, -67.85697902709308], [-65.00422310822555, -67.85372884082877], [-64.99978722905017, -67.84993638952508], [-64.99622627365893, -67.84543702624657], [-65.00558308103162, -67.84063002652756], [-65.01281828845423, -67.83846143939047], [-65.02079640494328, -67.83384233566811], [-65.02870691409842, -67.82835128401783], [-65.03212848698882, -67.82465175668092], [-65.02987180186288, -67.81909308562695], [-65.02618155489404, -67.81285177225435], [-65.02224959642598, -67.80957857114632], [-65.01744775645223, -67.80701216906436], [-65.00660385255372, -67.80381070039209], [-64.99900196812563, -67.80074951482209], [-65.0001831420557, -67.7979463466277], [-65.01612137165692, -67.79516425198024]], [[-64.58334334505743, -67.60710515712196], [-64.61624831413818, -67.60702431897843], [-64.6407946440655, -67.60456343731056], [-64.68662611902292, -67.60680302871519], [-64.71588553967737, -67.60690499615488], [-64.73988041730634, -67.60303811402407], [-64.74657516536058, -67.60036527405093], [-64.74582581373866, -67.59549142765057], [-64.75371903706301, -67.59001909882265], [-64.80029220500458, -67.5897770258057], [-64.90259915515155, -67.59648116764912], [-64.91667123038675, -67.59512278455433], [-64.9290106355112, -67.5951748143969], [-64.94306841384788, -67.60026369391723], [-64.9904050247974, -67.61041451565933], [-65.01683801795119, -67.61554271936353], [-65.02122926028241, -67.61933173428444], [-65.01382455592541, -67.62446539407894], [-64.9905977788496, -67.6323783323284], [-64.97588683644473, -67.6379342942324], [-64.96314520754152, -67.64556096895562], [-64.9601056237432, -67.65448345316806], [-64.96232133989501, -67.66649128526102], [-64.96045798710405, -67.67261267645722], [-64.95940045226095, -67.67715674938803], [-64.9569186098389, -67.68101781543935], [-64.94985137012863, -67.68492504051561], [-64.941550958489, -67.68431078428054], [-64.92682576648704, -67.67695974112247], [-64.9219454401975, -67.67264905557067], [-64.91254501339324, -67.66925447070676], [-64.89998794144279, -67.66658751019597], [-64.83938297226199, -67.65792464631146], [-64.8036765927056, -67.65842784525925], [-64.77919554787705, -67.66265819999138], [-64.76844828070574, -67.66676357584805], [-64.75872982350188, -67.67277694364968], [-64.75119249738405, -67.67702725794115], [-64.74223513400338, -67.68059216478471], [-64.73409821818659, -67.68258035188936], [-64.72552198580398, -67.68492055930528], [-64.719468988999, -67.68340313617566], [-64.72330647107837, -67.67848868995357], [-64.72680797448692, -67.67566920527388], [-64.71535038261916, -67.67576701023138], [-64.70569542713868, -67.6753257249216], [-64.66190793429533, -67.66313652653383], [-64.61276050497494, -67.65254642745468], [-64.6036226310007, -67.6444246328337], [-64.58044639125929, -67.63030928988952], [-64.57098143550792, -67.62428040395535], [-64.56846900558462, -67.61994181452103], [-64.56736491792536, -67.61628984187145], [-64.56630632534677, -67.61350904946256], [-64.57561261787444, -67.60786122879], [-64.58334334505743, -67.60710515712196]], [[-64.9479058515682, -67.81539786489478], [-64.93949490733557, -67.81391164110008], [-64.94299012819648, -67.81108588866158], [-64.95215152396592, -67.81012224750975], [-64.95569751548865, -67.81462212019612], [-64.9479058515682, -67.81539786489478]], [[-64.70952328669387, -68.08579749545542], [-64.70117754315606, -68.08691409639043], [-64.69525353578285, -68.08155105871127], [-64.70359749767707, -68.08043479965332], [-64.70842296623395, -68.08301341554494], [-64.70952328669387, -68.08579749545542]], [[-64.97323459234131, -68.308689217471], [-64.96181961022535, -68.30757914924588], [-64.95825254163057, -68.30394516310388], [-64.96316593882551, -68.30005293385388], [-64.97355733618191, -68.30012470382424], [-64.98031470852659, -68.30215401489666], [-64.98260984512682, -68.30772217542972], [-64.97323459234131, -68.308689217471]], [[-64.982736460083, -68.36119079810959], [-64.97589635930507, -68.35828808250787], [-64.98554882842038, -68.35434741543311], [-64.99226037655025, -68.35550344665076], [-64.99763103118856, -68.35772122259056], [-64.99405270031677, -68.36055326548359], [-64.982736460083, -68.36119079810959]], [[-64.7759901403363, -68.63984811223114], [-64.77097167377308, -68.63639303205959], [-64.77120505700013, -68.63254348045454], [-64.77611840353264, -68.62690522064028], [-64.78313697549099, -68.62422184600881], [-64.79072350661768, -68.622932333917], [-64.80372754113763, -68.62386882510215], [-64.80914713496557, -68.62609501828294], [-64.80989080927243, -68.63011094821172], [-64.80281785521186, -68.63926707870951], [-64.79676720515228, -68.64211794947742], [-64.78386503250623, -68.64292880326336], [-64.7759901403363, -68.63984811223114]], [[-64.8773735482205, -68.64209836278636], [-64.87667680435496, -68.6389565461945], [-64.88162371154102, -68.6341888115225], [-64.89142146077974, -68.63025054235294], [-64.9000967186319, -68.6308694437944], [-64.90525822941822, -68.63606817786815], [-64.90213593565987, -68.63942048668838], [-64.89655384862229, -68.64192114076073], [-64.88896696627347, -68.64321584080359], [-64.8773735482205, -68.64209836278636]], [[-63.63169686057141, -66.52804309588417], [-63.635990069066516, -66.52109242469058], [-63.644208297693986, -66.51535141139762], [-63.65853390131328, -66.51168397739144], [-63.677223801391136, -66.50974394810211], [-63.690707463514144, -66.50937334496203], [-63.69681243109952, -66.51057761180378], [-63.70380053327045, -66.51282164438211], [-63.70601740779439, -66.51628973743951], [-63.703872016822956, -66.51889799295466], [-63.69741295927644, -66.52498654865934], [-63.693098468275146, -66.52846676992223], [-63.695315236236965, -66.53193521771402], [-63.69665954637897, -66.53523164023068], [-63.6940796299628, -66.53818796146645], [-63.68671038737354, -66.54149999013367], [-63.676718984783676, -66.54429521591366], [-63.66325787872033, -66.54900528145016], [-63.654108747257744, -66.5493667812727], [-63.64884451370786, -66.5457284285545], [-63.636158223621564, -66.54019059911847], [-63.631331573837286, -66.53620386511099], [-63.629996635567224, -66.53290682257247], [-63.63169686057141, -66.52804309588417]], [[-62.31614576802455, -66.70655950284059], [-62.30737020245507, -66.70649139443574], [-62.29694418612192, -66.70432465626232], [-62.30059305506419, -66.70157316140629], [-62.311190273766336, -66.70026579661554], [-62.31727157994938, -66.70152920007655], [-62.31614576802455, -66.70655950284059]], [[-61.59797092566871, -66.47300931872073], [-61.59871131056019, -66.46919798063851], [-61.605753871833585, -66.46807234302956], [-61.61482807959612, -66.46870889596552], [-61.625081645039614, -66.47092280514973], [-61.62769593109404, -66.47633964631642], [-61.617026258194635, -66.47933090477987], [-61.609657202895384, -66.47906359669332], [-61.60182624596153, -66.47913735935016], [-61.591501371007546, -66.47778921654813], [-61.59797092566871, -66.47300931872073]], [[-64.88803017758786, -68.00984381987138], [-64.87777947709503, -68.00976638702839], [-64.87710316604993, -68.00663095739927], [-64.88585027556815, -68.00515180290708], [-64.88803017758786, -68.00984381987138]]]}}]}