{"type": "FeatureCollection", "features": [{"id": "0", "type": "Feature", "properties": {"NAME": "LarsenB", "Regions": "Peninsula", "TYPE": "FL"}, "geometry": {"type": "Polygon", "coordinates": [[[-61.00397135580548, -65.91094836888378], [-61.01557540893553, -65.91391754150321], [-61.024314880371094, -65.91883850097588], [-61.0300636291504, -65.92552185058526], [-61.031070709228516, -65.93498229980399], [-61.02946472167969, -65.94419860839776], [-61.0283203125, -65.9479675292962], [-61.02523040771485, -65.95144653320246], [-61.02256774902343, -65.95731353759697], [-61.02051544189453, -65.9683074951165], [-61.025711059570305, -65.97959136962824], [-61.03871154785155, -65.98775482177669], [-61.05689239501953, -65.99239349365166], [-61.077419281005824, -65.99185180663997], [-61.08555984497069, -65.98751068115168], [-61.10173034667968, -65.98362731933526], [-61.112323760986335, -65.97577667236263], [-61.122943878173814, -65.96740722656183], [-61.143184661865234, -65.96392059326104], [-61.182071685791016, -65.96080780029229], [-61.20243072509764, -65.9531707763665], [-61.2122573852539, -65.94145965576102], [-61.21422576904297, -65.93584442138601], [-61.227104187011726, -65.93215942382744], [-61.23043441772461, -65.92846679687432], [-61.22856521606445, -65.92053985595636], [-61.231437683105455, -65.9162063598626], [-61.24319076538087, -65.91482543945243], [-61.26728820800781, -65.91757965087821], [-61.29103088378907, -65.9184570312493], [-61.306159973144524, -65.91821289062432], [-61.32007598876954, -65.91809844970635], [-61.34315872192382, -65.91922760009697], [-61.35073852539062, -65.92092132568293], [-61.358333587646484, -65.92260742187432], [-61.36320114135742, -65.92608642578057], [-61.36663055419922, -65.93236541747979], [-61.36943435668945, -65.95333099365166], [-61.36819076538086, -65.96018218994074], [-61.35493469238282, -65.96784973144466], [-61.33650588989257, -65.97322082519463], [-61.33026504516602, -65.97666168212822], [-61.313644409179666, -65.98904418945247], [-61.30553817749021, -65.99825286865169], [-61.31249618530274, -66.02297210693293], [-61.31132507324218, -66.02995300292905], [-61.3095588684082, -66.03371429443295], [-61.31334686279296, -66.04045867919855], [-61.31450653076171, -66.04353332519466], [-61.315555572509766, -66.05033874511653], [-61.31618118286133, -66.05921936035092], [-61.326263427734375, -66.0684432983392], [-61.34772109985351, -66.07057189941341], [-61.395347595214865, -66.06913757324153], [-61.45130920410157, -66.05781555175716], [-61.46371078491211, -66.05250549316342], [-61.47017288208007, -66.0484313964837], [-61.48214340209961, -66.04344177246028], [-61.49248504638672, -66.03645324706967], [-61.502166748046875, -66.0336608886712], [-61.52256393432618, -66.0369567871087], [-61.54219436645508, -66.0351257324212], [-61.55756759643555, -66.02889251708919], [-61.57717895507814, -66.0189895629876], [-61.591156005859375, -66.01615905761653], [-61.61209869384767, -66.01496887206966], [-61.62563705444336, -66.01392364501886], [-61.637260437011726, -66.01634216308528], [-61.64234924316406, -66.02361297607355], [-61.6458625793457, -66.02839660644466], [-61.64776992797852, -66.03242492675716], [-61.65083312988282, -66.03950500488217], [-61.6544189453125, -66.04724884033138], [-61.6544075012207, -66.05539703369075], [-61.65217208862306, -66.06255340576108], [-61.652217864990234, -66.07019042968685], [-61.674278259277344, -66.07568359374935], [-61.68107986450196, -66.08721923828058], [-61.6946487426758, -66.09139251708918], [-61.723861694335945, -66.09545898437435], [-61.75531005859375, -66.09605407714778], [-61.76869201660156, -66.08999633788996], [-61.80536270141602, -66.09997558593686], [-61.789024353027344, -66.11183166503842], [-61.79310607910157, -66.11466217040952], [-61.79282760620117, -66.11860656738217], [-61.804351806640625, -66.13901519775328], [-61.822910308837876, -66.14255523681578], [-61.84513473510742, -66.14250183105405], [-61.85531997680665, -66.13243865966733], [-61.85425949096681, -66.12844085693297], [-61.884098052978516, -66.13082885742124], [-61.926700592041016, -66.13035583496031], [-61.95138549804688, -66.11999511718687], [-61.99599075317383, -66.1198043823236], [-62.02307891845704, -66.11445617675716], [-62.052722930908196, -66.1069412231439], [-62.070674896240234, -66.09764862060484], [-62.082870483398445, -66.08933258056574], [-62.099357604980476, -66.08473968505794], [-62.113548278808594, -66.07460021972594], [-62.13858413696289, -66.07148742675714], [-62.152381896972656, -66.06392669677672], [-62.150623321533196, -66.05994415283138], [-62.157867431640625, -66.05538940429624], [-62.168876647949226, -66.05322265624933], [-62.18873596191408, -66.04856109619077], [-62.189544677734375, -66.0451354980462], [-62.19910049438477, -66.03827667236263], [-62.200374603271484, -66.0314865112298], [-62.193885803222656, -66.02535247802668], [-62.197513580322266, -66.01825714111261], [-62.209354400634766, -66.01469421386655], [-62.22146224975586, -66.01866149902277], [-62.228981018066406, -66.0222778320306], [-62.244010925292976, -66.01907348632746], [-62.263500213623054, -66.0046539306634], [-62.264461517333984, -65.99858856201105], [-62.27124786376952, -65.99258422851496], [-62.26990509033203, -65.98551177978449], [-62.28419113159179, -65.97364807128841], [-62.278533935546875, -65.96804046630793], [-62.270660400390625, -65.95208740234307], [-62.264354705810554, -65.9435501098626], [-62.27307510375977, -65.94235992431575], [-62.317028045654304, -65.94662475585869], [-62.32661437988282, -65.94573211669855], [-62.33952713012694, -65.94505310058527], [-62.36236953735352, -65.9486007690423], [-62.40920639038087, -65.95159149169854], [-62.425491333007805, -65.94934082031182], [-62.432624816894545, -65.94886779785088], [-62.44611358642578, -65.94856262206963], [-62.466148376464844, -65.9456481933587], [-62.474987030029304, -65.93876647949153], [-62.47120666503906, -65.93304443359307], [-62.46271514892579, -65.92647552490166], [-62.455047607421875, -65.92178344726496], [-62.4395751953125, -65.91837310790945], [-62.41849136352539, -65.91162109374932], [-62.40602111816406, -65.90206909179619], [-62.39652633666992, -65.89326477050712], [-62.39715576171875, -65.88388824462822], [-62.40060806274413, -65.87889862060479], [-62.4139289855957, -65.87296295165947], [-62.41326904296874, -65.86751556396415], [-62.40662384033202, -65.86357116699149], [-62.41056060791015, -65.85617828369071], [-62.40365982055665, -65.85274505615163], [-62.38447952270508, -65.84892272949149], [-62.38164138793945, -65.84632110595633], [-62.37633132934571, -65.83934020996023], [-62.36307907104493, -65.83450317382743], [-62.359100341796875, -65.82981109619071], [-62.35960006713868, -65.82601165771415], [-62.365604400634766, -65.81909179687428], [-62.36754989624024, -65.81380462646415], [-62.36719131469726, -65.80791473388601], [-62.37495422363281, -65.80387115478443], [-62.38982009887696, -65.79818725585868], [-62.39965057373046, -65.79179382324148], [-62.399581909179695, -65.78753662109304], [-62.37713241577148, -65.78099060058523], [-62.354484558105476, -65.77347564697195], [-62.29688262939454, -65.772758483886], [-62.27408981323242, -65.77236938476491], [-62.25056076049805, -65.76847839355396], [-62.23724365234375, -65.76322937011646], [-62.22779083251955, -65.75693511962818], [-62.224700927734375, -65.75002288818287], [-62.200984954833984, -65.74513244628834], [-62.18438720703126, -65.74019622802663], [-62.176383972167976, -65.7391204833977], [-62.16651153564454, -65.73777770996021], [-62.16085052490235, -65.73588562011648], [-62.14635848999024, -65.73487854003832], [-62.13214874267579, -65.73512268066334], [-62.12133026123046, -65.73368072509693], [-62.1065902709961, -65.72728729247974], [-62.10852813720703, -65.72103881835865], [-62.10809326171876, -65.71561431884693], [-62.10052490234375, -65.71396636962817], [-62.094966888427734, -65.71076202392504], [-62.082069396972656, -65.70196533203051], [-62.07450866699218, -65.70030975341723], [-62.05962371826172, -65.69306945800707], [-62.050296783447266, -65.68904113769459], [-62.02811050415039, -65.67620086669848], [-62.028343200683594, -65.67226409912034], [-62.02857971191406, -65.66832733154222], [-62.027042388916016, -65.66200256347581], [-62.027278900146484, -65.6580657958977], [-62.027511596679695, -65.65412139892504], [-62.03151702880859, -65.65101623535082], [-62.03775405883789, -65.64240264892504], [-62.05089950561525, -65.64049530029222], [-62.0589485168457, -65.63774871826098], [-62.05926723460438, -65.63476967725465], [-62.069924538216334, -65.62968732150983], [-62.08302688598633, -65.61842346191332], [-62.08317947387695, -65.61181640624923], [-62.07993698120118, -65.60578155517503], [-62.08293151855469, -65.60300445556564], [-62.06651306152344, -65.60047149658126], [-62.0589485168457, -65.59509277343673], [-62.04995727539062, -65.58831024169844], [-62.04059219360353, -65.58587646484297], [-62.02130508422852, -65.5861511230461], [-62.01166915893554, -65.58588409423751], [-61.99917984008789, -65.58605957031176], [-61.966564178466804, -65.5763092041008], [-61.962467193603516, -65.57160186767501], [-61.946830749511726, -65.5662536621086], [-61.930442810058594, -65.5655441284172], [-61.91320419311524, -65.57267761230392], [-61.904273986816406, -65.57910156249922], [-61.89181900024413, -65.58528137206955], [-61.87820816040039, -65.58586883544845], [-61.85337448120117, -65.57942199706955], [-61.82587814331055, -65.57451629638595], [-61.79485321044921, -65.57736968994065], [-61.78076171875, -65.57906341552659], [-61.769972523548084, -65.57798169941726], [-61.78440115982931, -65.59133617783016], [-61.7883074098293, -65.59670727158016], [-61.80379187062541, -65.60154790861355], [-61.80414361554233, -65.60966202652165], [-61.80444335937501, -65.61254882812425], [-61.77270507812501, -65.63700103759689], [-61.76436607517352, -65.64424512681896], [-61.740855941048345, -65.65835793429842], [-61.7305683440265, -65.66445811155522], [-61.72328380027824, -65.67137729744027], [-61.714355914009964, -65.67823064526249], [-61.71826216400996, -65.68360173901247], [-61.69998213471309, -65.69756353100469], [-61.70388838471308, -65.70293462475468], [-61.69476362885372, -65.70991552075077], [-61.68167825891901, -65.7168181769874], [-61.669233919300275, -65.72253054657367], [-61.65846943368456, -65.72959717459756], [-61.62097057439549, -65.74575863099533], [-61.59354541041872, -65.75762389723734], [-61.57871269712551, -65.76103589985829], [-61.563343002428304, -65.76699272107257], [-61.53836059570311, -65.77416229247974], [-61.52526855468749, -65.77575683593678], [-61.516082763671875, -65.78273010253834], [-61.476776123046875, -65.78750610351491], [-61.46755981445312, -65.79447937011645], [-61.23540148684746, -65.82717164865898], [-61.180405347426166, -65.84523919251754], [-61.121858039899585, -65.85911140367232], [-61.097259521484375, -65.86511230468682], [-61.068848452664106, -65.87298761078154], [-61.056854248046875, -65.87863922119072], [-61.04367065429688, -65.88018798828055], [-61.04670682572579, -65.88888927831701], [-61.024902343749986, -65.89407348632743], [-61.00969753165687, -65.89837693507573], [-61.00723481095996, -65.90378367266658], [-61.01487345931987, -65.90514618269306], [-61.05029370566727, -65.89573037157828], [-61.032411243120585, -65.90827440710537], [-61.00397135580548, -65.91094836888378]], [[-62.26987148926898, -65.81718788916973], [-62.28709676244482, -65.81236867481405], [-62.29695462172091, -65.81076024136127], [-62.30539818072847, -65.81177890726768], [-62.31578002361995, -65.81534626908866], [-62.31383290304596, -65.81839219684424], [-62.30649580527059, -65.82107798715744], [-62.300278355964764, -65.82187221121612], [-62.2894482734062, -65.82220612946797], [-62.28298809520494, -65.82268088283556], [-62.273496476237085, -65.82196885922112], [-62.26896337526845, -65.81992520282637], [-62.26987148926898, -65.81718788916973]]]}}]}