{"type": "FeatureCollection", "features": [{"id": "0", "type": "Feature", "properties": {"NAME": "Nivl", "Regions": "East", "TYPE": "FL"}, "geometry": {"type": "Polygon", "coordinates": [[[12.256614572995757, -70.06434327590836], [12.257184028625492, -70.07072448730453], [12.24814605712891, -70.0801391601561], [12.252587318420408, -70.0843353271483], [12.266215324401854, -70.08905792236315], [12.281281471252445, -70.09185791015611], [12.291790008544925, -70.0916824340819], [12.307291984558104, -70.08963012695298], [12.328730819988353, -70.08154616125151], [12.3348445892334, -70.08358764648428], [12.353259912326122, -70.08235048404322], [12.395261789080482, -70.08026177670162], [12.412430905436059, -70.08035783518147], [12.431193351745609, -70.08209991455068], [12.423851013183597, -70.0960083007811], [12.442923545837406, -70.11177825927722], [12.465615272521973, -70.1221466064452], [12.49444580078125, -70.12963867187486], [12.576988220214838, -70.13638305664047], [12.721007347106934, -70.14321136474598], [12.766743659973148, -70.14514160156237], [12.781121253967283, -70.14402770996081], [12.84487342834473, -70.15422058105456], [12.89309310913086, -70.16106414794906], [12.938624382019045, -70.16386413574205], [12.97896099090576, -70.16948699951159], [12.997837066650392, -70.17890167236314], [12.995883941650392, -70.18389129638659], [12.989694595336916, -70.1892166137694], [13.039524078369142, -70.21254730224597], [13.044703483581543, -70.22274017333972], [13.03316497802735, -70.22939300537097], [13.018939971923832, -70.23474121093737], [13.016593933105465, -70.2391662597655], [13.010260581970213, -70.24298858642565], [12.984778404235838, -70.2489089965819], [12.971250534057617, -70.24875640869128], [12.951647758483892, -70.24755859374989], [12.942681312561035, -70.25279235839831], [12.936134338378908, -70.25632476806628], [12.920831680297853, -70.25751495361315], [12.906448364257814, -70.25742340087879], [12.891552925109862, -70.25524902343736], [12.867771148681642, -70.25315093994128], [12.850840568542484, -70.2532501220702], [12.831325531005861, -70.2574768066405], [12.819382667541502, -70.26232910156237], [12.816870689392085, -70.2652435302733], [12.82445907592774, -70.27252197265614], [12.84115028381348, -70.28000640869128], [12.851069450378416, -70.28408050537097], [12.856002807617191, -70.29005432128893], [12.858919143676758, -70.29436492919909], [12.854047775268555, -70.29776763916004], [12.844792366027837, -70.29999542236314], [12.833905220031735, -70.30113220214831], [12.81359958648682, -70.30027008056629], [12.79379844665527, -70.30149078369129], [12.76981067657471, -70.30181121826159], [12.753029823303219, -70.30218505859362], [12.73784351348877, -70.30092620849597], [12.7155351638794, -70.2983932495116], [12.70516872406006, -70.294952392578], [12.692440986633299, -70.29198455810534], [12.675560951232914, -70.2908477783202], [12.671147346496584, -70.29632568359364], [12.671762466430662, -70.30262756347643], [12.65795803070068, -70.30880737304675], [12.647542953491207, -70.3120193481444], [12.590087890624996, -70.32541656494128], [12.531793594360346, -70.34308624267567], [12.470445632934574, -70.36035919189439], [12.451395988464354, -70.3669052124022], [12.440926551818844, -70.36737823486315], [12.414793014526364, -70.3617706298827], [12.39778423309326, -70.35910034179675], [12.395186424255373, -70.34962463378895], [12.394265174865723, -70.3454666137694], [12.386646270751958, -70.34754180908192], [12.383745193481445, -70.35409545898425], [12.388090133666987, -70.35800170898426], [12.384624481201174, -70.36369323730456], [12.381824493408207, -70.36903381347645], [12.383120536804194, -70.37377166748034], [12.36108016967773, -70.37992858886705], [12.340417861938475, -70.37993621826159], [12.320939064025886, -70.37623596191395], [12.30787372589111, -70.3699493408202], [12.291839599609371, -70.36598968505847], [12.278311729431154, -70.36728668212878], [12.236778259277344, -70.37665557861315], [12.211792945861813, -70.39085388183581], [12.181274414062502, -70.39789581298817], [12.194920539855955, -70.40233612060534], [12.228075981140135, -70.40354919433582], [12.247045516967773, -70.40367889404286], [12.269601821899416, -70.41350555419909], [12.26500701904297, -70.42169189453112], [12.26523113250733, -70.4400939941405], [12.264295578002933, -70.4594802856444], [12.261486053466797, -70.46210479736317], [12.246760368347164, -70.46861267089832], [12.235701560974125, -70.47242736816395], [12.227382659912115, -70.47212982177722], [12.22071647644043, -70.47019958496081], [12.21127891540528, -70.46816253662098], [12.19937515258789, -70.46510314941395], [12.184771537780758, -70.46343994140612], [12.172892570495613, -70.46459960937487], [12.165574073791511, -70.4672393798827], [12.163493156433105, -70.47100830078112], [12.16763401031494, -70.47463989257801], [12.162289619445804, -70.47894287109364], [12.149242401123049, -70.48532104492176], [12.15060901641846, -70.4888458251952], [12.158761978149414, -70.49308776855457], [12.165987968444824, -70.49588775634754], [12.170693397521978, -70.5003738403319], [12.169879913330076, -70.51311492919909], [12.16132068634033, -70.51946258544909], [12.162453651428224, -70.52542114257801], [12.17691993713379, -70.54219055175771], [12.169961929321293, -70.5496368408202], [12.160826683044437, -70.55512237548815], [12.15712261199951, -70.55780792236315], [12.177608489990236, -70.5726394653319], [12.176590919494629, -70.5808639526366], [12.160076141357427, -70.5889968872069], [12.147743225097658, -70.58957672119129], [12.13918781280518, -70.58898162841787], [12.117180824279789, -70.5872344970702], [12.10819530487061, -70.58877563476553], [12.078061103820799, -70.60118865966786], [12.067076683044434, -70.60529327392565], [12.054730415344244, -70.60586547851551], [12.055033683776859, -70.60916137695304], [12.059926986694334, -70.61394500732409], [12.057437896728521, -70.6171417236327], [12.051265716552734, -70.62874603271473], [12.06366634368897, -70.6423568725585], [12.074040412902837, -70.64856719970693], [12.08939075469971, -70.67374420166004], [12.104212760925293, -70.68114471435537], [12.114369392395016, -70.68556213378895], [12.112816810607903, -70.69020080566395], [12.103844642639157, -70.69325256347645], [12.095867156982417, -70.6950225830077], [12.05497455596924, -70.6967086791991], [12.049600601196296, -70.70252227783195], [12.042265892028809, -70.7166290283202], [12.027710914611818, -70.72097778320303], [11.984245300292976, -70.73580169677724], [11.972420692443846, -70.73874664306628], [11.945375442504881, -70.73791503906239], [11.87724399566651, -70.73571777343739], [11.840169906616211, -70.73346710205067], [11.831050872802738, -70.73348999023426], [11.825047492980957, -70.73843383789051], [11.838756561279295, -70.74562835693348], [11.823174476623533, -70.74700927734365], [11.805759429931635, -70.74549865722645], [11.793708801269528, -70.74089813232413], [11.77447605133057, -70.73648834228506], [11.731490135192871, -70.72872161865223], [11.699028015136726, -70.72689056396474], [11.666305541992182, -70.7304763793944], [11.642264366149899, -70.73407745361318], [11.580753326416017, -70.74367523193348], [11.566528320312502, -70.74282836914051], [11.556488037109375, -70.73989105224598], [11.554159164428713, -70.73612976074207], [11.551792144775396, -70.72935485839832], [11.533539772033699, -70.72787475585926], [11.502638816833498, -70.72362518310537], [11.480412483215334, -70.72753143310536], [11.461481094360353, -70.72789764404287], [11.449724197387697, -70.72657775878896], [11.43621730804443, -70.72536468505848], [11.417640686035158, -70.72631072998037], [11.40712547302246, -70.72700500488271], [11.376399993896479, -70.71399688720693], [11.367587089538574, -70.69651031494129], [11.378768920898438, -70.69094848632803], [11.393970489501953, -70.68601989746082], [11.387836456298832, -70.68341827392567], [11.344108581542972, -70.68331146240222], [11.314197540283198, -70.68198394775382], [11.260848045349125, -70.68400573730457], [11.216938018798828, -70.68508911132801], [11.15953826904297, -70.6879425048827], [11.103259086608888, -70.69882965087879], [11.08326530456543, -70.70192718505848], [11.055438995361325, -70.70101928710926], [11.036035537719725, -70.69896697998037], [11.024155616760249, -70.69732666015614], [11.004758834838867, -70.6952667236327], [10.989551544189453, -70.69413757324207], [10.978528976440431, -70.69394683837882], [10.958152770996099, -70.69795989990223], [10.944130897521974, -70.69885253906239], [10.939101219177246, -70.69647216796862], [10.93492794036865, -70.68621063232412], [10.912070274353026, -70.67504119873036], [10.848571777343752, -70.65473937988271], [10.823900222778319, -70.64968872070301], [10.806822776794437, -70.6483688354491], [10.78100395202637, -70.64759063720693], [10.76980209350586, -70.64860534667956], [10.760181427001953, -70.64920806884754], [10.707579612731935, -70.63959503173818], [10.68398761749268, -70.6299591064452], [10.644038200378418, -70.62014007568347], [10.60969352722168, -70.61537170410143], [10.594635009765623, -70.60790252685537], [10.585431098937988, -70.59796142578115], [10.568267822265629, -70.59152221679676], [10.547890663146969, -70.58737945556629], [10.530464172363281, -70.58365631103503], [10.52202796936035, -70.58147430419912], [10.480549812316896, -70.57502746582018], [10.401025772094728, -70.55019378662098], [10.331769943237314, -70.5355224609374], [10.287372589111323, -70.52501678466786], [10.261052131652828, -70.51461029052722], [10.231499671936035, -70.50979614257801], [10.211612701416016, -70.50289916992175], [10.175624847412115, -70.49606323242176], [10.140567779541014, -70.4942703247069], [10.127776145935057, -70.49383544921864], [10.06987953186035, -70.48109436035145], [10.048333168029785, -70.46918487548815], [9.993171691894531, -70.45117187499989], [9.96352577209473, -70.44753265380847], [9.956538200378416, -70.44614410400379], [9.950829505920407, -70.44378662109364], [9.928661346435547, -70.42531585693347], [9.90165424346924, -70.41461944580065], [9.900101661682122, -70.4099197387694], [9.906040191650394, -70.4041824340819], [9.905764579772953, -70.39850616455067], [9.883854866027834, -70.39410400390612], [9.828102111816401, -70.38627624511707], [9.83041095733643, -70.37865447998034], [9.826434135437012, -70.37439727783192], [9.744997978210447, -70.34050750732409], [9.71108150482178, -70.33499145507801], [9.678381919860842, -70.33358001708972], [9.662236213684082, -70.33151245117176], [9.656855583190923, -70.32613372802723], [9.663262367248537, -70.31948852539048], [9.674788475036625, -70.29489135742176], [9.676800727844242, -70.2690505981444], [9.671688079833984, -70.26066589355455], [9.654051780700685, -70.24672698974598], [9.644693374633789, -70.24217987060533], [9.621999740600588, -70.23571014404284], [9.611954689025882, -70.23329162597643], [9.586404800415039, -70.22458648681628], [9.577898979187012, -70.21460723876939], [9.574000358581543, -70.20854949951158], [9.549735069274908, -70.18811035156237], [9.511405944824219, -70.17475128173814], [9.490267753601072, -70.17116546630847], [9.451300621032722, -70.15634155273425], [9.436478614807127, -70.14582061767564], [9.420820236206055, -70.13356018066392], [9.419117927551275, -70.13006591796864], [9.41798782348633, -70.12594604492175], [9.42599105834961, -70.11175537109362], [9.406522750854496, -70.10060119628895], [9.38817882537842, -70.09894561767564], [9.375108718872067, -70.09550476074205], [9.386754989624022, -70.08863067626943], [9.396462440490728, -70.08809661865226], [9.39755535125733, -70.08350372314443], [9.408882141113285, -70.07946777343741], [9.423417091369627, -70.08203887939445], [9.42881393432617, -70.07947540283193], [9.431827929226744, -70.07557277659613], [9.43905544281006, -70.07322692871084], [9.492148864614562, -70.05852293667313], [9.552940675935133, -70.04971365560601], [9.578336715698244, -70.039207458496], [9.61743411098707, -70.0250394333115], [9.64749240875244, -70.018211364746], [9.690372467041017, -70.01117706298818], [9.697829246520996, -70.00621032714834], [9.722127919362709, -70.00037857700434], [9.735103963499482, -70.00960642398512], [9.749331605449651, -69.99952505133965], [9.770039863373082, -70.01122266207197], [9.786629518538106, -69.99932253095342], [9.802803568700098, -70.01726520443741], [9.837285748063893, -70.0250108681358], [9.853989526705739, -70.02884498515692], [9.865277462910756, -70.02958519941116], [9.874800071256283, -70.0281003959222], [9.888053894042969, -70.02274322509753], [9.890482902526859, -70.01721954345689], [9.885044763778028, -70.0132828015881], [9.878444309164772, -70.00886890100972], [9.864067724994536, -70.00793051528134], [9.864101409912111, -70.00093078613273], [9.88772964477539, -70.00179290771474], [9.86829471588135, -69.99614715576162], [9.866613388061525, -69.99283599853506], [9.865915298461914, -69.98493957519521], [9.852090651609393, -69.98050848296735], [9.871422319143308, -69.97716188382503], [9.89516766110943, -69.98486456469325], [9.9152250289917, -69.98426818847646], [9.89621353149414, -69.97293853759756], [9.92245864868164, -69.97249603271476], [9.906251907348631, -69.96666717529287], [9.907780647277834, -69.96317291259757], [9.965354919433592, -69.95291137695304], [9.978544669480518, -69.94688771930622], [10.010406928391651, -69.93815206256794], [10.112194575508413, -69.92360711095176], [10.202604293823246, -69.91346740722646], [10.211322861772397, -69.90923382919648], [10.226734238725516, -69.907158633884], [10.24532699584961, -69.91307830810536], [10.26659498502158, -69.91363617132701], [10.273895088560298, -69.91648070290861], [10.265459839231683, -69.91927306130705], [10.266958235772229, -69.92338458421683], [10.288769721062758, -69.92088977220511], [10.30632507122983, -69.91937773498437], [10.324926488771336, -69.91708891662499], [10.34736754961419, -69.91501505302169], [10.367771286816147, -69.91876202920578], [10.35971089343994, -69.92579952756022], [10.352376214980877, -69.92767005525903], [10.369362469550508, -69.9295296898024], [10.382267951965332, -69.928367614746], [10.388209165259148, -69.92491522918415], [10.39780122153356, -69.9243125070162], [10.412017405118945, -69.92363569052131], [10.422190044511282, -69.92732262600246], [10.426785469055172, -69.93123626708973], [10.428743975271964, -69.93545735298002], [10.400667190551756, -69.944236755371], [10.399815559387205, -69.94882965087879], [10.4423987691446, -69.93961954288017], [10.46424130075129, -69.9430505138389], [10.461819648742678, -69.9471893310546], [10.460389137268074, -69.95068359374991], [10.452559471130373, -69.95458984374991], [10.456827995124257, -69.95822070466579], [10.450943752075437, -69.96265814110947], [10.44668577279616, -69.96745517486309], [10.44122459006108, -69.97190407581277], [10.473629327888949, -69.96549609132573], [10.488269051209633, -69.96383816458312], [10.490819818691381, -69.96639483610971], [10.491285589636778, -69.96942203383381], [10.491149157205458, -69.97370832994642], [10.491204907247846, -69.97870606347354], [10.491935897970839, -69.98176243055495], [10.489981737814206, -69.98701201662425], [10.511468577798734, -69.98607741268515], [10.516378005201123, -69.98958144767698], [10.508332817418674, -69.99310010026355], [10.508971076446619, -69.99654672780035], [10.5214150809614, -69.9989736600062], [10.53563930022849, -70.00209568870144], [10.5356616973877, -70.01068878173815], [10.548053741455073, -70.02219390869125], [10.60728073120117, -70.04389190673814], [10.684975624084469, -70.05899810791], [10.75579452514648, -70.0757217407225], [10.786194801330566, -70.07975006103501], [10.951478004455572, -70.09804534912097], [10.965890884399416, -70.09859466552722], [10.979861259460444, -70.09526824951158], [11.003094673156738, -70.08502197265612], [11.013033866882326, -70.06694793701159], [11.004436492919924, -70.05340576171861], [10.994200706481935, -70.04778289794908], [10.981701850891115, -70.04650878906241], [10.982994186016823, -70.04281819445923], [10.983880936940734, -70.03860919329642], [11.016599595388003, -70.0375715956402], [11.014612197875978, -70.034080505371], [11.027167651300408, -70.03151399736566], [11.006506071682331, -70.0244974613064], [11.001204792079617, -70.01886497591634], [11.014812171378221, -70.01690391489473], [11.028195682582552, -70.01365409945151], [11.032059569356091, -70.00990863950716], [11.009079833027966, -70.00459858091341], [11.007888141688998, -70.00135551546714], [11.02008086782425, -69.99940239046715], [11.025240245876002, -69.99677787874838], [10.998457256374051, -69.99059806917808], [10.985116306361848, -69.98465477083825], [11.000597253073739, -69.9832462021821], [11.013885399525453, -69.97871908590164], [11.02333733441325, -69.97668960851287], [11.051596769244766, -69.96888907040382], [11.12267987033817, -69.95751548735232], [11.176739847236957, -69.95895158576226], [11.2073524452067, -69.95494257467888], [11.259400201242537, -69.95020032854342], [11.274934162273233, -69.95163054301649], [11.280700251742942, -69.9469682794948], [11.293656092737942, -69.94469821972318], [11.294390675779612, -69.94862227534168], [11.290856188436832, -69.9523952017688], [11.28456757000418, -69.95597779414557], [11.28556210182874, -69.96049917019002], [11.271751122785366, -69.97183439282519], [11.293969740488876, -69.96205224469008], [11.299754571495919, -69.95287470689827], [11.315009990891378, -69.95307857899842], [11.313694872769926, -69.96308710648827], [11.302720606699602, -69.97083336242125], [11.296800856454626, -69.97653673939374], [11.290646468713465, -69.98956881437722], [11.310776694617928, -69.97428496572023], [11.32064523272334, -69.96380461351158], [11.34469985640579, -69.95857496674586], [11.353077002838567, -69.96189393884178], [11.343101764793087, -69.96761152974997], [11.334969831176533, -69.96930344425797], [11.332953484409716, -69.9768649826065], [11.343911814672559, -69.9744737512904], [11.347821191080016, -69.97833272892927], [11.344887890671757, -69.98357788588699], [11.340891838073732, -69.98811340332023], [11.33933694413258, -69.99246343020724], [11.34992248324686, -69.99006673859235], [11.365178770109129, -69.98952122024232], [11.350049080197625, -69.9972588072033], [11.37532426515245, -69.99769998799424], [11.369440078735352, -70.00530242919906], [11.388745307922363, -70.01869964599594], [11.39923572540283, -70.0215911865233], [11.40954303741455, -70.0211791992186], [11.417778015136719, -70.01279449462876], [11.414368629455572, -70.00701904296861], [11.416706085205082, -70.00204467773423], [11.426158905029302, -70.0016937255858], [11.4347677230835, -70.00139617919906], [11.439459800720217, -69.9972686767577], [11.447839736938478, -70.0058059692382], [11.432273864746097, -70.00758361816393], [11.430452346801758, -70.01342010498033], [11.433345794677734, -70.01683044433577], [11.438431739807132, -70.01948547363267], [11.45364475250244, -70.01992797851547], [11.482712745666507, -70.02001953124986], [11.491654069288066, -70.01685543570046], [11.516466234205279, -70.02901981517816], [11.50159454345703, -70.03253936767562], [11.488747596740723, -70.03313446044908], [11.477405548095707, -70.03181457519517], [11.462868690490726, -70.03252410888659], [11.462218284606935, -70.0358734130858], [11.46463012695313, -70.04141998291003], [11.48075866699219, -70.04782104492172], [11.495864868164062, -70.05248260498031], [11.526305198669437, -70.06510925292953], [11.556189537048338, -70.07084655761705], [11.578236579895018, -70.07231140136705], [11.607730865478523, -70.07295989990222], [11.64155673980713, -70.06907653808578], [11.655067443847654, -70.06662750244128], [11.665486335754391, -70.06198120117173], [11.667913436889648, -70.0557937622069], [11.670229120331214, -70.0520215495573], [11.696931467109817, -70.05275287229583], [11.706095212576074, -70.05270594872356], [11.69190502166748, -70.0619201660155], [11.689134597778324, -70.06753540039048], [11.688172340393068, -70.07031249999984], [11.691294670104984, -70.074005126953], [11.69710159301758, -70.07630157470689], [11.71452045440674, -70.07447052001937], [11.734376907348635, -70.06794738769516], [11.744073867797859, -70.06214141845689], [11.745137214660645, -70.05664825439439], [11.741891966039887, -70.05251785158558], [11.747180737736231, -70.04941876029088], [11.753658857923794, -70.04558635389908], [11.765648717678653, -70.04408547829875], [11.780480821659992, -70.04486872792253], [11.79070949806436, -70.05247667295531], [11.795222825018936, -70.04206158376246], [11.806653022766117, -70.04214477539053], [11.82769361019234, -70.04666283523252], [11.811031477946715, -70.03895474943965], [11.81157302856446, -70.03380584716788], [11.823303856762745, -70.03004783153358], [11.819295563610893, -70.02349418163124], [11.823414802551271, -70.020408630371], [11.823934555053713, -70.01580810546865], [11.831360903070737, -70.01050119154056], [11.852795240576913, -70.00939509410388], [11.878259658813477, -70.0119171142577], [11.894915580749513, -70.01184844970695], [11.913535998404257, -70.01349081772659], [11.897679598524249, -70.00594397956377], [11.892169612206768, -69.99839778239877], [11.878658158265923, -69.98778534646102], [11.870334317185211, -69.9798756772347], [11.88082729463699, -69.97751993843733], [11.878146516133576, -69.97314829537092], [11.870425568867951, -69.97142405220686], [11.864398347188265, -69.96158213326154], [11.873136864949492, -69.95410532662092], [11.87112651949051, -69.95082468697248], [11.878008233357695, -69.94575876900375], [11.899132119466094, -69.94766611763654], [11.911543237019806, -69.95704264351545], [11.92260421531735, -69.9672368533333], [11.940205574035645, -69.96633911132801], [11.9805147993445, -69.9771943812632], [11.961705125795174, -69.96442857122233], [11.960933877405006, -69.9614620220269], [11.957861325583353, -69.95428432902585], [11.956843297324983, -69.94443055167189], [11.969940431849665, -69.9408701980499], [11.979998868876873, -69.9390481539403], [11.981441423480765, -69.9420028472916], [11.98538988974975, -69.94869095839755], [12.00418723474809, -69.95483984988121], [12.032375965424956, -69.95995544627769], [12.045879084620221, -69.9623786242362], [12.048483210519736, -69.96750621565253], [12.049074510970375, -69.97161235563338], [12.057728739378307, -69.97911535557442], [12.067134631282618, -69.98591854531466], [12.126190538859056, -70.00549632522464], [12.19033246293104, -70.03355411641013], [12.194939062512994, -70.04250658041641], [12.204906264226196, -70.04498937317904], [12.221753851082893, -70.0477439272158], [12.22261473516444, -70.05595326453988], [12.2457211997689, -70.05903624810009], [12.256614572995757, -70.06434327590836]], [[11.466484404921145, -70.3260028167904], [11.474957113667001, -70.33105296775636], [11.502464227574931, -70.33543310977005], [11.517295769403189, -70.34405813571067], [11.528355026557884, -70.34850763134517], [11.548825315282127, -70.3529435294902], [11.582680031332051, -70.35356894555947], [11.60666186120053, -70.3472665454561], [11.614947866422153, -70.34268035572495], [11.614982617639392, -70.33725673495722], [11.596657984065713, -70.33120242555577], [11.53034732101995, -70.3259185083742], [11.492559824060539, -70.3200666964839], [11.482323930407041, -70.31971223181797], [11.47422766012722, -70.32082923118209], [11.466484404921145, -70.3260028167904]], [[10.122918386188203, -70.33068760936447], [10.127911491509028, -70.33317276992092], [10.14843045261871, -70.33719888952349], [10.161377931874195, -70.3373465592315], [10.179098310135688, -70.33782386149556], [10.196569729590475, -70.33955275430019], [10.207987062942486, -70.33855131025727], [10.21382767516715, -70.33572033785623], [10.213274283577364, -70.33296762211559], [10.205279192246794, -70.33004722505567], [10.189845987737323, -70.32695810180091], [10.170538510156655, -70.3234830742832], [10.160933598294518, -70.32096814621298], [10.14332298988241, -70.31893578249058], [10.12991103464778, -70.31788699093926], [10.116626103884546, -70.32054335719923], [10.114240063733773, -70.32471007998606], [10.122918386188203, -70.33068760936447]], [[10.723134391760746, -70.41688846151987], [10.730124976269405, -70.40962040297231], [10.724067916807904, -70.40380214875591], [10.71579732485922, -70.40060584986004], [10.709144481459914, -70.39699650195698], [10.697312503386618, -70.3940258411282], [10.68097530001191, -70.39289059132179], [10.649648083545886, -70.39301129270787], [10.628188298070636, -70.39591528019197], [10.616145392140115, -70.39915400675669], [10.608390172664091, -70.40677280602434], [10.610563866215145, -70.41066680912554], [10.623733498925615, -70.4210009567109], [10.629430229230874, -70.42622398348803], [10.623903231481314, -70.43122288569788], [10.61971420715683, -70.43861811537194], [10.611217629571028, -70.4465936426225], [10.618875531323582, -70.45200472255434], [10.636380936479197, -70.45679700081627], [10.647852044078443, -70.46072738015563], [10.65978059809202, -70.46710972763535], [10.672209748981484, -70.46942811292189], [10.689675967138934, -70.47080742992235], [10.706129068815228, -70.47038798673252], [10.723137578907004, -70.469311292638], [10.733586199305789, -70.4664773679618], [10.74838136551781, -70.46150513360931], [10.75269561162159, -70.45440571758874], [10.748451229971039, -70.44691981771236], [10.735057126428355, -70.44125645968096], [10.72039129730205, -70.43660389607435], [10.71428048015066, -70.43233877845232], [10.713193843843587, -70.42713474091556], [10.723134391760746, -70.41688846151987]], [[12.43802804573556, -70.32430970615077], [12.429427860043292, -70.32826606458231], [12.432785603276242, -70.32997705945125], [12.443790435426811, -70.3290085880619], [12.449295233653086, -70.32784525523763], [12.4462689960732, -70.32595906200405], [12.443425680602726, -70.32571807185877], [12.43802804573556, -70.32430970615077]], [[12.417043893318906, -70.33808163415631], [12.415770514539322, -70.3368189279657], [12.408458676899082, -70.33796396746389], [12.407544648493348, -70.33999189596491], [12.41052645840432, -70.34112808636789], [12.417216268333409, -70.3410846850906], [12.424108998870473, -70.33861323749431], [12.417043893318906, -70.33808163415631]], [[11.5351640577274, -70.6471103712861], [11.534790771443642, -70.64502957729722], [11.532871335157573, -70.64485862559626], [11.525033375676395, -70.64538888123101], [11.521566438400935, -70.6471275628244], [11.526293716866665, -70.64891392995713], [11.5351640577274, -70.6471103712861]]]}}]}