{"type": "FeatureCollection", "features": [{"id": "0", "type": "Feature", "properties": {"NAME": "Riiser-Larsen", "Regions": "East", "TYPE": "FL"}, "geometry": {"type": "Polygon", "coordinates": [[[-20.39368865563586, -74.45213123000818], [-20.376001358032227, -74.39737701416014], [-20.35945320129394, -74.37503051757811], [-20.364648818969723, -74.36587524414062], [-20.428812026977532, -74.3066253662109], [-20.455417633056655, -74.28473663330077], [-20.510274887084954, -74.26284790039057], [-20.53978157043457, -74.24832153320311], [-20.648668289184567, -74.1737594604492], [-20.671659469604492, -74.15216064453124], [-20.681102752685547, -74.08004760742186], [-20.623291015625014, -74.01493072509764], [-20.588056564331055, -73.96862792968749], [-20.60438346862793, -73.95252990722652], [-20.59252738952637, -73.92591094970699], [-20.579122543334947, -73.84952545166011], [-20.561727523803714, -73.82638549804686], [-20.5349407196045, -73.81671142578121], [-20.503280639648427, -73.80849456787105], [-20.48865509033203, -73.7898712158203], [-20.514728546142578, -73.75548553466795], [-20.50431442260742, -73.72203826904293], [-20.47253608703613, -73.70330810546874], [-20.486900329589844, -73.6730270385742], [-20.50900650024414, -73.65631866455074], [-20.535900115966793, -73.65348052978511], [-20.557558059692376, -73.64160156249997], [-20.55867385864257, -73.62709045410152], [-20.569471359252933, -73.60963439941405], [-20.589185714721687, -73.59890747070311], [-20.630482651015356, -73.5880285198402], [-20.625610351562493, -73.58436584472653], [-20.625152587890614, -73.58081054687497], [-20.66336059570312, -73.57432556152341], [-20.670318603515625, -73.56996154785155], [-20.673553466796875, -73.5659942626953], [-20.66793823242188, -73.5617752075195], [-20.632049560546886, -73.56681823730467], [-20.6068394351405, -73.56182431237717], [-20.592454910278327, -73.56305694580077], [-20.553462982177734, -73.57199859619136], [-20.515197753906254, -73.57125854492185], [-20.492582321167, -73.55926513671871], [-20.492612838745114, -73.55158996582028], [-20.511560440063477, -73.54286956787108], [-20.575345993041978, -73.53993225097653], [-20.578857421875, -73.53633117675778], [-20.585815429687496, -73.53196716308591], [-20.581176757812493, -73.52524566650388], [-20.59600830078124, -73.51402282714844], [-20.589965820312493, -73.50622558593746], [-20.6015625, -73.49897003173824], [-20.582061767578118, -73.49382781982418], [-20.5889892578125, -73.48947143554686], [-20.58712768554687, -73.48486328124996], [-20.561614990234375, -73.46228790283199], [-20.55929565429688, -73.45410919189449], [-20.549102783203125, -73.44315338134764], [-20.54678344726562, -73.43497467041014], [-20.531555175781246, -73.42335510253906], [-20.529693603515625, -73.41874694824216], [-20.529235839843743, -73.41517639160153], [-20.525573730468746, -73.4059371948242], [-20.514038085937493, -73.39392852783197], [-20.5145263671875, -73.3878479003906], [-20.508544921875004, -73.38007354736324], [-20.504882812500004, -73.3708343505859], [-20.474151611328114, -73.34404754638668], [-20.446258544921875, -73.31935119628903], [-20.424346923828125, -73.30245208740234], [-20.423919677734375, -73.29890441894527], [-20.428527832031254, -73.29599761962886], [-20.41033935546875, -73.27870941162107], [-20.30838012695312, -73.23190307617183], [-20.279235839843743, -73.22540283203121], [-20.245697021484375, -73.21216583251953], [-20.18353271484374, -73.19597625732418], [-20.159149169921882, -73.18656158447263], [-20.14974975585937, -73.17914581298824], [-20.14804077148438, -73.17453002929686], [-20.15362548828125, -73.16912841796872], [-20.100341796874986, -73.15319061279291], [-20.081054687499993, -73.14443969726558], [-20.06906127929687, -73.1349182128906], [-20.050140380859368, -73.12973022460935], [-20.048461914062514, -73.12509918212889], [-20.033203125, -73.11952972412107], [-20.03152465820313, -73.11489868164058], [-20.022216796875004, -73.10749816894528], [-20.01791381835937, -73.10076904296872], [-20.001708984375004, -73.09768676757808], [-19.98745727539062, -73.08959960937497], [-19.948791503906254, -73.08170318603513], [-19.927032470703125, -73.07083129882808], [-19.9058837890625, -73.06706237792963], [-19.863067626953125, -73.05241394042966], [-19.857513427734375, -73.04462432861324], [-19.862152099609368, -73.04173278808588], [-19.85821533203125, -73.03855133056635], [-19.86154174804687, -73.03460693359374], [-19.866180419921868, -73.03172302246091], [-19.862243652343757, -73.0285491943359], [-19.876129150390625, -73.01989746093744], [-19.87945556640625, -73.01595306396482], [-19.885101318359382, -73.01057434082027], [-19.884460449218757, -73.00344085693355], [-19.89373779296875, -72.99768066406247], [-19.88424682617187, -72.98670959472653], [-19.83673095703125, -72.97137451171871], [-19.819488525390614, -72.95404815673825], [-19.764434814453114, -72.94908905029295], [-19.757934570312504, -72.94377899169919], [-19.740905761718746, -72.94317626953121], [-19.712493896484375, -72.93659973144531], [-19.698272705078118, -72.9249420166015], [-19.700232467906414, -72.91923888795384], [-19.69275566126578, -72.91643890016084], [-19.694800339000157, -72.9114492761374], [-19.685004196422046, -72.91008361451632], [-19.676001510875146, -72.90264495484833], [-19.657446823375157, -72.89742644898897], [-19.65228935267203, -72.89319213502412], [-19.65213012695312, -72.89032745361324], [-19.67772195198698, -72.8816696221324], [-19.577695492321112, -72.84131141468468], [-19.544858578258612, -72.83759589954796], [-19.525144222789862, -72.8313016490597], [-19.49047625403987, -72.83612342640343], [-19.458951595836748, -72.83343787952845], [-19.38501992705288, -72.84235511042334], [-19.334312021346538, -72.83501520227244], [-19.275013128251388, -72.8319308075833], [-19.166965084335306, -72.84782578759584], [-19.179205608636952, -72.86239196749419], [-19.118047433065804, -72.91950827662167], [-19.11416036434326, -72.85598969228433], [-19.099973368801667, -72.84993321765606], [-19.130221355708052, -72.8376327575713], [-19.19223284655334, -72.82225988173376], [-19.25221000960658, -72.81819519718431], [-19.297519671926867, -72.81395484115167], [-19.34327188017789, -72.8073133013413], [-19.347856833995042, -72.80276696920832], [-19.364758311786684, -72.79946557576534], [-19.37994148110745, -72.7858149521681], [-19.379618315724763, -72.7701047442124], [-19.35442382844, -72.75860402267782], [-19.35334268095913, -72.75136695124364], [-19.32984414580289, -72.7383130572007], [-19.30189004424038, -72.73169074274755], [-19.293100981740377, -72.72424445368505], [-19.296488432912255, -72.72030768610692], [-19.292765288381013, -72.7171262285874], [-19.283091216115384, -72.71574530817722], [-19.279307036427873, -72.71255622126316], [-19.249679092213988, -72.70443535900384], [-19.217383133934227, -72.6943007291663], [-19.199169443924585, -72.68621763452403], [-19.15690299499166, -72.67881401193785], [-19.112255778194786, -72.66793449533627], [-19.071166992187504, -72.65849304199216], [-19.03402709960937, -72.65399169921871], [-18.96204934377656, -72.64769271016833], [-18.892852783203125, -72.63872528076166], [-18.862823486328136, -72.62989807128902], [-18.78250912447773, -72.62387514441937], [-18.742762260913747, -72.61868472189197], [-18.685712433123943, -72.61181334393531], [-18.600494384765625, -72.6018371582031], [-18.555666507607697, -72.59513391318356], [-18.51247175403211, -72.5947343432553], [-18.476806640625, -72.5940780639648], [-18.430329067672584, -72.58861650082073], [-18.315405910507785, -72.58920707386308], [-18.20449829101563, -72.59856414794919], [-18.181962685926788, -72.59511116062278], [-18.183044433593754, -72.60424041748043], [-18.187713623046875, -72.60850524902341], [-18.175781249999993, -72.61205291748043], [-18.172283918627826, -72.60681593444444], [-18.137107496258942, -72.60897805355087], [-18.133534300672327, -72.61556582585065], [-18.133473265516084, -72.61912875309675], [-18.12740026746919, -72.62446169987408], [-18.109791624891084, -72.61197238102643], [-18.071736204969202, -72.60975985661237], [-18.074093987590263, -72.61448989594548], [-18.08880567481785, -72.6197364611279], [-18.087941038953574, -72.63185458317487], [-18.089428940787496, -72.64088372037652], [-18.070780591497318, -72.65206070514436], [-18.047413695203577, -72.63107638493268], [-18.032093870984824, -72.6242709650108], [-18.01060949598483, -72.62635378971781], [-18.005757201062945, -72.62919192448345], [-18.007984984266074, -72.63489871159285], [-18.007893431531702, -72.63844638004986], [-18.031239378797334, -72.65985446110454], [-18.028736937391066, -72.66483645573346], [-18.00600134168795, -72.66585116520613], [-17.992024290906716, -72.65300326481551], [-17.97658239637544, -72.64976840153423], [-17.938883473554803, -72.65744860240774], [-17.951181454403905, -72.68266177432741], [-17.893371582031254, -72.66197967529293], [-17.91388107591703, -72.66422701141977], [-17.901502162338623, -72.65063334354608], [-17.841395693433334, -72.64484994033839], [-17.890687641003684, -72.6867578003486], [-17.8170075091959, -72.67036665309008], [-17.85715488571905, -72.70099124514522], [-17.79389333982241, -72.68864162688959], [-17.81729252362083, -72.71087150483939], [-17.771329770255406, -72.70944263338387], [-17.747792567359426, -72.73114121741526], [-17.685790525867542, -72.73982716352981], [-17.69122399111413, -72.70601616056608], [-17.6563692094684, -72.70373365777249], [-17.696659115777113, -72.69654939006989], [-17.70222782589748, -72.6868499436104], [-17.6805173670915, -72.68543620084336], [-17.641136946310635, -72.68497053177445], [-17.6201197440792, -72.68436944124777], [-17.618880569717206, -72.68116766987269], [-17.65413173274656, -72.67492203011092], [-17.685700209186262, -72.6661533462563], [-17.721562935107684, -72.65920741910433], [-17.722615464220812, -72.65398632563127], [-17.63018139055791, -72.6585970961467], [-17.639528877299206, -72.65400243270393], [-17.701658590488677, -72.64099031633427], [-17.602626730846048, -72.64461958029811], [-17.562941782039413, -72.64571374862963], [-17.510574666827758, -72.64050636787614], [-17.561773064463253, -72.63932852426538], [-17.601611377176475, -72.63663578216683], [-17.730346679687504, -72.6208877563476], [-17.737784688378476, -72.61316057700917], [-17.697849690250404, -72.61368578769687], [-17.63284301757812, -72.61838531494136], [-17.62942504882812, -72.61515808105464], [-17.6380615234375, -72.60842895507807], [-17.62839650833521, -72.59337057557988], [-17.62549751124354, -72.58885385233545], [-17.650706622725817, -72.58262443692354], [-17.60579798267052, -72.58243008077245], [-17.597680306889274, -72.57848568379981], [-17.63506366275423, -72.57115263098152], [-17.612700727387868, -72.56756651427216], [-17.585062317288354, -72.56487673585717], [-17.623797988226695, -72.56238669902552], [-17.623687116426556, -72.5590265931225], [-17.5823299650924, -72.5527975124131], [-17.558617806889266, -72.55269070088964], [-17.552972054936145, -72.54732723653417], [-17.55785486743613, -72.54450436055761], [-17.56064007832849, -72.54139789621551], [-17.549767709233016, -72.54055233419041], [-17.540953521972593, -72.53609070164555], [-17.549102914234638, -72.53029335522338], [-17.529286946154805, -72.52770405057798], [-17.50073537005347, -72.51861534503355], [-17.428349449579326, -72.51483555125412], [-17.373311691501645, -72.51176718288804], [-17.321573243832088, -72.50795694556545], [-17.290344238281243, -72.50561523437496], [-17.249769789158577, -72.50548013217066], [-17.185697971127695, -72.4973015415294], [-17.156126645057505, -72.49946497454908], [-17.123168945312507, -72.49529266357416], [-17.099481700818274, -72.4927088866161], [-17.07549719153423, -72.49433469409469], [-17.05462082870575, -72.49218069584404], [-17.006341221793758, -72.48998888392902], [-16.963782095721324, -72.49255934448365], [-16.814721876063825, -72.49555618902595], [-16.800598144531254, -72.49314117431635], [-16.76855125780915, -72.48829376098281], [-16.724469921793432, -72.48848780456471], [-16.68679809570312, -72.48465728759761], [-16.66351778219386, -72.48281093259152], [-16.6410651464976, -72.48308531773687], [-16.594988389345033, -72.48144259570604], [-16.549679492242205, -72.48796367190796], [-16.53854370117188, -72.50032043457028], [-16.540283203125004, -72.50604248046871], [-16.53988647460937, -72.50959014892574], [-16.53948974609376, -72.51314544677732], [-16.54229736328125, -72.51993560791011], [-16.53571557955893, -72.52405155894286], [-16.533268248168227, -72.52773617103257], [-16.52649468264771, -72.53037153389705], [-16.518882751464844, -72.55669403076169], [-16.52091979980469, -72.58081054687497], [-16.485391616821293, -72.62695312499994], [-16.461139678955075, -72.65619659423821], [-16.42895889282226, -72.67117309570308], [-16.413864135742188, -72.67810821533199], [-16.373277664184574, -72.69100189208982], [-16.34912681579589, -72.70152282714841], [-16.31951141357422, -72.70970916748044], [-16.276832580566406, -72.70781707763666], [-16.252000808715827, -72.70809936523433], [-16.216434478759766, -72.71025085449213], [-16.170871734619148, -72.7085800170898], [-16.13476562500001, -72.7004928588867], [-16.10775947570801, -72.68882751464841], [-16.11058807373047, -72.68205261230464], [-16.10456275939942, -72.65644836425777], [-16.108606338500977, -72.64770507812496], [-16.14276695251465, -72.64102935791011], [-16.164077758789062, -72.63079071044918], [-16.156154632568352, -72.60651397705074], [-16.174581527709954, -72.59978485107416], [-16.18807983398437, -72.59441375732419], [-16.18103408813477, -72.59036254882808], [-16.180528640747063, -72.58341217041011], [-16.18520927429199, -72.58020782470699], [-16.19461250305176, -72.57705688476558], [-16.19780731201172, -72.57070922851557], [-16.19710922241211, -72.56517791748041], [-16.206087112426747, -72.56159210205074], [-16.235933303833004, -72.54265594482416], [-16.234445571899407, -72.53952026367183], [-16.22782707214355, -72.53590393066402], [-16.236726760864258, -72.52906036376949], [-16.25199890136719, -72.52398681640622], [-16.25617408752441, -72.51708984374996], [-16.276950836181637, -72.4905395507812], [-16.31348609924316, -72.46912384033199], [-16.348485946655273, -72.45576477050776], [-16.33027051770033, -72.45161772587737], [-16.347387838439936, -72.44739016740458], [-16.329171321535703, -72.44499443616355], [-16.358444738100502, -72.44087608251274], [-16.346066421516237, -72.43787743823395], [-16.36410956553217, -72.43089913156102], [-16.390736969216803, -72.42906085032145], [-16.395276463536742, -72.42382239978829], [-16.40374023024558, -72.41635726131788], [-16.406210619595047, -72.4101053788265], [-16.394633948379862, -72.40094837443984], [-16.37136797601514, -72.39300836720692], [-16.33360275136257, -72.38284675253568], [-16.27921997087266, -72.37308252735505], [-16.20968620366321, -72.36721381162944], [-16.180339721558983, -72.36265569490631], [-16.127842080759777, -72.35709377124073], [-16.108318168095916, -72.35686481046214], [-16.0665030778702, -72.35391095933511], [-16.05740356445313, -72.35182952880852], [-16.022188396385996, -72.34671882104145], [-16.014099121093743, -72.34273529052729], [-15.957092285156252, -72.33132171630855], [-15.941833496093755, -72.33147430419918], [-15.930664062500005, -72.32777404785153], [-15.912894203315284, -72.31973535768735], [-15.89667210436629, -72.31815368997812], [-15.880660667700962, -72.31607656758763], [-15.865140281033531, -72.3072781869609], [-15.83684405161697, -72.30256237366493], [-15.789789979515282, -72.30232968821295], [-15.781824345465148, -72.29579929304596], [-15.770513455090807, -72.29116979182643], [-15.75580447826366, -72.29121253826716], [-15.733825683593754, -72.28980255126949], [-15.7204569198173, -72.2829443093433], [-15.680718106852277, -72.28149840417396], [-15.624041511471857, -72.28401827411618], [-15.53829956054688, -72.27728271484371], [-15.512420654296871, -72.27831268310544], [-15.507476806640625, -72.27289581298822], [-15.501677993262351, -72.26657966952645], [-15.482269287109373, -72.24937438964838], [-15.481872558593743, -72.24472808837885], [-15.469783942924549, -72.23556481759022], [-15.46007158584372, -72.22850791832727], [-15.450649795771886, -72.2236604839598], [-15.437011972921391, -72.21353783981398], [-15.462242100965522, -72.22151979747827], [-15.473658910700738, -72.22002173153383], [-15.47387603276194, -72.21528136100719], [-15.465329238757594, -72.21077258491533], [-15.451953282181117, -72.20235094372286], [-15.429389077606832, -72.19861060972877], [-15.38641030277617, -72.19601273013708], [-15.37069702148437, -72.1934738159179], [-15.355069462573454, -72.18931590126562], [-15.336806527815515, -72.18678620910806], [-15.306273867032441, -72.18634717175517], [-15.326923899281557, -72.17827023503588], [-15.343214417415155, -72.17223932212292], [-15.361322403716738, -72.16544138730177], [-15.375224851147264, -72.16256103529385], [-15.282349878950422, -72.16276629633674], [-15.250578043640585, -72.16245876012734], [-15.219842083579758, -72.15843979962477], [-15.191947492176258, -72.1600211931072], [-15.183044433593752, -72.15790557861322], [-15.199959530221552, -72.15441235121791], [-15.17925821382209, -72.14981695170984], [-15.147064208984379, -72.1515808105468], [-15.14227294921875, -72.14615631103507], [-15.130267822642901, -72.14480090507715], [-15.112673360670351, -72.14250653668229], [-15.091761823207383, -72.13823293171846], [-15.063600813632123, -72.13276525307764], [-15.050551406959833, -72.13089400568266], [-15.038635253906254, -72.13610839843744], [-15.034497924467857, -72.13175825778852], [-15.001969175810315, -72.12721636604437], [-14.977388591537421, -72.12381431452135], [-14.940696004466838, -72.12080391074987], [-14.915272061593335, -72.11768136366828], [-14.837918185851773, -72.11506674788271], [-14.794256553247225, -72.1077489979251], [-14.782953283623321, -72.10841391685366], [-14.746562466722686, -72.10950350479814], [-14.704527850920089, -72.1009805326309], [-14.704648372645755, -72.09260363705887], [-14.691281673427012, -72.0902003777815], [-14.677762386317639, -72.08315081723462], [-14.63766228866139, -72.07592578061352], [-14.50257591002655, -72.06414182615461], [-14.441821825628299, -72.05663560822748], [-14.407036702384298, -72.05006743994115], [-14.36946085570431, -72.05156511328413], [-14.308370303630905, -72.0520636969474], [-14.288986159513982, -72.05374372692027], [-14.272262526701477, -72.0608543226234], [-14.225418044279605, -72.06335676402965], [-14.149215941686471, -72.05329894236813], [-14.108499664503906, -72.0539740510505], [-14.072538229205113, -72.05259347420949], [-14.002509061290093, -72.03846193603472], [-13.99899953980571, -72.0341131811519], [-14.00519460816509, -72.02783418945268], [-14.002539578868216, -72.02457643798785], [-13.95198116788785, -72.02074537542643], [-13.905077259578325, -72.01461086863783], [-13.833846370025345, -72.00732154497172], [-13.808084453194255, -71.99889808577055], [-13.793593929531774, -71.99810570573891], [-13.719436210002106, -71.99070352180988], [-13.648170768420163, -71.98496813136792], [-13.600365021127622, -71.98085540966228], [-13.464636738450631, -71.96816782713425], [-13.424563950233324, -71.96582718691143], [-13.402458460733289, -71.96423236645553], [-13.369620109842625, -71.96871927843543], [-13.326377421518481, -71.97097119470185], [-13.315783656223072, -71.97536827920312], [-13.31426284468919, -71.98241145640719], [-13.310652044025424, -71.98582959205669], [-13.328108098712923, -71.98916363746682], [-13.402797643843785, -72.00107981997284], [-13.327924993244176, -71.99380230934182], [-13.303011003902075, -71.99508075883837], [-13.289045598712923, -71.99664044410744], [-13.279153183027246, -71.99867246754663], [-13.282274648755482, -72.00244500433456], [-13.290614451899799, -72.0049123676884], [-13.330805407988581, -72.01117203892971], [-13.350248136388114, -72.01533136751425], [-13.320467119670836, -72.01425244496572], [-13.28582820277255, -72.00972949489189], [-13.271513651878575, -72.00761346791718], [-13.258634166182807, -72.0067124073772], [-13.251814896074023, -72.01077332296431], [-13.25096480941134, -72.01788062516074], [-13.252995006372048, -72.02119560127464], [-13.256762541983306, -72.0238464906114], [-13.254170289021, -72.02795004214701], [-13.252210881916044, -72.03164410621682], [-13.234510686603555, -72.03292584449808], [-13.206298828125, -72.03120422363277], [-13.166795193027003, -72.0279098335282], [-13.131029028755473, -72.02194658218417], [-13.083465576171875, -72.01699066162104], [-12.99659030249473, -72.01559584159348], [-12.967435780164381, -72.01120185186467], [-12.94698900282063, -72.01381110479436], [-12.928515065268725, -72.01415322697304], [-12.928012847900398, -72.0185928344726], [-12.937659234735097, -72.02632313421398], [-12.94625547464069, -72.03321188046246], [-12.95350890209155, -72.040102480567], [-12.959108645338167, -72.04544208397374], [-12.967036247253418, -72.05300140380852], [-12.967298955166449, -72.05641734977647], [-12.966200551514724, -72.05995422051662], [-12.965101707796512, -72.06349111791253], [-12.964820603373589, -72.06812299877834], [-12.963720974474112, -72.07165996455035], [-12.9626209047268, -72.07519695694751], [-12.962338962362212, -72.07982897764118], [-12.95412345746847, -72.08386995136685], [-12.953020700812822, -72.08740700126357], [-12.947540338099298, -72.09010079895589], [-12.94643587068663, -72.09363786813003], [-12.942573978089628, -72.09850185319407], [-12.939579010009767, -72.10407257080072], [-12.930019163088387, -72.11181347068316], [-12.925343638804641, -72.11559938542386], [-12.923614807741764, -72.11830873507812], [-12.91775268653752, -72.12174601120097], [-12.917008002667133, -72.12453906963201], [-12.911309779662782, -72.12696302957788], [-12.910396517898413, -72.13076927250728], [-12.893005371093746, -72.1417846679687], [-12.883862257295332, -72.14555273368029], [-12.872674598671297, -72.15071181963127], [-12.861739177968628, -72.15467011081064], [-12.854073524475096, -72.1578292846679], [-12.828236745028136, -72.16172733391343], [-12.81878481623052, -72.16419114656553], [-12.806574607712019, -72.16801002277239], [-12.79112674129583, -72.17254284111353], [-12.782016554120922, -72.17548115858911], [-12.766555767034017, -72.18001203645008], [-12.755916479853713, -72.18244591685301], [-12.743611748417079, -72.18461323298816], [-12.711342685013227, -72.19189931808994], [-12.676552264051358, -72.19848027999872], [-12.658835281557732, -72.20242769023332], [-12.611410184302493, -72.20452716185818], [-12.585082160683474, -72.19941650745612], [-12.57938687172822, -72.19677014130428], [-12.552162344362399, -72.18917581081546], [-12.531495094299311, -72.1834106445312], [-12.510570526123056, -72.1793365478515], [-12.500627814920156, -72.17638184762176], [-12.491874944641173, -72.17467363948246], [-12.48790790640433, -72.16918709310973], [-12.48897075653076, -72.16292572021477], [-12.487147718493693, -72.157739025557], [-12.488340327607167, -72.15419328752049], [-12.491798732453315, -72.1513909995528], [-12.500259399414064, -72.13511657714841], [-12.521588721251455, -72.12753366789855], [-12.52755821783388, -72.12542228292314], [-12.541280746459964, -72.12062835693355], [-12.55248832702637, -72.1134414672851], [-12.56104136070964, -72.10957252257803], [-12.566947376396506, -72.10738736956276], [-12.58313108881906, -72.10333750382783], [-12.584369791078085, -72.10043565513415], [-12.589908771360033, -72.09775252730519], [-12.597536316301916, -72.09454529958009], [-12.600184983109795, -72.0912892290414], [-12.604476641714053, -72.0885334257461], [-12.608827241026253, -72.08258739310736], [-12.610031326213125, -72.07909748478298], [-12.613347844551942, -72.07640901303098], [-12.627224824028403, -72.07188925182389], [-12.635884033842277, -72.0683776694778], [-12.650291397593616, -72.0625008829073], [-12.656060298407398, -72.06016172125379], [-12.665066476747064, -72.0574657673748], [-12.671192436119437, -72.0552957879193], [-12.67702638885932, -72.0530522102153], [-12.687940339994865, -72.04703551608466], [-12.694380982251758, -72.04101830918424], [-12.70458603201623, -72.03455023133002], [-12.713636492919179, -72.03161678226655], [-12.748013327942237, -72.02039546781052], [-12.771403778631527, -72.01341848457382], [-12.786516040131902, -72.00950137501657], [-12.793021180963148, -72.00763676832537], [-12.802043233386751, -72.00469922162522], [-12.815411123665468, -72.00260754555978], [-12.826285809451601, -72.00129987914308], [-12.839368521407662, -71.9953232647252], [-12.83592596647655, -71.99064385601879], [-12.855316162109373, -71.98596954345696], [-12.852874755859379, -71.98267364501945], [-12.827526577109198, -71.97411448173273], [-12.840950659628339, -71.97673955830281], [-12.860601546268116, -71.9769313013521], [-12.880676269531252, -71.97496032714837], [-12.893599204410771, -71.97169911680157], [-12.900663017168126, -71.96991650476595], [-12.91160338009553, -71.96715561297873], [-12.918988634001774, -71.96201340106467], [-12.911694932829903, -71.95217148211935], [-12.884111163638229, -71.94268319901359], [-12.860996702877818, -71.93548318616756], [-12.783843797419875, -71.91867324026725], [-12.749127302613221, -71.9110541145726], [-12.728295683773275, -71.90584345490406], [-12.645557799946943, -71.89068109052174], [-12.618091979634443, -71.88338738934985], [-12.598300892149066, -71.87679087210843], [-12.567524352681312, -71.86964684979908], [-12.564381042134436, -71.86525994794361], [-12.578449645650068, -71.86428338544361], [-12.62565105538338, -71.87556051104535], [-12.682886229585908, -71.88407967613652], [-12.75408459560232, -71.89343618472009], [-12.790212271211107, -71.89694314431394], [-12.847994354290417, -71.9033115775912], [-12.899107325763818, -71.90697557774867], [-12.908994348602844, -71.90966041097417], [-12.92712129048555, -71.91312161231808], [-12.955945977126984, -71.91928919903107], [-12.971587902185597, -71.92269952058585], [-12.977020031091845, -71.92000634431632], [-12.97085124865268, -71.91136941484541], [-12.963684610813992, -71.90665871461377], [-12.958370845541257, -71.90151460144412], [-12.978276687043902, -71.89601492107707], [-12.968383556482475, -71.88835198640616], [-12.959991455078121, -71.88632965087885], [-12.932403564453123, -71.87909698486321], [-12.923248291015634, -71.87168884277338], [-12.893005371093746, -71.86577606201165], [-12.846270994731904, -71.86275994660338], [-12.814967645506124, -71.85855465396459], [-12.760411525394073, -71.85667897531728], [-12.745092138574911, -71.84847099354197], [-12.734681037408611, -71.84185190232927], [-12.690080591544369, -71.83428249396589], [-12.670593261718754, -71.83428192138668], [-12.656909875415002, -71.83064633791192], [-12.644794396899378, -71.82919675295099], [-12.626712956965461, -71.82416834529741], [-12.604314387990016, -71.81798439898732], [-12.592980127282347, -71.81210319530219], [-12.576345543840548, -71.80528084723194], [-12.564331054687498, -71.79914855957024], [-12.550924803845668, -71.79478798537274], [-12.546124784038613, -71.78975704613083], [-12.524181467109099, -71.78683249463313], [-12.517453396494481, -71.78353070384829], [-12.510140102753011, -71.7787641851191], [-12.490526267605603, -71.77529249051008], [-12.462350647704929, -71.77455606294437], [-12.441485788362437, -71.77316568080674], [-12.404127018467921, -71.76493342399672], [-12.369930036774763, -71.7615332848226], [-12.31503530110566, -71.75227855681788], [-12.281683312593241, -71.74745334761974], [-12.25991199681972, -71.74177735623947], [-12.210263659475535, -71.74435541990252], [-12.178537931884192, -71.74108761372707], [-12.141579371521065, -71.73803225476135], [-12.10674140063616, -71.72557240485295], [-12.103750677979908, -71.72118550299749], [-12.094503851808032, -71.71836262702092], [-12.086233588136153, -71.70629292487249], [-12.057544037658785, -71.69649800447391], [-12.037946868633755, -71.6809667611491], [-12.028069764896864, -71.67062498028976], [-12.024653390510213, -71.66559139963921], [-11.954527854919432, -71.6819992065429], [-11.860747337341305, -71.69597625732416], [-11.784608840942386, -71.70167541503898], [-11.750103950500485, -71.70552825927729], [-11.71163368225098, -71.71990203857416], [-11.673562049865716, -71.72945404052727], [-11.521165847778322, -71.75682830810543], [-11.453368186950692, -71.76570129394524], [-11.367975234985357, -71.76882171630852], [-11.312523841857908, -71.76637268066399], [-11.177081108093258, -71.7547531127929], [-11.139451026916507, -71.75389099121088], [-11.108399391174315, -71.75306701660148], [-11.05247974395752, -71.7403259277343], [-11.019529342651367, -71.73756408691399], [-10.973754882812498, -71.74103546142571], [-10.93893909454346, -71.74109649658196], [-10.918700218200682, -71.74596405029288], [-10.899149894714354, -71.75078582763665], [-10.876291275024405, -71.77629089355462], [-10.876367568969732, -71.78471374511714], [-10.8563117980957, -71.8018493652343], [-10.854348182678219, -71.81288909912102], [-10.867151260375978, -71.82305145263665], [-10.899187088012694, -71.8347854614257], [-10.913058280944824, -71.84306335449212], [-10.954202651977537, -71.85993957519524], [-10.95527172088623, -71.86283874511713], [-10.944677352905268, -71.86461639404291], [-10.897791862487795, -71.85263061523432], [-10.88110256195068, -71.85044097900386], [-10.866878509521488, -71.85106658935541], [-10.860481262207031, -71.8537292480468], [-10.858011245727536, -71.85683441162102], [-10.856108665466316, -71.85968017578121], [-10.856157302856445, -71.86331939697257], [-10.886657714843755, -71.87720489501946], [-10.896812438964844, -71.88889312744135], [-10.89176368713379, -71.89374542236322], [-10.90331268310547, -71.9005737304687], [-10.909183502197267, -71.90295410156244], [-10.902837753295898, -71.91517639160148], [-10.890359878540037, -71.92343902587885], [-10.87370491027832, -71.93444824218744], [-10.866485595703127, -71.94057464599604], [-10.87532615661621, -71.954849243164], [-10.892971038818365, -71.98681640624994], [-10.906254768371582, -72.0010604858398], [-10.92114448547363, -72.0142974853515], [-10.955190658569336, -72.02980804443352], [-10.96412181854248, -72.03815460205071], [-10.972393035888675, -72.0442733764648], [-10.988087654113768, -72.0492553710937], [-11.00521659851074, -72.05415344238276], [-11.038754463195795, -72.05692291259759], [-11.06007194519043, -72.05905914306632], [-11.077059745788576, -72.06601715087886], [-11.072925567626953, -72.07698059082024], [-11.062059402465822, -72.0796813964843], [-11.041656494140627, -72.08136749267572], [-11.036871910095215, -72.08666992187494], [-11.055189132690428, -72.10152435302732], [-11.057742118835446, -72.11254119873041], [-11.055031776428224, -72.12227630615227], [-11.06657505035401, -72.1345825195312], [-11.084170341491706, -72.14469909667963], [-11.087085723876958, -72.15158843994135], [-11.081705093383793, -72.15829467773432], [-11.108314514160151, -72.17197418212885], [-11.112383842468262, -72.17948150634759], [-11.129404067993164, -72.19670104980463], [-11.153994560241696, -72.20594024658197], [-11.157232284545891, -72.21327209472648], [-11.155613899230957, -72.21770477294915], [-11.16833019256592, -72.22583770751946], [-11.17188835144043, -72.2301864624023], [-11.228563308715819, -72.25071716308588], [-11.242508888244632, -72.2537460327148], [-11.264506340026855, -72.26222991943355], [-11.259162902832026, -72.26779937744135], [-11.258722305297855, -72.27056884765621], [-11.3046703338623, -72.28923034667963], [-11.319814682006832, -72.29401397705075], [-11.322847366333008, -72.29862213134761], [-11.31924247741699, -72.30226898193352], [-11.334122657775875, -72.31346130371087], [-11.326903343200687, -72.31504058837886], [-11.311305999755863, -72.31188201904291], [-11.304377555847168, -72.30134582519527], [-11.30077266693115, -72.29699707031243], [-11.268897056579588, -72.29299926757808], [-11.239630699157718, -72.28952026367185], [-11.223917007446294, -72.28842163085935], [-11.18797779083252, -72.29309844970697], [-11.1835823059082, -72.30249023437496], [-11.180231094360352, -72.32619476318354], [-11.185368537902827, -72.33523559570307], [-11.202935218811032, -72.34719085693352], [-11.20169639587402, -72.36027526855462], [-11.20699214935303, -72.37068176269526], [-11.219114303588869, -72.37999725341794], [-11.267480850219728, -72.40082550048825], [-11.284741401672365, -72.40869140624994], [-11.300415992736816, -72.42212677001947], [-11.305207252502441, -72.43737030029291], [-11.323391914367678, -72.44312286376949], [-11.343336105346683, -72.44921874999997], [-11.385391235351562, -72.44758605957028], [-11.403302192687987, -72.44946289062494], [-11.504985809326174, -72.45764160156244], [-11.592902183532711, -72.46434020996088], [-11.72693061828613, -72.48275756835932], [-11.73947715759277, -72.48883819580072], [-11.801572799682614, -72.49729919433588], [-11.876306533813473, -72.50630950927729], [-12.051898002624515, -72.51779174804683], [-12.084629058837894, -72.52095031738277], [-12.135557174682617, -72.53141021728511], [-12.178709030151373, -72.53733062744139], [-12.217709541320797, -72.54167175292962], [-12.243911743164055, -72.55257415771479], [-12.323494911193846, -72.56112670898433], [-12.35806751251221, -72.56344604492183], [-12.423542976379398, -72.56303405761713], [-12.489480972290043, -72.57151031494135], [-12.521904945373537, -72.58220672607418], [-12.535127639770513, -72.58454132080074], [-12.593550682067873, -72.58683776855466], [-12.62779235839844, -72.60084533691402], [-12.778014183044434, -72.62792205810541], [-12.859365463256836, -72.6538696289062], [-12.878276824951168, -72.66246795654293], [-12.876185417175288, -72.68788909912104], [-12.895736694335946, -72.70127105712886], [-12.910678863525392, -72.7046203613281], [-12.937246322631827, -72.71200561523433], [-12.977671623229979, -72.72924041748043], [-13.022131919860842, -72.74160766601558], [-13.039411544799806, -72.74984741210933], [-13.087978363037113, -72.75939178466791], [-13.170038223266602, -72.79652404785152], [-13.210741996765142, -72.80567169189449], [-13.371192932128906, -72.83385467529297], [-13.498200416564941, -72.85186004638669], [-13.532086372375492, -72.84645843505855], [-13.563788414001468, -72.83936309814449], [-13.583269119262694, -72.82022094726558], [-13.606105804443361, -72.81189727783197], [-13.616022109985353, -72.80496215820308], [-13.628873825073244, -72.79781341552732], [-13.690942764282228, -72.78988647460932], [-13.777424812316895, -72.78986358642572], [-13.820219039916992, -72.78882598876947], [-13.858456611633304, -72.78419494628902], [-13.87852668762207, -72.77741241455075], [-13.901501655578615, -72.77227020263668], [-13.92096328735352, -72.76945495605464], [-13.936418533325195, -72.76092529296871], [-13.954407691955561, -72.75544738769528], [-13.961958885192871, -72.7468109130859], [-14.084229469299313, -72.7220306396484], [-14.129764556884764, -72.72163391113276], [-14.174350738525389, -72.7173690795898], [-14.200808525085446, -72.71191406249996], [-14.21926593780518, -72.71167755126949], [-14.240666389465334, -72.71307373046871], [-14.256215095520021, -72.71398162841794], [-14.312118530273434, -72.71205902099604], [-14.37413120269776, -72.70549011230464], [-14.387754440307614, -72.710464477539], [-14.407788276672363, -72.71564483642575], [-14.419321060180662, -72.72448730468746], [-14.415604591369634, -72.7300872802734], [-14.397099494934078, -72.73751831054683], [-14.380753517150875, -72.74385070800778], [-14.32500267028808, -72.74970245361325], [-14.31224822998047, -72.75390624999994], [-14.267217636108402, -72.7704925537109], [-14.2232551574707, -72.79206085205074], [-14.219685554504395, -72.80158233642574], [-14.229294776916506, -72.80641174316402], [-14.22628402709961, -72.81658172607416], [-14.223466873168947, -72.82788848876949], [-14.221507072448736, -72.83381652832028], [-14.151697158813473, -72.8547439575195], [-14.123568534851076, -72.86862182617185], [-14.11622333526611, -72.8756408691406], [-14.108879089355469, -72.88450622558591], [-14.100956916809086, -72.88902282714841], [-14.033728599548338, -72.89768218994136], [-13.999674797058105, -72.92236328124997], [-13.994105339050288, -72.92970275878902], [-13.978180885314938, -72.9304046630859], [-13.966317176818844, -72.9340438842773], [-13.9155912399292, -72.95783996582026], [-13.906988143920909, -72.96723937988278], [-13.894460678100584, -72.97853851318357], [-13.896774291992193, -72.99061584472653], [-13.912172317504881, -72.99388885498043], [-13.922780990600586, -72.99150085449217], [-13.933410644531248, -72.98542022705074], [-13.955883979797369, -72.98586273193355], [-13.971652030944831, -72.9914169311523], [-13.963433265686039, -73.00125885009763], [-13.95616054534912, -73.00571441650386], [-13.98206615447998, -73.04635620117186], [-14.015981674194336, -73.05821990966793], [-14.014286994934084, -73.07012939453122], [-14.009609222412106, -73.07671356201168], [-13.966436386108404, -73.08377075195311], [-13.949053764343262, -73.08480072021482], [-13.928128242492676, -73.08446502685543], [-13.907545089721687, -73.08825683593746], [-13.907280921936035, -73.09821319580074], [-13.93467807769775, -73.11357116699216], [-13.952355384826669, -73.1342544555664], [-13.960198402404789, -73.14062499999996], [-14.013627052307127, -73.1434631347656], [-14.026008605957031, -73.13470458984374], [-14.035380363464354, -73.13079071044919], [-14.065734863281254, -73.13089752197263], [-14.106752395629885, -73.12674713134761], [-14.11891651153564, -73.12424468994138], [-14.209321022033691, -73.11830902099607], [-14.228801727294927, -73.13515472412107], [-14.276222229003908, -73.148323059082], [-14.320449829101562, -73.14598083496091], [-14.360518455505375, -73.14254760742186], [-14.391678810119636, -73.13536834716795], [-14.40553569793702, -73.13479614257811], [-14.424331665039059, -73.13710021972652], [-14.449677467346191, -73.1386795043945], [-14.476305961608897, -73.13899993896483], [-14.491415977478031, -73.13624572753902], [-14.51193332672119, -73.12613677978513], [-14.556732177734371, -73.1030654907226], [-14.586702346801763, -73.09291839599607], [-14.603706359863288, -73.08166503906246], [-14.66600322723389, -73.07391357421872], [-14.721227645874023, -73.06806945800777], [-14.744261741638185, -73.06537628173824], [-14.791419982910151, -73.05154418945308], [-14.834442138671866, -73.0463714599609], [-14.86981296539307, -73.04154968261714], [-14.90065479278565, -73.03961944580075], [-14.916145324707038, -73.04003906249994], [-14.930548667907718, -73.04100799560545], [-14.945201873779302, -73.04311370849604], [-14.950057029724118, -73.04668426513668], [-14.940948486328134, -73.0506439208984], [-14.946548461914071, -73.05415344238277], [-14.987312316894531, -73.05259704589841], [-15.034042358398438, -73.04801177978513], [-15.063193321228024, -73.04595947265621], [-15.093595504760746, -73.04612731933588], [-15.11735916137695, -73.05029296874997], [-15.143317222595218, -73.05080413818357], [-15.161529541015625, -73.04982757568355], [-15.163707733154284, -73.04617309570308], [-15.19168472290039, -73.04627990722652], [-15.219994544982905, -73.04845428466791], [-15.234081268310554, -73.05244445800781], [-15.232255935668952, -73.05561065673827], [-15.219635009765621, -73.05917358398433], [-15.223947525024412, -73.06208038330075], [-15.236223220825194, -73.06668853759763], [-15.24202156066894, -73.07459259033197], [-15.2571496963501, -73.0796737670898], [-15.33745670318603, -73.09117889404291], [-15.402890205383306, -73.09106445312497], [-15.43424797058106, -73.09040832519527], [-15.461573600769043, -73.08634948730464], [-15.495361328124998, -73.08153533935544], [-15.537372589111326, -73.07697296142575], [-15.568503379821777, -73.08026885986328], [-15.629755020141605, -73.09741210937497], [-15.646180152893077, -73.10282897949214], [-15.818014144897466, -73.13117980957027], [-15.856387138366692, -73.13921356201168], [-15.889493942260739, -73.14511108398433], [-15.930578231811518, -73.16643524169918], [-15.959837913513189, -73.18221282958984], [-15.988105773925781, -73.20507812499999], [-16.003076553344723, -73.2185440063476], [-15.99893569946289, -73.22495269775386], [-15.994035720825199, -73.22815704345702], [-15.948246002197259, -73.24967956542964], [-15.952738761901854, -73.2574768066406], [-15.984857559204098, -73.27349853515621], [-15.996343612670906, -73.28422546386716], [-16.00259399414062, -73.29537963867183], [-16.00711250305176, -73.29991149902341], [-16.01088333129882, -73.30450439453121], [-16.061800003051758, -73.31640624999996], [-16.111234664916996, -73.33403778076169], [-16.125047683715817, -73.33966827392574], [-16.144290924072262, -73.3401718139648], [-16.16699981689454, -73.34249114990232], [-16.203563690185543, -73.35043334960935], [-16.23944664001464, -73.35445404052732], [-16.256641387939453, -73.3593292236328], [-16.26779747009277, -73.3630752563476], [-16.311868667602546, -73.37505340576169], [-16.331365585327145, -73.37973022460933], [-16.33476448059082, -73.3822555541992], [-16.352329254150387, -73.38662719726558], [-16.38009071350098, -73.38897705078121], [-16.399311065673835, -73.39016723632811], [-16.4200553894043, -73.39918518066403], [-16.4260025024414, -73.40335845947263], [-16.45182991027832, -73.41171264648435], [-16.47085380554199, -73.42930603027341], [-16.476379394531243, -73.43305206298825], [-16.48441696166992, -73.44080352783199], [-16.491235733032227, -73.44420623779294], [-16.52825164794923, -73.46004486083983], [-16.536775588989265, -73.4682235717773], [-16.54238891601563, -73.47360229492183], [-16.54281616210938, -73.47637939453122], [-16.56282806396485, -73.4868698120117], [-16.565290451049805, -73.50024414062499], [-16.567279815673825, -73.50686645507808], [-16.55472564697266, -73.51378631591795], [-16.55265617370606, -73.51653289794919], [-16.562227249145508, -73.52252197265624], [-16.576932907104496, -73.53182220458982], [-16.583145141601562, -73.54324340820311], [-16.597299575805668, -73.54884338378902], [-16.590967178344727, -73.55383300781247], [-16.597064971923825, -73.56198883056638], [-16.607666015625, -73.56812286376952], [-16.602102279663097, -73.57070159912108], [-16.61276626586913, -73.58081817626947], [-16.609014511108413, -73.5851135253906], [-16.611103057861335, -73.60673522949216], [-16.6070384979248, -73.62488555908199], [-16.606517791748054, -73.63617706298825], [-16.60992050170898, -73.64175415039058], [-16.62251853942871, -73.65756988525389], [-16.609830856323242, -73.67153167724608], [-16.595085144042976, -73.68120574951168], [-16.57085227966308, -73.68744659423825], [-16.530790328979492, -73.69688415527341], [-16.463350296020504, -73.7144393920898], [-16.429157257080078, -73.71844482421872], [-16.368869781494137, -73.71826934814449], [-16.30007743835448, -73.71151733398433], [-16.255315780639645, -73.71097564697263], [-16.223482131958008, -73.71404266357419], [-16.174324035644535, -73.71407318115233], [-16.100614547729492, -73.7226333618164], [-16.016498565673825, -73.73573303222653], [-15.96276378631592, -73.74028015136717], [-15.90105056762696, -73.75011444091795], [-15.847061157226559, -73.76515960693357], [-15.808356285095202, -73.78877258300778], [-15.813446044921873, -73.80121612548827], [-15.847543716430666, -73.81253051757811], [-15.88126182556152, -73.82013702392574], [-15.902617454528803, -73.8238143920898], [-15.911689758300781, -73.82776641845702], [-15.966296195983883, -73.8311309814453], [-16.00817108154296, -73.83106231689449], [-16.03210067749025, -73.83148956298827], [-16.06899833679199, -73.83226776123045], [-16.13588714599609, -73.8392868041992], [-16.18160438537599, -73.8428497314453], [-16.208232879638683, -73.84420776367186], [-16.239028930664062, -73.84873199462889], [-16.25501251220703, -73.85516357421872], [-16.303655624389645, -73.8622131347656], [-16.33009910583496, -73.86334228515622], [-16.341171264648438, -73.86665344238278], [-16.36738777160644, -73.8755187988281], [-16.38258361816407, -73.87873077392574], [-16.394132614135742, -73.87848663330074], [-16.422792434692383, -73.87450408935543], [-16.46334838867188, -73.8714141845703], [-16.488046646118185, -73.86610412597655], [-16.50030136108399, -73.86415100097658], [-16.51117706298827, -73.86091613769528], [-16.514934539794925, -73.8573226928711], [-16.52915382385254, -73.85169982910155], [-16.539047241210945, -73.85228729248045], [-16.553337097167976, -73.85462188720702], [-16.56118392944336, -73.85959625244136], [-16.55865287780762, -73.86590576171874], [-16.549581527709957, -73.87556457519528], [-16.52107048034668, -73.88283538818358], [-16.504608154296875, -73.88559722900389], [-16.46109390258789, -73.88753509521483], [-16.417930603027344, -73.88661956787108], [-16.389385223388672, -73.88754272460936], [-16.373123168945316, -73.89051055908202], [-16.359918594360344, -73.89158630371091], [-16.3459358215332, -73.89272308349607], [-16.32550621032716, -73.89415740966793], [-16.294479370117188, -73.89433288574216], [-16.26001930236817, -73.89525604248045], [-16.250041961669922, -73.8969955444336], [-16.24009323120117, -73.90037536621092], [-16.23546981811523, -73.91526031494138], [-16.227899551391598, -73.92172241210936], [-16.20270347595215, -73.92749786376952], [-16.071756362915036, -73.94290161132812], [-16.06183624267578, -73.94392395019527], [-16.03508949279785, -73.9490966796875], [-15.99793815612793, -73.95321655273436], [-15.963107109069828, -73.95223236083982], [-15.854067802429196, -73.94891357421874], [-15.722809791564941, -73.94189453124999], [-15.623030662536621, -73.93330383300781], [-15.530045509338379, -73.91622161865232], [-15.45300579071045, -73.89718627929688], [-15.351099014282214, -73.8765487670898], [-15.226222038269052, -73.85435485839841], [-15.07015132904053, -73.83748626708983], [-15.034206390380858, -73.83226776123045], [-14.908020019531252, -73.8251495361328], [-14.771860122680675, -73.81963348388669], [-14.726943016052248, -73.8206100463867], [-14.685509681701658, -73.82085418701169], [-14.67336940765381, -73.8203430175781], [-14.62183094024659, -73.81690216064449], [-14.593312263488778, -73.82292175292969], [-14.566349983215337, -73.82348632812497], [-14.515055656433114, -73.82115936279295], [-14.449896812438967, -73.82630920410152], [-14.419599533081051, -73.83498382568358], [-14.404882431030273, -73.8416061401367], [-14.386987686157228, -73.8556442260742], [-14.383016586303722, -73.86219024658203], [-14.38681697845459, -73.88349151611328], [-14.3989315032959, -73.89840698242185], [-14.413249015808114, -73.9057388305664], [-14.454666137695309, -73.91880035400388], [-14.476023674011229, -73.93003845214842], [-14.499267578125, -73.94416046142577], [-14.511783599853509, -73.94767761230469], [-14.548226356506342, -73.95342254638669], [-14.568659782409664, -73.95729064941403], [-14.618520736694327, -73.96740722656249], [-14.662205696105957, -73.97447967529294], [-14.69844150543213, -73.97720336914062], [-14.72159767150879, -73.9785461425781], [-14.784607887268065, -73.99163055419919], [-14.800466537475588, -73.99674987792966], [-14.82722854614258, -74.00619506835933], [-14.835345268249517, -74.01025390624999], [-14.85149669647217, -74.01651000976561], [-14.845053672790517, -74.02210235595702], [-14.846784591674805, -74.03266906738281], [-14.864561080932628, -74.04672241210936], [-14.94193744659423, -74.07154083251949], [-14.95581912994384, -74.07797241210932], [-14.99945449829101, -74.08966827392578], [-15.004009246826168, -74.09259033203124], [-15.111761093139652, -74.1209716796875], [-15.130175590515133, -74.13358306884766], [-15.137428283691392, -74.13747406005858], [-15.149447441101076, -74.14100646972656], [-15.199844360351548, -74.14798736572261], [-15.21903324127197, -74.15099334716793], [-15.303257942199707, -74.14820861816405], [-15.347615242004402, -74.14395141601561], [-15.376645088195803, -74.13803863525388], [-15.390180587768556, -74.13539123535156], [-15.405733108520506, -74.13305664062499], [-15.42363166809083, -74.13473510742186], [-15.435464859008786, -74.13547515869139], [-15.45210647583008, -74.13421630859374], [-15.462810516357429, -74.13130950927733], [-15.470562934875492, -74.12885284423825], [-15.483635902404785, -74.12576293945308], [-15.510728836059558, -74.12557220458982], [-15.544657707214355, -74.14050292968749], [-15.563924789428704, -74.15187072753903], [-15.561335563659666, -74.15603637695311], [-15.545520782470698, -74.15980529785153], [-15.541384696960446, -74.16665649414061], [-15.533186912536621, -74.17288208007811], [-15.509275436401365, -74.1737594604492], [-15.456899642944338, -74.17608642578124], [-15.371079444885257, -74.18510437011714], [-15.329600334167477, -74.19403839111324], [-15.28596591949463, -74.19915771484374], [-15.268017768859863, -74.2077178955078], [-15.261940002441408, -74.22472381591795], [-15.255993843078606, -74.23332214355469], [-15.25512313842773, -74.23758697509763], [-15.263692855834968, -74.24697113037108], [-15.2805576324463, -74.25691223144528], [-15.281654357910154, -74.26056671142577], [-15.279412269592282, -74.26772308349608], [-15.273160934448244, -74.27005767822264], [-15.267854690551758, -74.27417755126952], [-15.274046897888189, -74.28118133544919], [-15.274416923522953, -74.28582000732422], [-15.28267478942872, -74.3033981323242], [-15.286773681640613, -74.3117218017578], [-15.291008949279785, -74.31420898437497], [-15.307929992675785, -74.31388854980467], [-15.324850082397463, -74.31356811523436], [-15.33900165557861, -74.3139190673828], [-15.373039245605465, -74.32025146484371], [-15.410041809082024, -74.32099914550778], [-15.420024871826174, -74.32655334472652], [-15.416619300842285, -74.33590698242188], [-15.394101142883297, -74.34178924560545], [-15.38442420959473, -74.34670257568358], [-15.39216613769531, -74.35429382324214], [-15.40177917480469, -74.35778045654294], [-15.48329067230224, -74.35964202880858], [-15.560539245605472, -74.36319732666013], [-15.568048477172848, -74.3654327392578], [-15.615620613098143, -74.38124847412108], [-15.637108802795414, -74.39107513427734], [-15.681267738342282, -74.40013122558591], [-15.74571704864503, -74.40857696533203], [-15.769381523132322, -74.40958404541013], [-15.785592079162607, -74.40928649902342], [-15.828943252563487, -74.40668487548828], [-15.846203804016106, -74.40326690673825], [-15.965305328369135, -74.36885833740233], [-15.977446556091309, -74.3639450073242], [-15.984656333923343, -74.36011505126953], [-15.995299339294434, -74.35624694824216], [-16.066617965698235, -74.35071563720699], [-16.118602752685547, -74.35065460205077], [-16.138746261596676, -74.35001373291014], [-16.198215484619144, -74.34559631347655], [-16.261013031005877, -74.34347534179686], [-16.32849693298339, -74.34165954589841], [-16.386514663696286, -74.33354187011719], [-16.41029167175293, -74.3330612182617], [-16.436134338378906, -74.33287811279297], [-16.511144638061523, -74.32289886474608], [-16.566064834594727, -74.3128509521484], [-16.594465255737312, -74.30634307861328], [-16.610324859619148, -74.3034210205078], [-16.622198104858402, -74.30081939697264], [-16.641544342041016, -74.29948425292967], [-16.687221527099606, -74.30236053466795], [-16.70107078552246, -74.30546569824216], [-16.71245574951171, -74.30712127685544], [-16.747728347778324, -74.30683898925781], [-16.760068893432628, -74.30700683593749], [-16.758436203002926, -74.31723785400389], [-16.770196914672855, -74.32779693603516], [-16.779531478881854, -74.32914733886717], [-16.805604934692383, -74.32913970947264], [-16.866970062255856, -74.3264694213867], [-16.88881492614746, -74.32656097412108], [-16.918031692504886, -74.32933044433594], [-17.004209518432628, -74.32857513427733], [-17.093685150146484, -74.32916259765625], [-17.12856674194336, -74.32767486572266], [-17.143129348754893, -74.32669830322266], [-17.182918548584002, -74.32949829101562], [-17.203369140624993, -74.33061218261717], [-17.256202697753913, -74.33184051513672], [-17.298698425292965, -74.33769226074219], [-17.320056915283196, -74.34107971191405], [-17.340579986572266, -74.34146881103513], [-17.36572647094726, -74.33982086181638], [-17.392208099365227, -74.33781433105467], [-17.41243553161621, -74.33869934082028], [-17.437221527099624, -74.34649658203125], [-17.45862197875977, -74.34986877441405], [-17.552223205566406, -74.35889434814452], [-17.578088760375977, -74.38240814208984], [-17.603404998779304, -74.39794921874997], [-17.593997955322273, -74.41527557373045], [-17.59323883056641, -74.42430877685545], [-17.583753585815444, -74.42818450927733], [-17.573131561279304, -74.43333435058594], [-17.576009750366214, -74.43875885009767], [-17.58271217346191, -74.44219970703125], [-17.601448059082024, -74.44390869140624], [-17.618007659912106, -74.44674682617185], [-17.630029678344737, -74.45021057128906], [-17.632204055786133, -74.4542770385742], [-17.634126663208004, -74.45812988281249], [-17.625276478385725, -74.46139305535642], [-17.61195715620648, -74.46654699431608], [-17.652172088623054, -74.46126556396486], [-17.816659927368153, -74.43853759765624], [-18.04051971435546, -74.41908264160155], [-18.21358041799092, -74.408208728129], [-18.542224884033214, -74.4175338745117], [-18.944128335312563, -74.43412368933679], [-19.354045867919922, -74.44287872314452], [-19.984882354736328, -74.45281982421872], [-20.1788330078125, -74.47123718261716], [-20.293638229370114, -74.47139739990234], [-20.39368865563586, -74.45213123000818]], [[-17.40964910944052, -73.96017284791421], [-17.422206982541308, -73.96486215744127], [-17.44749141394309, -73.96800212089734], [-17.463349637298936, -73.97062556119198], [-17.47907921173387, -73.97948443083305], [-17.44835002515233, -73.98148677272427], [-17.40902234344077, -73.97733898598587], [-17.369756889171548, -73.96895868410795], [-17.33282776307871, -73.95548622298497], [-17.314685950743243, -73.94794451302643], [-17.29245555475876, -73.92676466542083], [-17.293200004186453, -73.92314737692212], [-17.299464480372073, -73.92016407114436], [-17.324009972108378, -73.92559532557856], [-17.327201263270847, -73.92842907017726], [-17.323265541705503, -73.93276705933943], [-17.33896857430768, -73.94384934405058], [-17.367773110346494, -73.95157816148095], [-17.396322974269452, -73.95621666384251], [-17.40964910944052, -73.96017284791421]], [[-10.987947121962078, -71.8840742882165], [-10.99111695723695, -71.87363771979746], [-11.00842055272064, -71.86415325186177], [-11.030743454086243, -71.86581274500094], [-11.035470052847703, -71.87336114499662], [-11.033100824229527, -71.88194324928972], [-11.028957492739087, -71.88460552794145], [-11.005419312978109, -71.88723668828214], [-11.002774650239614, -71.88920473746114], [-10.987947121962078, -71.8840742882165]], [[-11.142241241887891, -72.13102655479224], [-11.134361984392463, -72.12486607407276], [-11.141210415381682, -72.12022851152571], [-11.151808174141255, -72.11838026192176], [-11.170710159929088, -72.1172343771957], [-11.180885233584156, -72.12084066548933], [-11.177455217513646, -72.12466945925486], [-11.171011955139324, -72.12687063196819], [-11.169096673805328, -72.13000386114548], [-11.15508326808938, -72.13266305066752], [-11.142241241887891, -72.13102655479224]], [[-11.47087928797447, -72.3011564874783], [-11.492159125837421, -72.29138048948249], [-11.510061200726161, -72.28845860024374], [-11.522349693253535, -72.29494947481061], [-11.509811432039568, -72.29995767961901], [-11.492673394927587, -72.30404040453621], [-11.47087928797447, -72.3011564874783]], [[-17.685790525867542, -72.73982716352981], [-17.714785001457127, -72.74137178226565], [-17.728721509879442, -72.75047653180835], [-17.72619963331569, -72.75868930462147], [-17.711407881195434, -72.76223744023429], [-17.68026812782317, -72.76886247836822], [-17.642785632326433, -72.77056024811708], [-17.63241599590508, -72.76571333447738], [-17.62939607292038, -72.75710888752661], [-17.634480721262094, -72.74835357530691], [-17.643095542745005, -72.74386238563118], [-17.653197623924573, -72.74076261660832], [-17.685790525867542, -72.73982716352981]], [[-14.977157434863946, -72.5521101232474], [-14.979461943230694, -72.5467871898306], [-15.000755629612529, -72.54356468904922], [-15.02687612522049, -72.54236859411378], [-15.044065014597809, -72.5458196604675], [-15.05312828857583, -72.55143737495933], [-15.068885596546924, -72.55439821453147], [-15.087108481402897, -72.55897322665034], [-15.09655143924626, -72.56274562067647], [-15.097102391486754, -72.56784205534882], [-15.078511446227179, -72.57297304863755], [-15.043555393340258, -72.57337290893354], [-15.023218970131818, -72.57319567347776], [-14.987645999022766, -72.55821967342156], [-14.977157434863946, -72.5521101232474]], [[-14.48177542108958, -72.67317775762153], [-14.47136699782066, -72.66583474128585], [-14.479075187121557, -72.66071708134565], [-14.501062061358557, -72.65691097227328], [-14.519739446850865, -72.65396071303064], [-14.536375498123233, -72.65448477583408], [-14.566143930124014, -72.6573091305403], [-14.591352079294465, -72.65837128620888], [-14.607621472491036, -72.66193616486024], [-14.609224806637211, -72.66724407075037], [-14.608397779479205, -72.6709300348732], [-14.605219305952861, -72.67540221515557], [-14.596761499917926, -72.67847308248315], [-14.590159389621487, -72.68019232752118], [-14.580423785622934, -72.68064514840975], [-14.561616467591696, -72.67998905863097], [-14.530825421500499, -72.67603297586764], [-14.48177542108958, -72.67317775762153]], [[-14.657856897194849, -72.6845900206601], [-14.674188514369181, -72.68241135759834], [-14.680828489863199, -72.68189334298067], [-14.706281693935733, -72.68201888436106], [-14.730635592220965, -72.68434109489182], [-14.744162982100784, -72.68932154768568], [-14.745761286698833, -72.69342452504681], [-14.724932160258172, -72.69626304859476], [-14.697356737247985, -72.69720983617077], [-14.67658271317671, -72.69550899409454], [-14.657856897194849, -72.6845900206601]], [[-14.503704395459476, -72.7101038838172], [-14.492164410881177, -72.70616436767436], [-14.492837107200412, -72.70460425393986], [-14.502555767017249, -72.70295161152949], [-14.51776241161039, -72.70178072613652], [-14.533248405615652, -72.7020955893357], [-14.54718933145847, -72.70645132154284], [-14.561915403282276, -72.71285843974205], [-14.561038816624515, -72.71534037371352], [-14.543499188380817, -72.71850449395416], [-14.527012155139452, -72.71705944383201], [-14.503704395459476, -72.7101038838172]], [[-14.497820771651554, -72.69517053696048], [-14.487210303991981, -72.68995356614282], [-14.487914696876572, -72.68959771940486], [-14.490977425907559, -72.68845708492836], [-14.502160770028391, -72.68850117106629], [-14.510037133537804, -72.6894028466449], [-14.519144074111201, -72.69171791007012], [-14.51780438835705, -72.69483822217798], [-14.497820771651554, -72.69517053696048]], [[-12.607251884762178, -72.56962316715881], [-12.608177653473584, -72.56417568047269], [-12.61494301664425, -72.5652178291284], [-12.627510284981957, -72.56467337760962], [-12.642518953983263, -72.56605847782423], [-12.65341831577777, -72.56861689493759], [-12.644571546039813, -72.57280283905587], [-12.607251884762178, -72.56962316715881]], [[-12.748929651763358, -72.59329714403958], [-12.759663838469978, -72.58897718662396], [-12.767399348919747, -72.58994950851344], [-12.777901013359298, -72.59193142833354], [-12.786846559489783, -72.59581519607985], [-12.80224106733001, -72.59896102922788], [-12.830963864683437, -72.60119826382198], [-12.855019116877365, -72.60255238821121], [-12.86186688305719, -72.60627798841574], [-12.85166526390809, -72.60996952789203], [-12.817948568582196, -72.60777459595377], [-12.789087963794726, -72.60404693333314], [-12.748929651763358, -72.59329714403958]]]}}]}