{"type": "FeatureCollection", "features": [{"id": "0", "type": "Feature", "properties": {"NAME": "Shackleton", "Regions": "East", "TYPE": "FL"}, "geometry": {"type": "Polygon", "coordinates": [[[100.31308016299727, -65.71791688666445], [100.34291076660156, -65.72735595703051], [100.36734008789062, -65.7438278198235], [100.38575744628906, -65.75440979003834], [100.39785857560646, -65.76486936634326], [100.40814208984375, -65.77384948730396], [100.42832946777344, -65.82656860351491], [100.42977142333984, -65.84125518798757], [100.43271636962892, -65.8442382812493], [100.42799804718801, -65.84703213200024], [100.42159149392259, -65.85287125674672], [100.41473388671875, -65.86141204833916], [100.40972033446492, -65.86814551576758], [100.41351043854017, -65.8726871382606], [100.41400489343388, -65.8757099818669], [100.41390228271484, -65.88268280029227], [100.40626097114628, -65.8962286636237], [100.39452362060548, -65.90158081054619], [100.364013671875, -65.91735076904227], [100.31520429720601, -65.94818827328703], [100.22472381591797, -66.04321289062435], [100.21662361524977, -66.05013102983493], [100.18597038639355, -66.05668610566727], [100.18225127496912, -66.05985733974578], [100.20175238728422, -66.06788092199433], [100.20541217523264, -66.07288973280484], [100.21156219334851, -66.07386212798379], [100.18608648538822, -66.10713780711906], [100.1692276796235, -66.10967872560087], [100.16069669130864, -66.11096449555278], [100.14264992753719, -66.12471771725993], [100.12906494590321, -66.14614455430083], [100.12138783705258, -66.16358786650665], [100.11161947578955, -66.17696977992237], [100.0742239677518, -66.18876130292267], [100.07211300015435, -66.19646799496599], [100.0849583055401, -66.21065690802948], [100.10246979910904, -66.22540006626875], [100.12625948162042, -66.23435654664924], [100.14205121486832, -66.23766359142685], [100.15192018763524, -66.23723022374959], [100.17340246694292, -66.23628689097265], [100.18140851453768, -66.2346171586573], [100.25793457031251, -66.21911621093687], [100.29161071777344, -66.21241760253845], [100.31143188476562, -66.19827270507751], [100.31759835833046, -66.19200080825959], [100.3307324836713, -66.17864213931125], [100.33749466420775, -66.17493445427841], [100.3372192678964, -66.17204445573854], [100.3413314819336, -66.16786193847592], [100.35433567597669, -66.15439681093352], [100.38862238567478, -66.13574287880535], [100.47729568406776, -66.13158307797706], [100.50070953369142, -66.1313095092767], [100.5233383178711, -66.12749481201108], [100.53064566418165, -66.12566671652745], [100.54534912109375, -66.13056182861266], [100.53813934326172, -66.13696289062437], [100.54032897949219, -66.14173126220639], [100.55862426757812, -66.14740753173766], [100.5740966796875, -66.14694976806578], [100.58999633789062, -66.14363098144469], [100.60083770751953, -66.14069366455014], [100.65186309814453, -66.13046264648374], [100.72124481201172, -66.12232971191341], [100.73596954345703, -66.12402343749937], [100.75061798095703, -66.12925720214781], [100.78345489501953, -66.13236999511656], [100.80172729492188, -66.14155578613219], [100.7979736328125, -66.15950012206969], [100.80021667480469, -66.16426849365172], [100.78152465820312, -66.17277526855406], [100.76363372802734, -66.17555999755797], [100.75110626220703, -66.1786422729486], [100.73857879638673, -66.18172454833922], [100.72709655761719, -66.1833038330072], [100.69085693359375, -66.19172668456969], [100.66197967529297, -66.20098876953062], [100.6439437866211, -66.20729827880798], [100.63941192626953, -66.21258544921812], [100.63477325439453, -66.22140502929625], [100.62992095947266, -66.22601318359312], [100.62210083007812, -66.22801208496031], [100.63224792480469, -66.23854064941345], [100.62738800048828, -66.24314880371031], [100.60159301757812, -66.24791717529234], [100.5845718383789, -66.25273132324159], [100.52163696289062, -66.25675201415953], [100.49009704589844, -66.26052093505798], [100.47749328613283, -66.263580322265], [100.4837646484375, -66.27722930908143], [100.48231506347656, -66.289329528808], [100.47942352294922, -66.2944869995111], [100.47439575195312, -66.30262756347598], [100.48324584960938, -66.31044006347597], [100.4809799194336, -66.31696319580018], [100.50662994384766, -66.31928253173768], [100.5229263305664, -66.32794952392518], [100.55036926269531, -66.33790588378847], [100.60205078125, -66.34320831298768], [100.68695831298828, -66.33679199218692], [100.76898193359376, -66.3354949951166], [100.8316421508789, -66.35260009765567], [100.85343933105469, -66.36506652831973], [100.8532943725586, -66.3721389770502], [100.83963012695312, -66.37672424316345], [100.82498168945312, -66.37926483154239], [100.8038558959961, -66.3830032348627], [100.76822662353516, -66.38219451904239], [100.71738433837892, -66.37899780273379], [100.63126373291016, -66.38691711425724], [100.4957046508789, -66.39846801757756], [100.48939514160156, -66.4038772583002], [100.4931869506836, -66.41207122802676], [100.494384765625, -66.42610168456976], [100.48206329345703, -66.43760681152285], [100.4699935913086, -66.442031860351], [100.4617691040039, -66.44334411621035], [100.38329315185547, -66.46465301513615], [100.36107635498047, -66.46627807617129], [100.34086608886719, -66.46069335937445], [100.33418273925781, -66.45764923095645], [100.31864166259766, -66.44678497314396], [100.30498504638672, -66.44001770019474], [100.28573608398438, -66.43647766113223], [100.27006530761719, -66.43690490722598], [100.19580841064453, -66.45214843749943], [100.14608001708984, -66.4789962768549], [100.12358856201172, -66.49188995361273], [100.11111450195312, -66.49559783935491], [100.0894546508789, -66.49855041503852], [100.08295440673828, -66.50586700439399], [100.04693603515625, -66.51305389404244], [99.96549987792969, -66.493904113769], [99.9307632446289, -66.48716735839787], [99.92048645019531, -66.48788452148379], [99.91371154785156, -66.49259185790959], [99.9106674194336, -66.49773406982366], [99.9041976928711, -66.50312805175727], [99.87177276611328, -66.51383972167913], [99.87818908691406, -66.52044677734321], [99.90206909179688, -66.52654266357368], [99.91858673095703, -66.53596496581974], [99.9189682006836, -66.54087829589787], [99.8962631225586, -66.53752136230413], [99.86752319335938, -66.53246307372994], [99.82585906982422, -66.54239654540962], [99.81568145751953, -66.55155944824163], [99.80206298828125, -66.56095886230413], [99.76228332519531, -66.56721496581979], [99.74400329589845, -66.57410430908149], [99.73058319091797, -66.57995605468695], [99.71578216552734, -66.59082794189399], [99.70637512207031, -66.59781646728463], [99.69348144531251, -66.60080718994087], [99.68193054199219, -66.5945434570307], [99.66891479492188, -66.58485412597602], [99.62479400634766, -66.59770202636666], [99.6048355102539, -66.62159729003852], [99.57093811035156, -66.62950897216741], [99.5433120727539, -66.62712097167916], [99.51138305664062, -66.62713623046821], [99.5030288696289, -66.61994171142526], [99.5041732788086, -66.61423492431587], [99.51275634765625, -66.59675598144477], [99.51617431640625, -66.5838470458979], [99.53621673583984, -66.5684204101557], [99.5482177734375, -66.55493927001898], [99.53958892822266, -66.5470581054682], [99.52497100830078, -66.54592895507758], [99.5094985961914, -66.5511856079096], [99.47310638427736, -66.57403564453071], [99.44439697265625, -66.59002685546818], [99.40900421142578, -66.61982727050727], [99.37385559082031, -66.63762664794868], [99.34779357910156, -66.66891479492135], [99.30545043945312, -66.70829010009714], [99.30303192138672, -66.72394561767526], [99.29193115234375, -66.74015808105418], [99.27649688720703, -66.75453948974558], [99.25880432128906, -66.75920104980418], [99.22261047363281, -66.76222991943307], [99.15814971923828, -66.75719451904246], [99.11038208007812, -66.74051666259714], [99.04939270019531, -66.70847320556588], [99.03903198242188, -66.69153594970653], [99.0373764038086, -66.68741607665963], [99.02497100830078, -66.68749237060494], [98.98749542236328, -66.70040130615183], [98.95307159423828, -66.72999572753854], [98.90856170654297, -66.76583099365185], [98.85108947753906, -66.78274536132761], [98.80810546875, -66.78678131103464], [98.77861785888672, -66.77521514892528], [98.77458953857422, -66.76491546630808], [98.7912826538086, -66.74842071533153], [98.82394409179688, -66.71828460693307], [98.81484985351562, -66.7132110595698], [98.79734802246094, -66.70936584472605], [98.7859878540039, -66.70302581787058], [98.78530883789062, -66.69673919677683], [98.78382873535156, -66.68839263915966], [98.779541015625, -66.67739868164011], [98.79364013671875, -66.65895843505808], [98.86258697509766, -66.62236022949165], [98.89800262451173, -66.60890960693307], [98.93712615966797, -66.58255767822212], [99.03829193115236, -66.53047180175727], [99.052978515625, -66.50984191894477], [99.04426574707031, -66.50125122070256], [99.02689361572266, -66.49743652343692], [99.01314544677734, -66.49830627441351], [98.91072082519531, -66.51107788085883], [98.83878326416016, -66.52540588378851], [98.7690200805664, -66.55009460449163], [98.7459487915039, -66.55432128906196], [98.72181701660156, -66.55579376220648], [98.71187591552734, -66.55288696289006], [98.70181274414062, -66.54507446289007], [98.69678497314453, -66.54116058349553], [98.68460083007812, -66.53698730468695], [98.6733627319336, -66.53063964843695], [98.67205047607422, -66.5272064208979], [98.63697052001953, -66.52301788330024], [98.61995697021484, -66.51069641113227], [98.60624694824219, -66.50239562988227], [98.58258056640625, -66.50031280517524], [98.56157684326172, -66.49595642089788], [98.53895568847656, -66.48256683349551], [98.52674865722656, -66.47346496581973], [98.52872467041016, -66.46000671386663], [98.51035308837892, -66.44846343994082], [98.40103149414062, -66.44232940673771], [98.27886962890625, -66.4537048339838], [98.21675872802734, -66.45660400390567], [98.1718521118164, -66.47813415527287], [98.16743469238281, -66.4853973388666], [98.1524429321289, -66.49257659912053], [98.04340362548828, -66.51209259033146], [98.00955200195312, -66.53574371337837], [97.95220184326172, -66.55788421630805], [97.91664123535156, -66.56196594238226], [97.87646484375, -66.55786895751898], [97.83463287353516, -66.56928253173774], [97.81507110595703, -66.57386016845649], [97.7879867553711, -66.61811065673774], [97.74700164794922, -66.65820312499946], [97.73767852783203, -66.6671218872065], [97.69495391845703, -66.67152404785104], [97.65706634521484, -66.66934204101508], [97.6270523071289, -66.65901947021433], [97.62102508544922, -66.65162658691351], [97.59243774414062, -66.64542388915963], [97.50023651123047, -66.63906097412054], [97.47078704833986, -66.63008117675727], [97.45062255859375, -66.60099792480413], [97.45716094970703, -66.58874511718696], [97.4383316040039, -66.57431030273383], [97.40476989746094, -66.57395172119085], [97.34892272949219, -66.57543182372994], [97.32893371582031, -66.56804656982368], [97.31415557861328, -66.56040191650335], [97.27965545654297, -66.54605102539008], [97.27998352050781, -66.53063201904243], [97.2734375, -66.5211563110346], [97.17552185058594, -66.49460601806585], [97.10131072998047, -66.48712158203068], [97.03787994384766, -66.4916610717768], [96.90119934082031, -66.52631378173771], [96.87838745117188, -66.53791046142524], [96.86773681640625, -66.5433197021479], [96.80752563476562, -66.55039215087835], [96.73645782470705, -66.58313751220648], [96.67501831054688, -66.60139465331979], [96.58179473876955, -66.61968994140571], [96.5311508178711, -66.61501312255805], [96.47081756591797, -66.60095977783149], [96.4410171508789, -66.58272552490182], [96.42097473144531, -66.58641815185493], [96.38203430175781, -66.59794616699163], [96.35772705078125, -66.59902191162054], [96.31217956542969, -66.59963226318307], [96.26468658447266, -66.60591125488227], [96.2164077758789, -66.60940551757758], [96.18135833740234, -66.59693908691354], [96.12984466552734, -66.57539367675726], [96.08360290527344, -66.57317352294866], [96.05456542968751, -66.58278656005808], [96.02991485595703, -66.60897064208932], [95.99402618408203, -66.63282775878852], [95.95552062988281, -66.6470031738276], [95.9318618774414, -66.65077972412058], [95.907470703125, -66.65177917480415], [95.8401870727539, -66.65033721923773], [95.75446319580078, -66.65937805175729], [95.64694976806642, -66.66735839843697], [95.58143615722656, -66.66558837890572], [95.51580810546875, -66.65295410156199], [95.4770278930664, -66.6478576660151], [95.43949890136719, -66.63810729980416], [95.39830017089845, -66.63314819335883], [95.35999298095703, -66.60778808593697], [95.35639190673828, -66.58399963378854], [95.27239227294922, -66.52432250976506], [95.2052001953125, -66.50585937499943], [95.14249420166016, -66.50672912597601], [95.005859375, -66.4892578124994], [94.95404815673828, -66.47573089599553], [94.94275078496419, -66.46738053057032], [94.94349428012306, -66.46264393414579], [94.94009399414062, -66.446914672851], [94.94913482666017, -66.44261169433535], [94.94742584228516, -66.43469238281192], [94.95646667480469, -66.43038940429629], [94.95132446289062, -66.40662384033145], [94.9346254491874, -66.39596820018743], [94.91658689612518, -66.3882198533311], [94.91488337608392, -66.38431350050064], [94.90499114990234, -66.37631225585879], [94.90441624709115, -66.36907994719466], [94.88017997139897, -66.36193519085357], [94.85783269372078, -66.35832593978097], [94.8525371174887, -66.35453954085794], [94.84081364066336, -66.35058580738013], [94.84907144186603, -66.34506645854479], [94.8474006044637, -66.33714714702135], [94.83671945211994, -66.33351555522447], [94.80902966777501, -66.31103073953096], [94.81669513407815, -66.30896764197917], [94.81872165303174, -66.30564021179471], [94.8242793060104, -66.29784639558275], [94.8244234648804, -66.2942104791597], [94.83057873778425, -66.28929117271899], [94.83558654785156, -66.2829666137689], [94.83859087181676, -66.2759610331126], [94.84949774288799, -66.26763215192224], [94.85108184814453, -66.26249694824156], [94.84441375732422, -66.23083496093689], [94.84123952923747, -66.22406085095534], [94.8408554848068, -66.21790043124372], [94.85089874267578, -66.21466064453064], [94.91238403320314, -66.21289825439393], [94.96646881103516, -66.222076416015], [94.97960662841797, -66.21939849853455], [94.98601531982423, -66.22360229492125], [95.0285415649414, -66.22985076904234], [95.04737091064453, -66.2280807495111], [95.05998727200326, -66.22316564435656], [95.07291412353516, -66.21941375732362], [95.11249542236328, -66.22463226318297], [95.12757873535156, -66.23073577880797], [95.16570281982423, -66.22934722900331], [95.20928955078125, -66.23995208740173], [95.25090789794922, -66.24172973632751], [95.25782775878906, -66.23593139648376], [95.2659912109375, -66.23561859130797], [95.30020141601562, -66.2409973144525], [95.3036880493164, -66.24419403076111], [95.34012603759766, -66.24726104736267], [95.38310241699219, -66.23122406005798], [95.38921356201172, -66.22211456298766], [95.41088104248047, -66.2091140747064], [95.42915344238281, -66.20507812499937], [95.43833923339844, -66.2091598510736], [95.45491790771484, -66.20963287353453], [95.5345687866211, -66.1754989624017], [95.564697265625, -66.17542266845639], [95.5733948009005, -66.16992971456757], [95.56669616699219, -66.16093444824156], [95.57105255126953, -66.15631866455014], [95.56405639648438, -66.14995574951111], [95.56840515136719, -66.14534759521422], [95.56420217585388, -66.13519832593484], [95.57182541423884, -66.12527346169128], [95.57492495808916, -66.11185737613857], [95.56414209965956, -66.1008050995275], [95.55032348632812, -66.09286499023374], [95.5492935180664, -66.0884704589837], [95.55390930175781, -66.08496856689389], [95.55311584472656, -66.08167266845639], [95.53532409667969, -66.07572937011653], [95.53269958496094, -66.0647583007806], [95.5505599975586, -66.05960845947199], [95.5497817993164, -66.05632019042903], [95.53417205810547, -66.04807281494077], [95.5399169921875, -66.03786468505794], [95.54279791622899, -66.02708742548883], [95.51365061644125, -66.01557110187447], [95.5098546461327, -66.01061597569868], [95.51050567626953, -66.00579833984308], [95.50447928735176, -65.99605180413899], [95.49075595185175, -65.98701287337887], [95.49811553955078, -65.97637176513604], [95.49900054931642, -65.96858978271416], [95.49282836914062, -65.96550750732357], [95.49875168017624, -65.95893674059927], [95.5265394161911, -65.94281829191947], [95.53434740282482, -65.9391154987025], [95.51796704256343, -65.93025792300391], [95.52716756434761, -65.92657176473885], [95.53592065940526, -65.92210551617588], [95.5333386705646, -65.91516563264692], [95.5277328491211, -65.90654754638602], [95.52885437011719, -65.89985656738214], [95.51849460830641, -65.89036911287047], [95.51771641006422, -65.88708084382749], [95.5032587074275, -65.88322037019469], [95.49687290420485, -65.87904709138608], [95.495324137115, -65.87246292390563], [95.48062992324782, -65.8675038174603], [95.47985935440016, -65.86421554841733], [95.49107671116757, -65.8541321126258], [95.49498748779297, -65.84803771972587], [95.50225067138672, -65.8444366455071], [95.49892381011581, -65.81911237079917], [95.49478149414062, -65.81262969970633], [95.50315856933594, -65.80233764648366], [95.50403594970703, -65.79455566406178], [95.50006866455078, -65.78917694091727], [95.50920867919922, -65.78217315673756], [95.5076675415039, -65.77559661865163], [95.50180053710938, -65.77362060546801], [95.50457763671875, -65.7624282836907], [95.52195739746094, -65.75621032714771], [95.53297424316408, -65.7458114624016], [95.52823638916016, -65.73713684081959], [95.5301284790039, -65.7337493896477], [95.53176879882812, -65.72926330566331], [95.5307388305664, -65.72487640380785], [95.52437591552734, -65.72070312499928], [95.54413604736328, -65.71327209472584], [95.54103088378906, -65.70011138915942], [95.5482406616211, -65.69651031494067], [95.54695129394531, -65.69103240966724], [95.53742218017578, -65.68476867675706], [95.53587341308594, -65.67819213867115], [95.54230499267578, -65.67129516601487], [95.54710388183594, -65.66889190673754], [95.54581451416016, -65.6634140014641], [95.53791809082031, -65.65266418456956], [95.52867126464845, -65.64749145507739], [95.52635955810547, -65.63762664794848], [95.52619171142578, -65.62547302246018], [95.52542114257812, -65.62218475341722], [95.5160140991211, -65.60486602783128], [95.51020050048828, -65.60288238525314], [95.50865936279297, -65.59629821777268], [95.50234985351562, -65.59212493896408], [95.49578094482422, -65.58686828613203], [95.4976577758789, -65.58347320556564], [95.49664306640625, -65.57907867431564], [95.49409484863281, -65.5681304931633], [95.48539733886719, -65.56517028808518], [95.47831726074219, -65.55770111083908], [95.45497348391721, -65.54509374002835], [95.44683074951172, -65.5368347167961], [95.42826652385874, -65.52985421309856], [95.41789245605469, -65.52691650390545], [95.40367889404297, -65.52305603027267], [95.3995361328125, -65.51657867431564], [95.40910339355469, -65.51178741455001], [95.40446472167969, -65.50312042236249], [95.41088867187501, -65.49624633788984], [95.41829681396484, -65.49373626708905], [95.41340637207033, -65.48398590087812], [95.41793060302734, -65.48048400878827], [95.41667938232422, -65.4750061035148], [95.47968292236328, -65.47139739990156], [95.48896789550781, -65.4654998779289], [95.52220153808594, -65.45974731445233], [95.52068328857422, -65.45317840576091], [95.52993774414062, -65.44727325439372], [95.5286636352539, -65.44180297851483], [95.53842163085938, -65.43808746337811], [95.53536224365234, -65.42494964599528], [95.5372314453125, -65.42155456542888], [95.54621887207031, -65.4145584106437], [95.54544830322266, -65.41128540038981], [95.54840850830078, -65.40120697021405], [95.5473861694336, -65.3968276977531], [95.55296325683594, -65.3866500854484], [95.5545654296875, -65.38216400146402], [95.55279541015625, -65.37449645996013], [95.55356597900392, -65.34403228759682], [95.54942321777344, -65.33757781982338], [95.5385971069336, -65.325279235839], [95.54755401611328, -65.31829071044838], [95.52842712402344, -65.29864501953041], [95.52471160888672, -65.27117156982338], [95.52904510498047, -65.25551605224524], [95.55652618408203, -65.25440979003821], [95.75735473632812, -65.26707458496008], [95.79653930664062, -65.26541900634682], [95.84671544237554, -65.25442571575448], [95.85319279833257, -65.24863500530526], [95.85313939257085, -65.23758001262948], [95.8643088261646, -65.22936315471934], [95.86350773973882, -65.22608251507089], [95.87025212450445, -65.22136754925054], [95.87096928759038, -65.21360082561773], [95.88159703417242, -65.20319433147714], [95.8797125737232, -65.19554204876228], [95.88617467089117, -65.18973607952397], [95.88197850389898, -65.18327398235603], [95.8956527709961, -65.17495727538976], [95.89456939697266, -65.17058563232332], [95.89611053466797, -65.16609954833898], [95.89887733719085, -65.15934369008244], [95.9046943052058, -65.1514013840943], [95.90764331755823, -65.14540821467924], [95.91995125820405, -65.12755511519882], [95.9523391723633, -65.11722564697178], [96.02213287353516, -65.11304473876865], [96.03660583496094, -65.10797119140535], [96.07546552499625, -65.09930724753552], [96.10350197438045, -65.09287036155358], [96.17211469491812, -65.07725066794565], [96.15799713134767, -65.00910186767486], [96.15946960449219, -65.00461578369047], [96.20088958740234, -64.98281097412017], [96.21782684326172, -64.97760772704984], [96.24620056152344, -64.97629547119047], [96.25308227539062, -64.9726638793936], [96.28861236572266, -64.96879577636626], [96.32815551757812, -64.97026062011626], [96.3711166381836, -64.96491241454986], [96.38573455810547, -64.97085571288967], [96.40091705322266, -64.96902465820217], [96.45216199929193, -64.97504500786113], [96.67747497558594, -65.01225280761625], [96.71800231933594, -65.02169036865142], [96.83605112176213, -65.03770736535871], [96.95410560697715, -65.02731054868141], [96.98931263006584, -65.02301776218489], [97.00678631658819, -65.05194338278999], [97.02806891052789, -65.05902062202318], [97.05393784739707, -65.07905022684763], [97.12222678551471, -65.29346316451938], [97.06091370982227, -65.3363537885441], [96.9208311982819, -65.35659853626518], [96.90268471288479, -65.37391216499802], [96.8467218720528, -65.38059290700959], [96.78711084065, -65.38955466013714], [96.67934651868043, -65.50375983218525], [96.50629329373118, -65.56363323739278], [96.4004187250972, -65.56327330223071], [96.47213175019267, -65.57572724196947], [96.57199187330241, -65.58269148198168], [96.71651666494594, -65.55489845003305], [96.8745371580253, -65.47221751037034], [96.96044210649563, -65.47943788506538], [97.03690892992061, -65.47237099662486], [97.25471532882638, -65.51256873555666], [97.25059236939909, -65.59925721441256], [97.12312448193839, -65.60968210069154], [97.25776779668993, -65.63283096699857], [97.25186137407316, -65.64726122809374], [97.08105165333143, -65.65422088190714], [96.921622920706, -65.65104508956915], [96.86351630979831, -65.7177179390996], [96.94396933365194, -65.66048419485014], [96.97928054406141, -65.66069366210178], [97.03825309236765, -65.67167229391411], [97.27884558824879, -65.6839129657888], [97.30227423631095, -65.72873936692488], [97.32242416457738, -65.73984505017211], [97.36344942141245, -65.7330596489366], [97.38913736086809, -65.75105848397054], [97.46693445104663, -65.7731732823868], [97.49345657622275, -65.79606607416869], [97.52430660049087, -65.80060143507413], [97.53737061498448, -65.77395479619939], [97.58858627225416, -65.77119953370776], [97.63969763911072, -65.76456042775438], [97.71882416638336, -65.79092815375434], [97.69466461658686, -65.81890914768482], [97.69671968921249, -65.83996949935596], [97.73074910288415, -65.84919011462381], [97.7679600434289, -65.84551829897109], [97.7730357233003, -65.83342236981419], [97.76730195723677, -65.80609817977712], [97.80910333836354, -65.79202379475143], [97.83473212637571, -65.7967673969343], [97.97453280823771, -65.78705159123878], [98.04302884109346, -65.79908568198549], [98.17789459228516, -65.80546569824148], [98.16423797607422, -65.8077621459954], [98.1878662109375, -65.81214904785084], [98.26299285888672, -65.81703948974538], [98.30521392822266, -65.82951354980399], [98.31361163619054, -65.83301569532549], [98.3440421484895, -65.8435699440291], [98.38997650146484, -65.8593749999993], [98.40465545654297, -65.86145782470632], [98.40606689453125, -65.86537933349538], [98.41708374023438, -65.86872100830011], [98.42363205311388, -65.87197245340893], [98.46917953846544, -65.88926066141676], [98.53106204758566, -65.89632247481133], [98.56488056325978, -65.89469100931075], [98.5748379907602, -65.89262998966589], [98.58560699874094, -65.8905005183697], [98.58963143336688, -65.882168345915], [98.57164270128862, -65.87414321724584], [98.4792698020386, -65.88206512654828], [98.46935272216797, -65.87757873535087], [98.463623046875, -65.86188507080008], [98.4717788696289, -65.85736846923757], [98.47035217285156, -65.85344696044852], [98.50570678710939, -65.8322753906243], [98.50965881347656, -65.82696533203054], [98.5177993774414, -65.82246398925712], [98.55609130859375, -65.82009887695244], [98.57234954833984, -65.81106567382744], [98.55989074707031, -65.80381774902274], [98.5407485961914, -65.80500030517507], [98.52974700927734, -65.80167388915946], [98.46136474609375, -65.8018569946282], [98.45037078857422, -65.7985153198235], [98.43122863769531, -65.79969024658132], [98.39012908935547, -65.79415893554618], [98.39619445800781, -65.7731018066399], [98.38838958740234, -65.76219177246021], [98.39192962646484, -65.75684356689382], [98.4103775024414, -65.75228118896412], [98.47098491186408, -65.74465425099469], [98.42377471923828, -65.74337005615162], [98.4112548828125, -65.73682403564379], [98.49848175048828, -65.73213195800707], [98.50658416748047, -65.72762298583912], [98.50725186561266, -65.72040170452249], [98.47084808349611, -65.70977020263598], [98.4694290161133, -65.70584869384692], [98.44473266601562, -65.70271301269457], [98.41688658578437, -65.69979910144984], [98.3961796560268, -65.69757180119713], [98.39652288270044, -65.69354454138906], [98.38951494835302, -65.6863230625079], [98.37166381752182, -65.66370452257789], [98.33751464759995, -65.64975035998023], [98.34624481201173, -65.64450073242114], [98.34603118896484, -65.63946533203051], [98.38538360595705, -65.63186645507736], [98.37346806079934, -65.62599142493838], [98.42192077636719, -65.61183166503831], [98.42391172357657, -65.6026031070436], [98.43524932861328, -65.5949859619133], [98.48688243848767, -65.58279306287908], [98.58401489257812, -65.58127593994062], [98.63398965639787, -65.58881628739772], [98.74075444395814, -65.57898795710652], [98.83528137207031, -65.57987976074142], [98.87686920166016, -65.5765533447258], [98.89430236816406, -65.57141113281173], [98.96994018554688, -65.56649017333906], [98.99034118652344, -65.56916809081956], [99.03416442871094, -65.582344055175], [99.06253814697266, -65.58047485351484], [99.07048034667969, -65.57593536376875], [99.08939361572266, -65.57468414306564], [99.09732818603516, -65.57014465331953], [99.14273834228516, -65.58719635009689], [99.14425659179688, -65.59111022949142], [99.15523529052734, -65.59439086913987], [99.15828704833984, -65.60221862792893], [99.17080688476562, -65.60941314697189], [99.17233276367188, -65.61332702636642], [99.1833267211914, -65.61660766601486], [99.19252014160156, -65.64008331298753], [99.20507049560547, -65.6472778320305], [99.21694946289062, -65.6705856323235], [99.22798156738281, -65.67385864257739], [99.2356948852539, -65.69342803955004], [99.24674224853516, -65.69670867919848], [99.25447082519531, -65.71627044677663], [99.26708221435547, -65.72346496581959], [99.27328491210938, -65.7391204833977], [99.28435516357422, -65.74239349365162], [99.2921371459961, -65.76196289062428], [99.30321502685547, -65.76523590087818], [99.30946350097656, -65.78089141845632], [99.31894444263465, -65.78684415627514], [99.33084444047952, -65.8031793441878], [99.34105682373048, -65.81092071533133], [99.34420013427734, -65.81874084472584], [99.36426156432016, -65.82914051632225], [99.40465403471663, -65.82965412239763], [99.41466522216798, -65.83005523681571], [99.43515952589695, -65.84545820175687], [99.44805908203126, -65.86397552490165], [99.45291202403995, -65.8713607752953], [99.45084707050991, -65.87952557275207], [99.41536669640074, -65.89898746313476], [99.42035768974756, -65.91279402270617], [99.47001037454042, -65.94973752052513], [99.48114282199076, -65.94815335679377], [99.51184696289538, -65.93736653129167], [99.53423309326172, -65.90635681152276], [99.5326156616211, -65.90244293212824], [99.54693603515625, -65.88938903808526], [99.54371643066406, -65.88156127929619], [99.55167388916016, -65.87699127197196], [99.55007171630861, -65.87307739257743], [99.55802154541016, -65.86850738525322], [99.55640411376953, -65.86459350585868], [99.57068634033203, -65.8515396118157], [99.5658645629883, -65.83980560302665], [99.57379913330078, -65.83523559570241], [99.57218933105469, -65.83132171630788], [99.58804321289062, -65.82218170165946], [99.57689666748047, -65.81892395019462], [99.57368469238281, -65.81110382080007], [99.57222768259587, -65.80757273099533], [99.58953094482422, -65.80196380615165], [99.5879135131836, -65.7980499267571], [99.58634244288962, -65.78974458930502], [99.58289916469167, -65.78613508082357], [99.58637237548828, -65.78150177001882], [99.59268101787525, -65.7730190493594], [99.61171722412111, -65.77169799804639], [99.61011505126953, -65.76779174804615], [99.58627319335938, -65.75737762451098], [99.58465576171875, -65.75346374511648], [99.56703186035156, -65.74720764160084], [99.5860595703125, -65.74588775634696], [99.6002426147461, -65.7328414916985], [99.64775848388673, -65.7295227050774], [99.6556396484375, -65.72494506835862], [99.65240478515625, -65.71713256835864], [99.67502359514468, -65.71152036884895], [99.70158662054953, -65.70526369361495], [99.72591270140398, -65.70654239457357], [99.75356219328772, -65.71255896498674], [99.7754787493107, -65.71834071029679], [99.81245422363281, -65.72594451904224], [99.85487414156442, -65.73393723048318], [99.88696986032063, -65.71977957816424], [99.9257544858205, -65.72005645834281], [100.06049337217956, -65.7051346192927], [100.09871673583984, -65.70928192138598], [100.10150439494834, -65.72192268952067], [100.0828482277494, -65.74048476982888], [100.06299766730643, -65.74193676813401], [100.04579162597656, -65.74537658691332], [100.01000018582535, -65.74908301172363], [99.99461593189257, -65.75275199071642], [99.94981764542312, -65.75819787712871], [99.93514251708984, -65.76144409179615], [99.89199598264806, -65.76674752735146], [99.87975311279298, -65.76944732665943], [99.86826312504577, -65.7757637782998], [99.86321686138537, -65.77865433060192], [99.8924302260729, -65.78429039074315], [99.91107021723711, -65.78809115965765], [99.92473784363212, -65.7996138568068], [99.91372680664062, -65.80324554443288], [99.87439727783203, -65.82619476318288], [99.85848426804148, -65.83499105518372], [99.8301577439855, -65.85448004859435], [99.7973379648567, -65.86571277908409], [99.80381746799577, -65.87257153808598], [99.83359544037606, -65.87741235388843], [99.85515310805354, -65.87112010041318], [99.9633217336198, -65.86485852022659], [100.0303955078125, -65.84523010253838], [99.91634368896484, -65.82283782958913], [99.93916320800781, -65.80573272705007], [100.06122589111328, -65.80223846435474], [100.07079315185547, -65.78904724121021], [100.10304260253906, -65.76501464843676], [100.11893463134767, -65.76349639892506], [100.1307144165039, -65.75561523437428], [100.29159545898438, -65.74739074706959], [100.29936218261719, -65.74277496337817], [100.30143601405494, -65.73530208425878], [100.30675276020844, -65.73123709213806], [100.30810609353512, -65.72417758574521], [100.31308016299727, -65.71791688666445]], [[96.98242891208314, -66.06540904452262], [96.97906956728421, -66.05426369673117], [96.96501935304143, -66.05383064133038], [96.95030089453334, -66.05116703402867], [96.93384385608708, -66.05198130110719], [96.90192254438807, -66.0569481927823], [96.88579109149441, -66.0588715829374], [96.85659487014847, -66.06369368712726], [96.82431247236198, -66.06752835441934], [96.80783949699735, -66.06832795986664], [96.79038454799655, -66.06578061060337], [96.77325946602704, -66.0643461630506], [96.75953248710596, -66.06500765923288], [96.75032099875642, -66.06205864963299], [96.74353215110148, -66.05786215419722], [96.7344773808921, -66.0458599161665], [96.71994788456297, -66.03412047949159], [96.69076423568191, -66.01968966581397], [96.66641860824484, -66.0219798783003], [96.64608717575993, -66.02859673727521], [96.61477309657042, -66.03572858155086], [96.57700299375928, -66.03976480975379], [96.4946838050001, -66.0435988352304], [96.45594834737125, -66.04425593031857], [96.44346439001653, -66.04934935972011], [96.43221329563352, -66.0589048915779], [96.42157147491137, -66.07069155660328], [96.40356837315024, -66.07603300765247], [96.38067293820272, -66.08385392929539], [96.36510483428444, -66.09811900138153], [96.35227092998326, -66.11225884919038], [96.3492151929914, -66.121436864727], [96.35350887223989, -66.1370642582927], [96.35045485729817, -66.1564143365948], [96.33604722202678, -66.1649736478344], [96.32285255838092, -66.1779977115498], [96.32376336516914, -66.19151971405525], [96.31638161513064, -66.20541339854152], [96.32988845440183, -66.22402510898053], [96.37016403596292, -66.2278685566978], [96.45963160624568, -66.2272011162999], [96.71563926694252, -66.22092345863503], [96.77058962374257, -66.2171693667703], [96.86872315089775, -66.20790467862872], [96.93917504821145, -66.19993241763912], [96.97235774093754, -66.1892427836863], [97.01238144017277, -66.1827314308979], [97.05107640387273, -66.15363750265506], [97.05902378908378, -66.14305330653143], [97.05870878553486, -66.13288336247732], [97.04600080262118, -66.12786172622478], [97.03054757810122, -66.12297653202663], [97.02301271389089, -66.11656334065282], [97.01653943152297, -66.10443952261018], [96.98242891208314, -66.06540904452262]], [[98.7672622856668, -66.48900645287596], [98.79509077785873, -66.48728968856442], [98.79979446823832, -66.48472306710389], [98.85622759015207, -66.46870323879173], [98.88055033442186, -66.45808156348136], [98.89782373268818, -66.45131070015671], [98.92793738168767, -66.44828358979404], [98.94709125369026, -66.43911101923379], [98.95834382256413, -66.43157224935268], [99.04162601892915, -66.42293826485898], [99.05338589742068, -66.41755943702576], [99.05939934084253, -66.41376083168754], [99.05205182318373, -66.3968716689455], [99.03336126039918, -66.39694061910242], [99.00628544213711, -66.401253152788], [98.97415085385695, -66.40334497159046], [98.94644817004614, -66.40855754699423], [98.93487205875991, -66.40801302518068], [98.91883640025313, -66.40333220121411], [98.91345672223382, -66.39684268096207], [98.90340781910662, -66.39292242382145], [98.87440388250397, -66.39132746128726], [98.85605379733731, -66.38792398049691], [98.84515656004007, -66.38177826639323], [98.8274373728473, -66.3726446452976], [98.7976073706171, -66.36881265277684], [98.77545976292562, -66.37018632355087], [98.7441506628866, -66.36984746228116], [98.72306849750626, -66.36659802833229], [98.69368709350599, -66.36385547564612], [98.66642247462575, -66.36666309011527], [98.64511126949297, -66.37023903606374], [98.6063330561256, -66.3725993152868], [98.58903319242447, -66.37933308544781], [98.57684910140534, -66.38461812600642], [98.58228721044964, -66.39906891205912], [98.60564269780055, -66.41584681632727], [98.61581891974417, -66.4277380247038], [98.63947366954149, -66.43767354276176], [98.65716812884142, -66.4468325261681], [98.67530086645073, -66.4571011860212], [98.72894205365597, -66.48567253458867], [98.7672622856668, -66.48900645287596]], [[97.41316395590485, -66.4274025299991], [97.43265756568235, -66.42638575943745], [97.43846654823417, -66.41814535555307], [97.43737640995525, -66.41480090710901], [97.42684959217688, -66.40854830707059], [97.41947260688383, -66.40326474005766], [97.41029028838675, -66.39240688765878], [97.40353491658477, -66.38028926406886], [97.37724140658558, -66.36012105272111], [97.36362082779404, -66.35289457403134], [97.3291519010013, -66.34221298580992], [97.30794540117597, -66.33764114870873], [97.2506784524998, -66.33491490429803], [97.19447590940977, -66.33551099698329], [97.14416948293957, -66.33692072777625], [97.09175847163017, -66.34974417397753], [97.05980206531845, -66.35586754556779], [97.03788219357419, -66.36714906895325], [97.03571804084619, -66.38764398847168], [97.04506517907994, -66.3996412136172], [97.0874961185217, -66.40886190741026], [97.14667381733784, -66.41723204699218], [97.25289711528121, -66.42205732098589], [97.35251609525136, -66.42374650523543], [97.41316395590485, -66.4274025299991]], [[96.11448904886329, -66.21429266105639], [96.11379678757434, -66.2222320232992], [96.15956887526711, -66.22589573245355], [96.1774453858688, -66.21946564577662], [96.18274883568785, -66.20793337241727], [96.17295628447853, -66.20271149420616], [96.1612989757179, -66.20096040020063], [96.14777208815859, -66.20267956520057], [96.13790075480479, -66.20762838255288], [96.13602696897755, -66.21109953720114], [96.11448904886329, -66.21429266105639]]]}}]}