{"type": "FeatureCollection", "features": [{"id": "0", "type": "Feature", "properties": {"NAME": "Stange", "Regions": "Peninsula", "TYPE": "FL"}, "geometry": {"type": "Polygon", "coordinates": [[[-74.55036163330078, -73.61074829101558], [-74.51977825590279, -73.6371554846512], [-74.50802252751679, -73.66513631002199], [-74.50571843003692, -73.66925558109548], [-74.50092765582083, -73.67161880040838], [-74.4978007999923, -73.67651244145131], [-74.46467590332031, -73.70390319824214], [-74.47109024176018, -73.70622223309655], [-74.52171325683594, -73.71690368652341], [-74.55750274658203, -73.72275543212888], [-74.60813903808594, -73.72801208496091], [-74.6360092163086, -73.72767639160155], [-74.67031860351562, -73.7229766845703], [-74.69661712646484, -73.71775817871092], [-74.75308227539062, -73.70233917236327], [-74.76033020019531, -73.69756317138669], [-74.80078125000001, -73.66899108886719], [-74.83097839355469, -73.66288757324214], [-74.86434936523438, -73.65506744384764], [-74.90190124511719, -73.64381408691405], [-74.91670227050781, -73.64070892333982], [-74.93148040771484, -73.63939666748045], [-74.99507141113281, -73.63900756835935], [-75.058837890625, -73.63627624511717], [-75.12945556640625, -73.6340866088867], [-75.15133666992188, -73.63473510742185], [-75.16756439208984, -73.63203430175778], [-75.17678833007814, -73.62937927246091], [-75.18708038330078, -73.62464141845702], [-75.20339965820312, -73.62227630615234], [-75.24241638183594, -73.62432098388672], [-75.28706359863281, -73.62191009521483], [-75.30304718017578, -73.61889648437496], [-75.33045196533203, -73.62238311767575], [-75.3464584350586, -73.62821960449214], [-75.36011505126953, -73.63177490234371], [-75.38057708740234, -73.63284301757812], [-75.38990783691406, -73.63607025146482], [-75.38387298583984, -73.63948822021483], [-75.38230895996094, -73.64328765869136], [-75.39122772216797, -73.6460723876953], [-75.43653106689453, -73.66198730468746], [-75.43178558349611, -73.66901397705078], [-75.47665405273438, -73.68266296386714], [-75.45893096923828, -73.69139862060545], [-75.4639892578125, -73.69622039794919], [-75.48314666748048, -73.70388793945311], [-75.52180480957031, -73.71107482910155], [-75.5544662475586, -73.70959472656249], [-75.58807373046875, -73.7021255493164], [-75.62370300292969, -73.70552825927732], [-75.64269256591797, -73.70773315429686], [-75.65689086914062, -73.71427917480466], [-75.67212677001953, -73.72655487060545], [-75.6878890991211, -73.73246765136716], [-75.72464752197266, -73.7376251220703], [-75.80767822265625, -73.73394012451166], [-75.8539810180664, -73.7283782958984], [-75.8990707397461, -73.73084259033199], [-75.93499755859375, -73.73095703124999], [-75.9592514038086, -73.73456573486324], [-75.96868133544922, -73.7415313720703], [-75.96422576904297, -73.7460479736328], [-75.9718017578125, -73.75004577636719], [-75.97974395751953, -73.75326538085933], [-75.99935150146484, -73.75598907470699], [-76.04448699951172, -73.75896453857418], [-76.06449127197266, -73.75547027587886], [-76.0856704711914, -73.74858856201169], [-76.08917236328125, -73.75458526611327], [-76.08574676513672, -73.75845336914061], [-76.10944366455078, -73.76603698730464], [-76.14266967773438, -73.77143096923827], [-76.17559051513672, -73.76828002929685], [-76.20411682128906, -73.77069854736327], [-76.22660064697266, -73.77809143066405], [-76.23500061035156, -73.7836227416992], [-76.24231719970703, -73.79087066650386], [-76.24984741210938, -73.80165863037107], [-76.2602310180664, -73.80569458007811], [-76.28622436523438, -73.81174468994136], [-76.3233871459961, -73.8131866455078], [-76.38452911376953, -73.8076477050781], [-76.4737777709961, -73.79396820068358], [-76.49223327636719, -73.79174041748044], [-76.50740814208984, -73.79130554199214], [-76.52864074707031, -73.79154968261719], [-76.55877685546875, -73.79418945312496], [-76.57417297363281, -73.79787445068358], [-76.59595489501953, -73.80092620849607], [-76.61298370361328, -73.79969787597653], [-76.63043212890625, -73.797004699707], [-76.64583587646484, -73.79214477539062], [-76.65863037109375, -73.78807067871091], [-76.66413116455078, -73.78472137451168], [-76.66858673095703, -73.77867889404294], [-76.65911102294922, -73.77517700195312], [-76.64927673339844, -73.77178955078124], [-76.62606048583984, -73.76805877685545], [-76.60126495361328, -73.76504516601558], [-76.57929992675781, -73.76215362548825], [-76.56066131591797, -73.76007843017574], [-76.55779266357422, -73.75531005859371], [-76.560791015625, -73.7498092651367], [-76.5581283569336, -73.74576568603514], [-76.56696319580078, -73.73722076416011], [-76.58000946044922, -73.73383331298824], [-76.5967025756836, -73.73509216308594], [-76.61283874511719, -73.74340820312497], [-76.64305877685547, -73.75033569335933], [-76.66759490966797, -73.75824737548825], [-76.67474365234375, -73.76364135742186], [-76.67437744140625, -73.77099609374997], [-76.67637634277344, -73.77440643310543], [-76.71405792236328, -73.78099060058592], [-76.74061584472656, -73.78137969970702], [-76.76300811767578, -73.78148651123045], [-76.78447723388672, -73.78617095947266], [-76.81841278076172, -73.79699707031249], [-76.86553192138672, -73.8049850463867], [-76.89796447753906, -73.8141937255859], [-76.92148590087892, -73.83237457275386], [-76.95025634765625, -73.83901214599608], [-76.99864196777344, -73.8421249389648], [-77.0867691040039, -73.8434066772461], [-77.18149566650392, -73.84138488769531], [-77.20966339111328, -73.83866882324216], [-77.24761199951172, -73.83233642578124], [-77.27855682373047, -73.82011413574214], [-77.28197479248047, -73.81105804443355], [-77.27534484863281, -73.8035507202148], [-77.23318481445312, -73.78930664062499], [-77.20195770263672, -73.77669525146482], [-77.16738891601562, -73.76644897460933], [-77.12431335449219, -73.75592803955077], [-77.11508178710938, -73.74933624267577], [-77.08290100097656, -73.74045562744136], [-77.04554748535156, -73.72250366210938], [-77.0107650756836, -73.70034027099607], [-77.0093765258789, -73.69315338134763], [-76.98347473144531, -73.67919921874997], [-76.9712905883789, -73.67513275146483], [-76.95638275146484, -73.66378784179688], [-76.94740295410156, -73.6593856811523], [-76.93049621582031, -73.65050506591795], [-76.8645248413086, -73.63130187988277], [-76.83903503417969, -73.62294006347653], [-76.78153228759766, -73.606575012207], [-76.74153900146484, -73.5913619995117], [-76.71942901611328, -73.57213592529293], [-76.71712493896484, -73.54713439941403], [-76.72107696533203, -73.53429412841795], [-76.74896240234375, -73.51404571533203], [-76.7701416015625, -73.49949645996092], [-76.78488159179688, -73.49269866943357], [-76.85257720947266, -73.46405792236325], [-76.90003204345703, -73.45697784423824], [-76.95592498779297, -73.45536041259761], [-76.98736572265625, -73.46083831787108], [-77.05382537841797, -73.46329498291014], [-77.0826416015625, -73.4643630981445], [-77.09590148925783, -73.46631622314452], [-77.12223052978516, -73.48002624511719], [-77.13127136230469, -73.48606109619139], [-77.14628601074219, -73.49003601074217], [-77.16195678710938, -73.495002746582], [-77.16809844970703, -73.4998931884765], [-77.18206024169922, -73.50161743164057], [-77.20603942871094, -73.50221252441403], [-77.22779846191406, -73.49898529052732], [-77.23809051513672, -73.49869537353513], [-77.261962890625, -73.49941253662108], [-77.27861785888672, -73.50197601318357], [-77.287841796875, -73.49820709228514], [-77.30335998535156, -73.49253082275388], [-77.3165512084961, -73.4916076660156], [-77.33854675292969, -73.49165344238278], [-77.37237548828125, -73.48699951171875], [-77.3956756591797, -73.47868347167964], [-77.42061614990234, -73.47128295898433], [-77.46308135986328, -73.46649169921874], [-77.49809265136719, -73.45836639404294], [-77.51432037353516, -73.45653533935545], [-77.53663635253906, -73.45915985107419], [-77.59416961669922, -73.46875762939449], [-77.6181640625, -73.47543334960935], [-77.6688003540039, -73.48416137695312], [-77.72181701660156, -73.48921966552733], [-77.7533187866211, -73.48803710937497], [-77.77754211425781, -73.49075317382808], [-77.78707885742188, -73.4939270019531], [-77.81797790527344, -73.49541473388672], [-77.87031555175781, -73.50460052490233], [-77.9488296508789, -73.51277160644527], [-77.99347686767578, -73.50936126708982], [-78.02953338623047, -73.5071868896484], [-78.08613586425781, -73.50950622558592], [-78.10314178466797, -73.51364898681636], [-78.11550903320312, -73.52212524414058], [-78.1244125366211, -73.53269958496091], [-78.16056060791016, -73.54272460937497], [-78.18045806884766, -73.55015563964842], [-78.21549987792969, -73.55331420898436], [-78.24429321289062, -73.55324554443357], [-78.2941665649414, -73.55252075195311], [-78.29987335205078, -73.54864501953124], [-78.30663299560547, -73.54266357421874], [-78.30929565429688, -73.53902435302732], [-78.30643463134766, -73.53573608398435], [-78.31365966796875, -73.5330352783203], [-78.3266830444336, -73.53421020507812], [-78.32915496826172, -73.53869628906246], [-78.33452606201172, -73.54118347167964], [-78.37588500976562, -73.55078887939449], [-78.40324401855469, -73.5533294677734], [-78.46926116943361, -73.55606842041013], [-78.49724578857422, -73.56243133544919], [-78.53848266601562, -73.58174896240232], [-78.55831146240234, -73.59020233154293], [-78.59590911865236, -73.59465789794919], [-78.69892120361328, -73.59683990478514], [-78.72510528564453, -73.59235382080077], [-78.74766540527344, -73.58346557617183], [-78.76525115966797, -73.58093261718749], [-78.78396606445312, -73.58225250244138], [-78.79623413085938, -73.58456420898436], [-78.82305908203125, -73.58457946777341], [-78.8488998413086, -73.58805084228511], [-78.89276123046875, -73.58696746826169], [-78.89881134033203, -73.58445739746092], [-78.90262603759766, -73.57965850830074], [-78.89917755126953, -73.56254577636716], [-78.8807373046875, -73.55190277099605], [-78.86724853515625, -73.54654693603511], [-78.8616714477539, -73.54081726074214], [-78.86400604248047, -73.53607940673825], [-78.87421417236328, -73.52825164794919], [-78.84620666503906, -73.51016235351558], [-78.84468078613281, -73.50344085693358], [-78.82527923583986, -73.48678588867188], [-78.82038879394531, -73.48217773437499], [-78.79353332519531, -73.46468353271483], [-78.7925033569336, -73.46002197265622], [-78.76651000976562, -73.43729400634764], [-78.74772644042969, -73.41997528076172], [-78.73375701904297, -73.41687774658203], [-78.73320007324219, -73.41359710693358], [-78.73783874511719, -73.40830993652342], [-78.7376480102539, -73.40450286865233], [-78.7363510131836, -73.39888000488277], [-78.71221393234114, -73.41660957891091], [-78.71086859396179, -73.40024542444118], [-78.67323156206596, -73.3746049148522], [-78.64315309375262, -73.37429674781134], [-78.63008350578461, -73.36072773542045], [-78.5663880156346, -73.36605202140827], [-78.43783249109451, -73.36187134681845], [-78.36500980524494, -73.35951664156912], [-78.3631591796875, -73.36593627929685], [-78.39866896371318, -73.36756690106537], [-78.40366246214472, -73.37995236974332], [-78.41099496805472, -73.38413166286983], [-78.32479927621264, -73.39109231345043], [-78.29389217423821, -73.37833278054784], [-78.27999170459684, -73.37511459750495], [-78.26390693783584, -73.36844775622572], [-78.16735333475576, -73.35800113584716], [-78.14498901367188, -73.36002349853513], [-78.14822387695312, -73.35562133789058], [-78.16378784179688, -73.35079956054688], [-78.16558837890625, -73.34284973144527], [-78.17266845703125, -73.3386535644531], [-78.18175360499598, -73.33412430042992], [-78.16119384765625, -73.33403015136714], [-78.10382843017578, -73.33423614501953], [-78.0903549194336, -73.33518218994135], [-78.03781127929688, -73.33715820312497], [-78.00732421875, -73.3412704467773], [-77.99272155761719, -73.34500122070308], [-77.96915435791016, -73.34804534912108], [-77.92489624023438, -73.34452056884761], [-77.9017105102539, -73.34133148193357], [-77.89582824707031, -73.33906555175777], [-77.88335418701172, -73.33422088623043], [-77.86393737792969, -73.33044433593749], [-77.84558868408203, -73.32904052734372], [-77.81641387939453, -73.32818603515622], [-77.78178405761719, -73.322639465332], [-77.76023864746094, -73.31545257568355], [-77.7187271118164, -73.30905914306639], [-77.69322967529297, -73.30651092529294], [-77.67327117919922, -73.30974578857419], [-77.65964508056642, -73.31024169921871], [-77.6498031616211, -73.30826568603514], [-77.63479614257812, -73.30623626708984], [-77.61026000976562, -73.3120880126953], [-77.60137939453125, -73.31845092773435], [-77.5488182704502, -73.3123673391785], [-77.49503314291817, -73.29707264930197], [-77.45255723218395, -73.29420937510251], [-77.43169979804311, -73.288228712472], [-77.41320385652062, -73.28462999308877], [-77.3750397270322, -73.28624419321343], [-77.33392558563264, -73.3016326962088], [-77.30683009425586, -73.30733295282431], [-77.30155572606344, -73.2954830923758], [-77.35996047235624, -73.2731173145579], [-77.34381103515625, -73.26734924316402], [-77.3205959142558, -73.26155367971968], [-77.36853874073873, -73.2541604654672], [-77.32627648519501, -73.24368987748943], [-77.35671997070312, -73.24045562744138], [-77.3662268619274, -73.22732323944382], [-77.34715988961786, -73.2094849438949], [-77.3273234638366, -73.19896400883627], [-77.30441045165225, -73.18634886513476], [-77.34145896344127, -73.19377361332714], [-77.35903122750848, -73.20448006108235], [-77.42370928270883, -73.18772524514453], [-77.43851030809945, -73.18407076516407], [-77.4473604057557, -73.17771547951953], [-77.47522295458383, -73.17258089700002], [-77.46341265184945, -73.16720217385546], [-77.42642211914062, -73.1606826782226], [-77.40911865234375, -73.15725708007808], [-77.40493774414062, -73.15236663818357], [-77.43145637071719, -73.12680185292669], [-77.43359260118594, -73.1188520238251], [-77.42477302110781, -73.11482370351261], [-77.42349128282656, -73.11127603505558], [-77.43112067735781, -73.10138071034855], [-77.46508183773668, -73.08590292258407], [-77.45999543147887, -73.08323163622052], [-77.39996735530698, -73.07356519334945], [-77.38116852718198, -73.06195325487286], [-77.38245026546323, -73.05510968797833], [-77.38122956233823, -73.05156201952131], [-77.38418976741636, -73.04252118700177], [-77.39801423030698, -73.0399653398338], [-77.40140168147886, -73.03556317918927], [-77.40643708186948, -73.02897138231428], [-77.39077758789062, -73.0313873291015], [-77.39666748046875, -73.02369689941402], [-77.39319572385897, -73.01415921960927], [-77.37316673649381, -73.0033829147764], [-77.35935501922678, -73.00095836995051], [-77.3543522461434, -72.99716634744837], [-77.35561928226804, -72.99444634604993], [-77.36010742187501, -72.98897552490229], [-77.37091183710929, -72.98515881191645], [-77.50289687762495, -72.98223445493895], [-77.56538404796407, -72.98082370250621], [-77.60933075150994, -72.9785624583148], [-77.69439697265625, -72.98986053466794], [-77.70062255859375, -72.9868011474609], [-77.73101806640625, -72.9829711914062], [-77.77529907226562, -72.986946105957], [-77.86534033378013, -72.98202661409776], [-77.95097734736623, -72.9843330187515], [-77.98711059070439, -72.98559418563829], [-78.0062211093525, -72.981556089286], [-78.04660034179688, -72.97631835937496], [-78.07669067382812, -72.97817993164058], [-78.1151123046875, -72.97940063476557], [-78.16027832031251, -72.98217773437496], [-78.221435546875, -72.97902679443355], [-78.36234909888478, -72.98900149193663], [-78.38335557826608, -72.98933600633812], [-78.40034513499106, -72.99207307143107], [-78.41056725373922, -72.9936032081712], [-78.4323642333241, -72.99574342488499], [-78.43643951416016, -72.99248504638668], [-78.38935089111328, -72.97234344482418], [-78.3873519897461, -72.96598815917964], [-78.37383270263672, -72.95893859863277], [-78.36767578125, -72.94799804687497], [-78.30985260009766, -72.93248748779293], [-78.27411651611328, -72.92299652099605], [-78.2283706665039, -72.9120712280273], [-78.20217895507812, -72.90612792968746], [-78.16661834716797, -72.90041351318355], [-78.13321685791016, -72.89428710937496], [-78.08985900878906, -72.890510559082], [-77.95452880859375, -72.88018035888669], [-77.82254791259766, -72.87456512451169], [-77.74642181396486, -72.87122344970699], [-77.68858337402344, -72.86939239501949], [-77.64659881591797, -72.8696365356445], [-77.618896484375, -72.87178802490232], [-77.59439849853516, -72.87373352050777], [-77.56529235839844, -72.87319946289058], [-77.5492630004883, -72.86998748779293], [-77.52747344970703, -72.86340332031244], [-77.52023315429688, -72.85831451416013], [-77.50567626953125, -72.84947967529294], [-77.49492645263672, -72.83193206787105], [-77.49296569824219, -72.8222961425781], [-77.48477935791016, -72.81115722656246], [-77.48040008544922, -72.80598449707027], [-77.48146057128906, -72.7984466552734], [-77.49118041992188, -72.79528045654293], [-77.50711059570312, -72.79116058349607], [-77.51526641845705, -72.78762054443355], [-77.52428436279297, -72.78169250488278], [-77.52242279052734, -72.7755966186523], [-77.48513793945312, -72.7715148925781], [-77.46407318115234, -72.76415252685543], [-77.46068572998047, -72.75768280029293], [-77.45128631591797, -72.74700927734372], [-77.43174743652344, -72.72914123535152], [-77.40896606445312, -72.71078491210932], [-77.40725708007812, -72.7008895874023], [-77.40892791748047, -72.69502258300778], [-77.36463928222656, -72.66109466552732], [-77.3424072265625, -72.64221954345699], [-77.36416625976562, -72.61324310302732], [-77.34904479980469, -72.5752792358398], [-77.33927371302552, -72.57155255978341], [-77.33221435546875, -72.57871246337886], [-77.3162841796875, -72.5845565795898], [-77.19036865234375, -72.60834503173822], [-77.12802124023438, -72.60408782958979], [-77.0863037109375, -72.60815429687499], [-77.01972574194474, -72.59944861757967], [-77.00094415133523, -72.60872111497736], [-76.94153923881295, -72.60345269073208], [-76.91152954101562, -72.59954833984368], [-76.87543418333537, -72.59917117517442], [-76.83654126125708, -72.59363954967625], [-76.75794796396707, -72.58679237425997], [-76.71614730373145, -72.5787445905549], [-76.65617199910415, -72.5695237487725], [-76.63581677449477, -72.56113904418265], [-76.62113788682335, -72.55397978085075], [-76.62794323933852, -72.54670422972951], [-76.61538696289064, -72.53474426269527], [-76.59716796875, -72.53343963623043], [-76.56805185978175, -72.53068607977218], [-76.49427805490687, -72.52521820504526], [-76.46629343576625, -72.53129883248666], [-76.46363840646937, -72.5345794721351], [-76.43302927561, -72.54394073922495], [-76.42597971506312, -72.5526916547523], [-76.42701731271937, -72.5562316938148], [-76.41304026193812, -72.57837219674447], [-76.41404734201625, -72.5819198652015], [-76.41505442209437, -72.58545990426401], [-76.42335520334437, -72.58953400094371], [-76.41453562326625, -72.60047455270148], [-76.41554270334437, -72.60401459176401], [-76.42109690256312, -72.60673065621714], [-76.41844187326625, -72.61001129586558], [-76.423996072485, -72.6127273603187], [-76.42134104318812, -72.61600799996712], [-76.44661974472695, -72.62842338943666], [-76.45898590071863, -72.63642102960033], [-76.47653993225694, -72.64975360608915], [-76.47560124706351, -72.6591004615978], [-76.4316056908912, -72.64916388624168], [-76.4371337890625, -72.6608047485351], [-76.46228002112096, -72.67337932302398], [-76.45759681295752, -72.6819562126518], [-76.43163940401014, -72.68890966418839], [-76.39712585397152, -72.68339425398064], [-76.38250030455812, -72.68019792636083], [-76.36882842955812, -72.6826774795835], [-76.35039581237062, -72.67671129306007], [-76.33202423033937, -72.6753761490171], [-76.3326147303338, -72.67872411875751], [-76.35424102721437, -72.68625566561866], [-76.34789337096437, -72.68926927645852], [-76.3562246697925, -72.69334337313819], [-76.3535391229175, -72.69663164218116], [-76.33608306823, -72.69420549472021], [-76.333397521355, -72.69748613436866], [-76.283203125, -72.70178985595699], [-76.25381469726562, -72.69965362548825], [-76.196046873479, -72.70120398021436], [-76.17751939872495, -72.69772295433303], [-76.17031725028745, -72.70646624046586], [-76.17043932059995, -72.71575121361035], [-76.1565960668017, -72.7302552603925], [-76.10925308400721, -72.73820600569647], [-76.06973282033535, -72.73877821028633], [-76.06701675588221, -72.74205122054022], [-76.07254043752283, -72.7447749143879], [-76.06979385549158, -72.74806318343083], [-76.07348648244471, -72.75297651350897], [-76.07446304494471, -72.756524181966], [-76.08184829885096, -72.7617045408527], [-76.07818618947596, -72.76607618391913], [-76.07269302541346, -72.77262983382145], [-76.04954739334997, -72.78644955039441], [-76.00549331838221, -72.79203901350895], [-75.99113469185201, -72.7947766348782], [-75.96920877385023, -72.8016752257547], [-75.92190314234722, -72.80962339606016], [-75.88955450953472, -72.8107067700836], [-75.87434151611676, -72.83355087933201], [-75.86532945014409, -72.83776747022247], [-75.86029052734375, -72.84700012207027], [-75.89096770366424, -72.84558287987485], [-75.8807692325175, -72.85435531390237], [-75.82598876953125, -72.85489654541013], [-75.80364990234375, -72.86716461181638], [-75.8092041015625, -72.86989593505857], [-75.79765353344197, -72.87565384745771], [-75.76700016404664, -72.88121963904317], [-75.740478515625, -72.88103485107418], [-75.75647735595703, -72.88510894775386], [-75.77464294433594, -72.89207458496091], [-75.77566528320312, -72.8984451293945], [-75.76339721679688, -72.90943908691402], [-75.73529052734375, -72.91664123535152], [-75.7010726928711, -72.92763519287104], [-75.6805648803711, -72.9356842041015], [-75.65243530273438, -72.93959808349605], [-75.6419906616211, -72.9414138793945], [-75.63764953613281, -72.94478607177729], [-75.62653350830078, -72.95217132568357], [-75.60823822021484, -72.95655059814447], [-75.58472442626953, -72.95778656005855], [-75.57492065429688, -72.9593811035156], [-75.56991577148438, -72.96242523193355], [-75.57689666748047, -72.96884155273433], [-75.58138275146484, -72.97438812255854], [-75.57262420654297, -72.97797393798824], [-75.53480529785156, -72.98320770263668], [-75.50316619873047, -72.98670196533199], [-75.47376251220705, -72.9850234985351], [-75.44713592529297, -72.98231506347652], [-75.42908477783203, -72.98313903808591], [-75.40775299072266, -72.98342895507808], [-75.32982635498047, -72.98941040039058], [-75.29661560058594, -72.99508666992183], [-75.25460815429688, -73.00530242919918], [-75.23278045654297, -73.01130676269527], [-75.17660522460938, -73.0142440795898], [-75.14108276367188, -73.01560974121091], [-75.12225341796875, -73.01772308349604], [-75.08473968505861, -73.02743530273436], [-75.06680297851562, -73.03112030029294], [-75.04850006103516, -73.03724670410152], [-75.05291748046875, -73.04322814941405], [-75.065185546875, -73.04679107666011], [-75.07746887207031, -73.04829406738278], [-75.10436248779298, -73.04873657226561], [-75.17935180664062, -73.04492950439449], [-75.19669342041016, -73.04447937011714], [-75.22027587890625, -73.04492950439449], [-75.25516510009766, -73.04431915283199], [-75.28507232666016, -73.04400634765621], [-75.34859466552734, -73.04131317138668], [-75.37213897705078, -73.03968048095699], [-75.38524627685547, -73.04026794433591], [-75.42235565185547, -73.0418548583984], [-75.46566772460938, -73.04650878906246], [-75.48169708251953, -73.04908752441405], [-75.48922729492188, -73.05596160888666], [-75.48616027832031, -73.06683349609371], [-75.470947265625, -73.08077239990233], [-75.44966125488281, -73.09355926513668], [-75.44513702392578, -73.10021209716794], [-75.4510726928711, -73.10517883300778], [-75.47521209716797, -73.10878753662105], [-75.49253845214844, -73.1067962646484], [-75.52796173095703, -73.09877014160153], [-75.56073760986328, -73.09313964843749], [-75.59746551513673, -73.08300781249996], [-75.62232971191406, -73.07294464111324], [-75.64813232421875, -73.06980133056639], [-75.68287658691406, -73.0596542358398], [-75.703369140625, -73.06254577636714], [-75.71829223632812, -73.06159973144526], [-75.73519134521484, -73.06107330322263], [-75.74562072753906, -73.05718994140621], [-75.77471160888672, -73.05181121826166], [-75.80379486083984, -73.04533386230463], [-75.82444763183595, -73.0420684814453], [-75.83361053466797, -73.04069519042967], [-75.85729217529297, -73.04476165771483], [-75.86652374267578, -73.05091094970699], [-75.89518737792969, -73.05684661865233], [-75.91924285888672, -73.06052398681636], [-75.93558502197266, -73.06062316894528], [-75.9853744506836, -73.06001281738277], [-75.9986343383789, -73.06371307373043], [-76.0157699584961, -73.07001495361327], [-76.0243911743164, -73.07200622558591], [-76.05247497558594, -73.0759582519531], [-76.0618896484375, -73.07923889160152], [-76.06922912597656, -73.08660125732418], [-76.07582092285156, -73.09651184082028], [-76.11141204833984, -73.11767578124999], [-76.12525939941406, -73.12905883789058], [-76.12223052978516, -73.13704681396482], [-76.11695098876953, -73.14213562011716], [-76.12141418457031, -73.1446380615234], [-76.12999725341797, -73.1483993530273], [-76.13180541992188, -73.15180969238281], [-76.13185882568361, -73.15673828124997], [-76.12744140625, -73.15915679931635], [-76.10395812988281, -73.16622161865232], [-76.09254455566406, -73.1707382202148], [-76.08589172363281, -73.18735504150389], [-76.0882797241211, -73.19450378417964], [-76.07303619384766, -73.21173858642574], [-76.07965087890625, -73.2183685302734], [-76.09342193603516, -73.22550964355464], [-76.09867858886719, -73.22821044921872], [-76.09158325195312, -73.23316955566402], [-76.07500457763672, -73.24033355712885], [-76.06625366210939, -73.2499618530273], [-76.07165527343751, -73.25637054443355], [-76.08612060546875, -73.26438140869138], [-76.06156921386719, -73.27028656005855], [-76.05018615722656, -73.27467346191403], [-76.0218505859375, -73.29370880126952], [-75.96328735351562, -73.31510925292964], [-75.95655822753906, -73.32556915283202], [-75.94073486328125, -73.33004760742185], [-75.899169921875, -73.34156799316403], [-75.86958312988281, -73.35025787353516], [-75.86065673828125, -73.35823822021483], [-75.83824920654297, -73.36360168457028], [-75.80348205566406, -73.37697601318355], [-75.79476165771484, -73.38251495361325], [-75.77468872070312, -73.38571929931639], [-75.72865295410156, -73.39223480224607], [-75.68714141845703, -73.39579010009766], [-75.6637191772461, -73.40107727050777], [-75.63971710205078, -73.41234588623043], [-75.6295394897461, -73.41941833496092], [-75.60789489746094, -73.42372894287105], [-75.57015228271484, -73.4256210327148], [-75.54487609863281, -73.42966461181638], [-75.50675201416016, -73.44043731689452], [-75.48645782470703, -73.44689941406247], [-75.47435760498047, -73.44696807861324], [-75.45674896240234, -73.44621276855466], [-75.41172790527344, -73.45069885253905], [-75.36177825927734, -73.4594802856445], [-75.34844970703125, -73.46192169189449], [-75.30261993408205, -73.4734725952148], [-75.26660919189453, -73.47640991210938], [-75.23149871826172, -73.48408508300777], [-75.21794891357422, -73.49296569824214], [-75.1929931640625, -73.50057220458983], [-75.17359924316406, -73.50529479980467], [-75.13365173339844, -73.51232147216795], [-75.112548828125, -73.51883697509761], [-75.09154510498048, -73.52729034423824], [-75.06016540527344, -73.53591918945308], [-75.0075454711914, -73.5474700927734], [-74.93846893310547, -73.5517120361328], [-74.90779113769531, -73.55638885498044], [-74.88011932373047, -73.56349182128903], [-74.85956573486328, -73.56770324707027], [-74.79732513427734, -73.5717391967773], [-74.75432586669923, -73.57544708251952], [-74.72342681884766, -73.58022308349604], [-74.65829467773438, -73.60066986083982], [-74.63009643554688, -73.6146087646484], [-74.61947631835938, -73.61598968505858], [-74.59677124023438, -73.61974334716793], [-74.57376861572266, -73.61877441406247], [-74.56331634521484, -73.61547851562499], [-74.55036163330078, -73.61074829101558]], [[-75.7370345882695, -73.69113167102704], [-75.72445058698351, -73.69128171206414], [-75.71775477721965, -73.6890540770513], [-75.71662871664364, -73.68617538588754], [-75.72489322316453, -73.68117051308995], [-75.73719194194867, -73.67995143799504], [-75.75032343236538, -73.68193860368184], [-75.75462873251637, -73.68819092738548], [-75.7370345882695, -73.69113167102704]], [[-75.99618487153869, -73.64587802517259], [-76.03145190130209, -73.63682739396299], [-76.04658541547163, -73.63090352807632], [-76.05151824316683, -73.6267094054455], [-76.05003256773075, -73.62136729221285], [-76.05349891371908, -73.61602310880933], [-76.06135091730867, -73.61412901491806], [-76.07155947100405, -73.61658968446703], [-76.07945962034782, -73.62168144127469], [-76.07833329755911, -73.62718923183584], [-76.08624076553754, -73.63228085522286], [-76.09564355170721, -73.64131683862318], [-76.09219684911999, -73.64805947449051], [-76.08872561587425, -73.65200730430439], [-76.07709344346333, -73.65817929490315], [-76.05668952353625, -73.66443710448429], [-76.04618399069838, -73.66649673748732], [-76.04119731014981, -73.66230628432506], [-76.0446823918517, -73.6583591687991], [-76.03736245573313, -73.65400521538368], [-76.02947114830963, -73.65170626594089], [-76.01574846076993, -73.65039501252424], [-76.00173694323796, -73.64941169656639], [-75.99618487153869, -73.64587802517259]], [[-75.76781271225013, -73.66255553053593], [-75.75788211045523, -73.66254573007818], [-75.76117550155008, -73.65613715566687], [-75.76296921314037, -73.65276862715633], [-75.76100235603273, -73.64668375349086], [-75.76427401007815, -73.64167275524228], [-75.77304245799165, -73.64020157140435], [-75.78703195089922, -73.64120061014053], [-75.78726613705031, -73.64646163730063], [-75.78631848945415, -73.65303693658684], [-75.77895873645326, -73.65845576782706], [-75.76781271225013, -73.66255553053593]], [[-75.80798072336938, -73.61647634845262], [-75.8048101545875, -73.6131039150006], [-75.82024876648057, -73.61245786470192], [-75.82720915978756, -73.61575043925956], [-75.80798072336938, -73.61647634845262]]]}}]}