{"type": "FeatureCollection", "features": [{"id": "0", "type": "Feature", "properties": {"NAME": "Wilkins", "Regions": "Peninsula", "TYPE": "FL"}, "geometry": {"type": "Polygon", "coordinates": [[[-74.43199345336932, -70.13210943791441], [-74.43335723876953, -70.12502288818345], [-74.44534301757814, -70.12252044677722], [-74.45904541015625, -70.12070465087879], [-74.46873474121094, -70.12005615234361], [-74.47905731201172, -70.12051391601548], [-74.48870849609375, -70.12272644042956], [-74.49686431884766, -70.12583160400378], [-74.50088500976562, -70.12933349609364], [-74.4981689453125, -70.13453674316392], [-74.48674774169922, -70.13917541503893], [-74.51464854746051, -70.14107088777753], [-74.58223136893918, -70.14339572621381], [-74.62997194123714, -70.1429243894619], [-74.66950174453973, -70.14461454477957], [-74.70011932249324, -70.14670475976929], [-74.7171049492979, -70.15072252551833], [-74.7268295288086, -70.145538330078], [-74.73316192626953, -70.14145660400375], [-74.71566009521486, -70.13853454589828], [-74.70196533203125, -70.13751983642565], [-74.6904067993164, -70.1367034912108], [-74.68014526367188, -70.13523101806625], [-74.67092895507812, -70.13151550292955], [-74.66151428222656, -70.12803649902331], [-74.65629577636719, -70.12599182128892], [-74.63821411132812, -70.12664031982408], [-74.61849212646484, -70.122718811035], [-74.61045837402344, -70.11755371093734], [-74.60620880126953, -70.10676574707016], [-74.60115051269531, -70.10265350341784], [-74.59329986572266, -70.1001052856444], [-74.58445739746094, -70.0940780639647], [-74.58433532714844, -70.08575439453112], [-74.5890884399414, -70.07893371582016], [-74.59130859375, -70.07524108886707], [-74.59435272216797, -70.0724182128905], [-74.5895004272461, -70.06806182861312], [-74.59839630126953, -70.06552124023422], [-74.61205291748047, -70.06369018554672], [-74.62004852294922, -70.06132507324206], [-74.62085723876953, -70.05464935302722], [-74.6202392578125, -70.05069732666001], [-74.6249237060547, -70.0420532226561], [-74.62995910644531, -70.03862762451159], [-74.63716125488281, -70.03723144531234], [-74.64148712158203, -70.03374481201158], [-74.64220428466797, -70.03095245361314], [-74.63810729980469, -70.02849578857406], [-74.63780975341797, -70.02509307861315], [-74.65022277832031, -70.02002716064437], [-74.65544128417969, -70.01636505126939], [-74.6574478149414, -70.01291656494126], [-74.6016845703125, -70.02103424072251], [-74.58297729492188, -70.0273818969725], [-74.57952880859375, -70.03169250488266], [-74.56256103515625, -70.03588104248033], [-74.55328369140625, -70.043128967285], [-74.53863525390625, -70.04869842529281], [-74.50814819335938, -70.05277252197251], [-74.45681762695312, -70.06993865966783], [-74.43472290039062, -70.06784057617173], [-74.3948974609375, -70.079132080078], [-74.37052665278375, -70.0726645492124], [-74.33532611819959, -70.07933285218306], [-74.3268581189764, -70.08657978221032], [-74.28616333007812, -70.09542846679673], [-74.26284790039062, -70.10712432861314], [-74.23294067382812, -70.13909149169908], [-74.20370483398438, -70.15370178222642], [-74.08990478515625, -70.19152069091781], [-74.02781041503624, -70.20202209342675], [-73.95220947265625, -70.20838928222642], [-73.93630981445312, -70.21498870849595], [-73.8895263671875, -70.22554016113267], [-73.83808647078548, -70.24199218062661], [-73.8166913747909, -70.24579558715229], [-73.74686708436043, -70.26718149665824], [-73.73195560652526, -70.26741593446276], [-73.7021484375, -70.2793045043944], [-73.68255615234375, -70.28202819824206], [-73.67974853515625, -70.28524780273425], [-73.64792215540922, -70.28192178018934], [-73.64102518275297, -70.28589669474012], [-73.60306131556547, -70.29378548868542], [-73.52243387415922, -70.29509011515029], [-73.49158060267484, -70.29084054239637], [-73.49631082728422, -70.28548470743543], [-73.48324930384672, -70.28067818888074], [-73.47219848632814, -70.27391052246078], [-73.44169558362374, -70.26570274052337], [-73.41646325311497, -70.26144931705053], [-73.4097799035056, -70.25726840884741], [-73.41228234491184, -70.25053165347632], [-73.4078267785056, -70.24774692447241], [-73.40620934686497, -70.24175784976538], [-73.39226281366184, -70.23801181705052], [-73.36504113397434, -70.23759982974585], [-73.28056847772434, -70.22785709292945], [-73.2968220473026, -70.21263854602776], [-73.27488993178417, -70.20552013722079], [-73.21713479146835, -70.19276139173348], [-73.20947265625, -70.18895721435536], [-73.22331362596121, -70.18050243194672], [-73.22447615652442, -70.17185284889717], [-73.2217796309773, -70.16429617827434], [-73.22660806354786, -70.15887142209095], [-73.21860223820127, -70.14911359940425], [-73.18701171875, -70.14463043212876], [-73.19586181640625, -70.1385345458983], [-73.19353055518182, -70.1298780266623], [-73.196118341537, -70.1215077536258], [-73.20058938395758, -70.11753140488588], [-73.20453455742094, -70.11000796884144], [-73.20233154296875, -70.10417938232409], [-73.23480030045043, -70.0892212793261], [-73.15339447697525, -70.07616659222919], [-73.1572062273615, -70.07278905298824], [-73.20979895407854, -70.07817895834256], [-73.23467657556186, -70.07912303254278], [-73.21484180435668, -70.06148843020502], [-73.14306278382891, -70.06017391682275], [-73.2154826734973, -70.05688790530264], [-73.21203418716918, -70.05302743166985], [-73.21459766373168, -70.04629067629875], [-73.21117969498168, -70.04244546145499], [-73.19958301529418, -70.04007271975578], [-73.15850635513793, -70.04399422854482], [-73.13851734146606, -70.03958443850577], [-73.12313648209106, -70.04149941653311], [-73.11034961685668, -70.03666238040032], [-73.09402271255982, -70.03964547366203], [-73.06896778091918, -70.03704385012688], [-73.0548381422473, -70.04140023440422], [-73.03918262466918, -70.03976754397456], [-73.01876636490356, -70.0434678003222], [-72.99493213638793, -70.04333047122063], [-72.94177051529418, -70.03775338381828], [-72.93841358170043, -70.03390053958], [-72.92590137466918, -70.0325806543261], [-72.9167766188098, -70.0351288720995], [-72.86462207779418, -70.02846841067377], [-72.85235401138793, -70.03068093508782], [-72.8324260328723, -70.0262329980761], [-72.81487842545043, -70.02670602053702], [-72.81561084732543, -70.02212075442377], [-72.80505176529418, -70.01866463870108], [-72.79278369888793, -70.02086953372063], [-72.72826953873168, -70.01284341067375], [-72.68646066288338, -70.00785770930894], [-72.67041461286559, -69.99920035575576], [-72.65806122762758, -69.98968107188183], [-72.69039722427856, -69.98305825442375], [-72.6489109411323, -69.97507809034639], [-72.67617797851562, -69.95900726318344], [-72.6922607421875, -69.95253753662095], [-72.69305419921875, -69.94792938232406], [-72.62791595325464, -69.938306378945], [-72.58248809947467, -69.92202206157626], [-72.53302652697622, -69.89250149768966], [-72.50098769357244, -69.8511957099146], [-72.47877621173723, -69.8280292561207], [-72.4656016814106, -69.80216244656194], [-72.4615692873354, -69.7870068551353], [-72.46162305801775, -69.77087871131725], [-72.46625918704113, -69.76058817395788], [-72.46647933581292, -69.75467679437041], [-72.46931580408182, -69.74936782402762], [-72.4732272383919, -69.74434452529935], [-72.47982849653236, -69.74131905756445], [-72.48243482559236, -69.73646207105152], [-72.49026956434466, -69.73011805105979], [-72.51113891601562, -69.71882629394516], [-72.50482177734375, -69.71463012695297], [-72.50772094726562, -69.71143341064437], [-72.51449584960938, -69.70397949218734], [-72.52011108398438, -69.69406127929672], [-72.50145721435547, -69.68688201904281], [-72.48563385009766, -69.68436431884749], [-72.46949005126955, -69.68469238281234], [-72.45771026611328, -69.68601989746078], [-72.41864013671875, -69.6825103759764], [-72.39445495605469, -69.67013549804672], [-72.35938262939453, -69.66889190673812], [-72.34315490722656, -69.67260742187484], [-72.29207611083984, -69.66904449462874], [-72.23995208740234, -69.65431976318342], [-72.21161651611328, -69.656410217285], [-72.20367431640625, -69.65683746337875], [-72.18693542480469, -69.65943145751936], [-72.15902709960938, -69.66103363037094], [-72.14261627197266, -69.66734313964828], [-72.14806365966797, -69.68266296386703], [-72.14732360839844, -69.68835449218734], [-72.13124084472656, -69.69916534423812], [-72.11949920654297, -69.7028427124022], [-72.07975006103516, -69.69838714599594], [-72.06310272216797, -69.6975708007811], [-72.04092407226562, -69.7034835815428], [-72.0284652709961, -69.7062911987303], [-72.00566101074219, -69.70555877685531], [-71.99418640136719, -69.70163726806626], [-71.95685577392578, -69.69136810302717], [-71.94583129882812, -69.68618011474592], [-71.93317783422619, -69.69162538099354], [-71.9100036244531, -69.69464384847579], [-71.87697141059843, -69.6743321535777], [-71.85102895003088, -69.6779126989845], [-71.82743284702664, -69.67407254659882], [-71.79443592297535, -69.66853159908179], [-71.78270794089433, -69.6598916277835], [-71.76541210975581, -69.64973464615825], [-71.73053487919704, -69.64698925824364], [-71.73310852050781, -69.65454864501936], [-71.73088073730469, -69.66008758544905], [-71.68964385986328, -69.68115234374983], [-71.6673812866211, -69.68860626220686], [-71.65377044677734, -69.69809722900374], [-71.64421844482422, -69.70174407958969], [-71.63511657714844, -69.70491027832016], [-71.63330841064453, -69.70838928222639], [-71.63833618164062, -69.7126617431639], [-71.64381408691406, -69.71486663818342], [-71.64156341552736, -69.72198486328107], [-71.6292724609375, -69.72847747802717], [-71.60511779785156, -69.73940277099595], [-71.60330200195312, -69.74288177490219], [-71.611083984375, -69.7522125244139], [-71.6047134399414, -69.76360321044906], [-71.60608673095703, -69.76692199707016], [-71.6358413696289, -69.78035736083966], [-71.65096282958984, -69.78684234619125], [-71.66973876953125, -69.7895202636717], [-71.70721435546875, -69.78379058837876], [-71.7204818725586, -69.78425598144514], [-71.73926544189453, -69.78692626953108], [-71.76123046875, -69.78784942626936], [-71.80059814453125, -69.78969573974592], [-71.81114196777344, -69.79142761230453], [-71.82038116455078, -69.79773712158187], [-71.8396987915039, -69.80467224121078], [-71.85267639160156, -69.81508636474592], [-71.84037017822266, -69.82001495361312], [-71.84504699707031, -69.82633209228503], [-71.84940338134766, -69.84262847900374], [-71.84074401855469, -69.84690856933577], [-71.8427734375, -69.85240936279283], [-71.85269927978516, -69.85642242431625], [-71.85880279541016, -69.86527252197251], [-71.86412048339844, -69.86772155761703], [-71.87151336669922, -69.87039184570297], [-71.8791732788086, -69.87520599365217], [-71.90640258789062, -69.88195800781234], [-71.9026870727539, -69.89311981201156], [-71.90553283691406, -69.89817810058581], [-71.90493774414062, -69.90364074707016], [-71.9004135131836, -69.90840148925764], [-71.89634704589844, -69.91268157958969], [-71.91054534912111, -69.92190551757798], [-71.91613006591797, -69.92490386962875], [-71.91482543945312, -69.92949676513656], [-71.9248275756836, -69.93430328369128], [-71.91543579101562, -69.9377288818358], [-71.90996551513672, -69.94106292724594], [-71.91195678710938, -69.9494476318358], [-71.92339324951172, -69.95677947998031], [-71.90757751464844, -69.9629058837889], [-71.88098144531251, -69.97388458251937], [-71.86536407470703, -69.97976684570298], [-71.85694122314453, -69.98777770996078], [-71.84889221191406, -69.99056243896469], [-71.8408432006836, -69.99334716796861], [-71.83511352539062, -69.99691772460923], [-71.83283996582031, -70.0000839233397], [-71.84173583984375, -70.00766754150376], [-71.83676147460938, -70.01606750488267], [-71.8275375366211, -70.01845550537095], [-71.81298828125001, -70.02077484130844], [-71.79549407958984, -70.02935028076158], [-71.78466033935547, -70.0341949462889], [-71.76361846923828, -70.03762054443347], [-71.7520980834961, -70.04396820068344], [-71.74542999267578, -70.05007171630844], [-71.72344970703125, -70.05523681640611], [-71.70978546142578, -70.0573883056639], [-71.70585632324219, -70.05984497070298], [-71.68758392333984, -70.06753540039048], [-71.67578125, -70.07253265380845], [-71.67069244384766, -70.07697296142562], [-71.66583251953125, -70.07958984374984], [-71.6507568359375, -70.08236694335923], [-71.65497422934467, -70.08481455227158], [-71.66681671142578, -70.08972167968737], [-71.65745555973767, -70.09103761492935], [-71.65305897456662, -70.08817516719718], [-71.6410140991211, -70.08522033691392], [-71.62522888183594, -70.08712768554673], [-71.59551239013672, -70.09774017333969], [-71.58250427246094, -70.0999603271483], [-71.56204986572266, -70.10028076171861], [-71.54833221435547, -70.10083007812486], [-71.53926849365234, -70.10455322265611], [-71.5280990600586, -70.10645294189437], [-71.51228332519531, -70.1107254028319], [-71.50089263916016, -70.10810852050766], [-71.4925308227539, -70.10715484619126], [-71.47413635253906, -70.11165618896469], [-71.47016143798828, -70.11648559570298], [-71.45526123046875, -70.11901092529283], [-71.42964935302734, -70.12215423583972], [-71.40376281738281, -70.12870788574206], [-71.38951110839844, -70.1344757080077], [-71.3805923461914, -70.14270019531234], [-71.38008880615234, -70.14633941650375], [-71.36955261230469, -70.15147399902331], [-71.35408020019531, -70.16001129150378], [-71.3503189086914, -70.16300964355455], [-71.35587310791016, -70.16681671142567], [-71.35140228271484, -70.17053985595689], [-71.34342956542969, -70.17385101318347], [-71.3331298828125, -70.17716217041003], [-71.30413818359375, -70.18124389648425], [-71.28773498535156, -70.1859664916991], [-71.25972747802734, -70.18512725830065], [-71.24878692626953, -70.1836013793944], [-71.21240234375, -70.18178558349595], [-71.2016830444336, -70.18081665039048], [-71.18953704833984, -70.18125915527328], [-71.1773910522461, -70.18170928955065], [-71.15992736816406, -70.17968749999989], [-71.14830017089844, -70.17807769775378], [-71.13938903808594, -70.17995452880844], [-71.12103271484375, -70.18656158447253], [-71.11505889892578, -70.19248199462878], [-71.1153335571289, -70.20072174072251], [-71.10906219482422, -70.20925903320298], [-71.11209869384766, -70.21940612792955], [-71.11200714111328, -70.22336578369125], [-71.10420989990234, -70.22643280029284], [-71.05986022949219, -70.23161315917956], [-71.03823852539062, -70.23519134521472], [-71.0286331176758, -70.23539733886705], [-71.01470184326172, -70.23139190673815], [-71.00635528564453, -70.22882843017565], [-70.99378967285156, -70.2265701293944], [-70.968994140625, -70.21864318847643], [-70.93745422363281, -70.21044921874987], [-70.91827392578125, -70.2039642333983], [-70.91077423095703, -70.1975173950194], [-70.90242767333984, -70.1888504028319], [-70.88609313964844, -70.18190002441393], [-70.84526062011719, -70.1752319335936], [-70.83599090576172, -70.173614501953], [-70.82841491699219, -70.17033386230456], [-70.82623291015625, -70.16635894775378], [-70.83131408691406, -70.16139221191393], [-70.83811950683594, -70.15398406982408], [-70.83829498291016, -70.14923095703111], [-70.79998779296875, -70.12799835205065], [-70.78520965576172, -70.12491607666], [-70.76908111572266, -70.12088775634751], [-70.76310729980469, -70.11911010742175], [-70.73934936523438, -70.1141662597655], [-70.72171783447266, -70.11312866210925], [-70.69169616699219, -70.1135330200194], [-70.68058776855467, -70.11220550537097], [-70.64763641357422, -70.11543273925767], [-70.63436126708984, -70.12075042724595], [-70.62236022949219, -70.13311004638658], [-70.61186218261719, -70.13345336914047], [-70.58976745605469, -70.13292694091784], [-70.5812759399414, -70.1350936889647], [-70.57491302490234, -70.14123535156234], [-70.574951171875, -70.14495849609362], [-70.58341979980469, -70.14809417724595], [-70.59245300292969, -70.14917755126939], [-70.61002349853516, -70.1473007202147], [-70.61778259277344, -70.1458358764647], [-70.62516784667969, -70.14247131347642], [-70.63579559326172, -70.14427185058577], [-70.65084075927734, -70.14633941650375], [-70.6607437133789, -70.14884948730456], [-70.66094207763672, -70.15470886230456], [-70.65408325195312, -70.15680694580064], [-70.64250183105469, -70.16498565673814], [-70.63507843017578, -70.16913604736315], [-70.6261978149414, -70.16940307617173], [-70.61412811279295, -70.16822814941393], [-70.6029052734375, -70.16397094726548], [-70.5935287475586, -70.16019439697253], [-70.57537078857422, -70.15961456298814], [-70.56531524658203, -70.1602630615233], [-70.55095672607422, -70.16279602050768], [-70.54097747802734, -70.16637420654284], [-70.51290893554688, -70.1677856445311], [-70.50555419921875, -70.16584014892562], [-70.4562759399414, -70.16283416748034], [-70.44721221923828, -70.16625976562487], [-70.3729019165039, -70.16471862792955], [-70.35533905029297, -70.16205596923815], [-70.34720611572266, -70.15788269042956], [-70.32157897949219, -70.15024566650378], [-70.29878997802734, -70.14588165283189], [-70.26964569091798, -70.14605712890612], [-70.26036834716797, -70.14891815185533], [-70.23721313476562, -70.15007781982406], [-70.22429656982422, -70.1548919677733], [-70.23246765136719, -70.16493225097643], [-70.23616790771484, -70.16884613037094], [-70.23184967041016, -70.17736816406236], [-70.25607299804688, -70.18856811523425], [-70.2489013671875, -70.20126342773425], [-70.25347137451172, -70.2132644653319], [-70.24633026123047, -70.2185134887694], [-70.23328399658203, -70.22118377685534], [-70.24705505371094, -70.23191070556626], [-70.24584197998047, -70.2360153198241], [-70.25198364257812, -70.24208831787097], [-70.239990234375, -70.24967956542953], [-70.22795867919922, -70.25434112548815], [-70.21788787841797, -70.25418090820298], [-70.21094512939453, -70.24961090087878], [-70.21448516845703, -70.24258422851547], [-70.21057891845703, -70.23811340332018], [-70.19475555419922, -70.23672485351551], [-70.18717956542969, -70.23793029785145], [-70.16226959228516, -70.23915100097642], [-70.15032196044922, -70.24887084960922], [-70.1278305053711, -70.25518035888659], [-70.0992431640625, -70.26127624511707], [-70.04663848876955, -70.2654876708983], [-70.01870727539062, -70.26579284667957], [-69.99451446533203, -70.26921081542955], [-69.98469543457031, -70.26880645751942], [-69.97760772705078, -70.26660156249987], [-69.95790100097656, -70.26950073242175], [-69.91766357421875, -70.28480529785143], [-69.90703582763672, -70.29096221923817], [-69.89613342285156, -70.30029296874987], [-69.88461303710938, -70.30580139160142], [-69.85962677001953, -70.31204986572251], [-69.8148651123047, -70.31825256347645], [-69.78411102294922, -70.32538604736315], [-69.71820068359375, -70.3479080200194], [-69.65827941894531, -70.36556243896472], [-69.65254211425781, -70.37580108642567], [-69.66973114013672, -70.38329315185534], [-69.7359390258789, -70.39178466796862], [-69.79143524169922, -70.38903808593737], [-69.81205749511719, -70.38544464111315], [-69.82398986816406, -70.38397979736315], [-69.83800506591797, -70.37770080566393], [-69.8641586303711, -70.37265777587878], [-69.89332580566406, -70.36264038085926], [-70.00281524658205, -70.34354400634753], [-70.02259063720703, -70.33770751953112], [-70.0590591430664, -70.32883453369129], [-70.10370635986328, -70.32336425781237], [-70.1231155395508, -70.31853485107409], [-70.1659164428711, -70.31842041015611], [-70.17298889160156, -70.32141113281237], [-70.17647552490234, -70.32849121093736], [-70.1772232055664, -70.33444213867175], [-70.19071197509766, -70.34992218017565], [-70.2109146118164, -70.35396575927722], [-70.23269653320312, -70.35580444335923], [-70.25059509277344, -70.36276245117173], [-70.2650146484375, -70.36556243896472], [-70.277099609375, -70.36462402343739], [-70.28682708740234, -70.36367034912097], [-70.29780578613281, -70.36153411865222], [-70.30943298339844, -70.36027526855456], [-70.31037902832031, -70.3638458251952], [-70.30886840820314, -70.36898803710926], [-70.33352661132812, -70.37780761718737], [-70.35243225097656, -70.38087463378893], [-70.37494659423828, -70.37532806396469], [-70.39275360107422, -70.37718963623034], [-70.41480255126953, -70.38700866699206], [-70.43001556396484, -70.38909149169909], [-70.4477767944336, -70.38802337646472], [-70.45721435546875, -70.38808441162097], [-70.46748352050781, -70.3940963745116], [-70.50823211669922, -70.40425872802723], [-70.58761596679688, -70.39878845214832], [-70.62319946289062, -70.40485382080065], [-70.72940826416016, -70.41150665283192], [-70.75186157226562, -70.41121673583973], [-70.80077362060547, -70.41667938232412], [-70.81672668457031, -70.42570495605457], [-70.83431243896484, -70.42934417724598], [-70.84656524658203, -70.43050384521472], [-70.85734558105469, -70.43309020996082], [-70.858642578125, -70.43642425537097], [-70.88323211669922, -70.44326019287097], [-70.90422821044922, -70.44516754150378], [-70.93453216552734, -70.4518585205077], [-70.9501953125, -70.45048522949206], [-70.96229553222656, -70.44950103759754], [-70.97488403320314, -70.44803619384756], [-70.99394226074219, -70.45182800292957], [-71.01235961914062, -70.46163940429675], [-71.0176010131836, -70.46886444091784], [-71.02080535888672, -70.48116302490223], [-71.01543426513672, -70.48637390136706], [-71.01618194580078, -70.49335479736315], [-71.02068328857422, -70.50209045410145], [-71.00878143310547, -70.51132202148425], [-71.01195526123047, -70.51672363281239], [-71.01445770263672, -70.52046203613268], [-71.03703308105469, -70.5286178588866], [-71.03617095947266, -70.53408813476551], [-71.05706787109375, -70.5438995361327], [-71.06078338623047, -70.54724121093739], [-71.06137084960938, -70.5520782470702], [-71.08605194091797, -70.57371520996082], [-71.10494995117188, -70.580108642578], [-71.1239013671875, -70.58491516113271], [-71.13761138916016, -70.59017944335925], [-71.16016387939453, -70.59459686279286], [-71.1861801147461, -70.59330749511709], [-71.1999740600586, -70.59539794921864], [-71.20417785644531, -70.59984588623036], [-71.1993179321289, -70.60459899902335], [-71.19659423828125, -70.60958099365223], [-71.19869232177734, -70.612205505371], [-71.21888732910156, -70.61740112304676], [-71.23265838623045, -70.62187194824207], [-71.24732208251953, -70.63014221191395], [-71.23929595947266, -70.63877105712879], [-71.25188446044922, -70.6436309814452], [-71.25411987304688, -70.6531524658202], [-71.25421905517578, -70.66163635253895], [-71.27186584472656, -70.66547393798817], [-71.26344299316406, -70.66823577880848], [-71.26194763183594, -70.67204284667957], [-71.27191162109375, -70.67792510986318], [-71.28143310546875, -70.68190765380848], [-71.28018188476562, -70.6854782104491], [-71.2617416381836, -70.68473052978504], [-71.23670196533203, -70.69197845458973], [-71.23151397705078, -70.71417999267567], [-71.24127960205078, -70.71871948242175], [-71.2243881225586, -70.72344207763662], [-71.21918487548828, -70.7323989868163], [-71.21004486083984, -70.74594116210928], [-71.20470428466797, -70.74878692626943], [-71.18562316894531, -70.75326538085929], [-71.17568969726562, -70.75665283203115], [-71.10639953613281, -70.75759887695301], [-71.05194091796875, -70.76125335693351], [-71.01214599609375, -70.76470184326159], [-70.96842193603516, -70.76264953613268], [-70.9473876953125, -70.76583099365223], [-70.93303680419922, -70.77030181884754], [-70.91270446777344, -70.77355957031239], [-70.89778900146486, -70.7869873046874], [-70.86187744140625, -70.80041503906241], [-70.85806274414062, -70.80555725097645], [-70.84252166748047, -70.8210449218749], [-70.8261947631836, -70.82501983642568], [-70.80735778808594, -70.82525634765615], [-70.76445007324219, -70.82379913330067], [-70.75281524658203, -70.82485198974601], [-70.69578552246094, -70.83132171630848], [-70.66583251953125, -70.83664703369132], [-70.61305236816406, -70.83906555175771], [-70.59444427490234, -70.8390426635741], [-70.55487060546875, -70.83365631103504], [-70.5364990234375, -70.82514190673818], [-70.5216064453125, -70.81941986083974], [-70.4842529296875, -70.81427001953115], [-70.47187042236328, -70.81149291992179], [-70.44480895996094, -70.80806732177724], [-70.42229461669922, -70.80943298339832], [-70.40563201904297, -70.81360626220693], [-70.389892578125, -70.81842041015614], [-70.37352752685547, -70.82156372070303], [-70.35221862792969, -70.82252502441396], [-70.33882141113281, -70.82441711425771], [-70.31232452392578, -70.82716369628898], [-70.29901123046875, -70.83119201660146], [-70.28147888183594, -70.83686065673817], [-70.26435852050781, -70.83990478515616], [-70.23296356201172, -70.8396682739257], [-70.2104263305664, -70.84394073486318], [-70.19612884521484, -70.8510513305663], [-70.19713592529297, -70.86050415039051], [-70.20850372314453, -70.86717987060536], [-70.1985092163086, -70.88146972656241], [-70.1892318725586, -70.88250732421866], [-70.13059997558594, -70.88918304443348], [-70.11824798583984, -70.89225769042957], [-70.1026611328125, -70.89013671874991], [-70.10256958007812, -70.88505554199209], [-70.10955810546875, -70.88241577148429], [-70.1181869506836, -70.88050842285148], [-70.13026428222656, -70.87767028808585], [-70.14974212646484, -70.86663818359365], [-70.15355682373047, -70.86095428466787], [-70.1552963256836, -70.85715484619132], [-70.1428451538086, -70.85221099853507], [-70.1210708618164, -70.84616088867178], [-70.10075378417969, -70.84321594238273], [-70.05258178710938, -70.84709167480457], [-70.02914428710938, -70.84989929199209], [-70.01713562011719, -70.85487365722646], [-70.01164245605469, -70.85982513427723], [-69.99681091308594, -70.86366271972645], [-69.98530578613281, -70.86522674560537], [-69.98307800292969, -70.8686981201171], [-69.96495056152344, -70.87694549560536], [-69.95923614501953, -70.88427734374989], [-69.94371795654297, -70.8872299194335], [-69.93260192871094, -70.88697052001943], [-69.92135620117188, -70.8853530883788], [-69.90341186523438, -70.87732696533192], [-69.8983154296875, -70.86656188964835], [-69.88160705566406, -70.84504699707021], [-69.87237548828125, -70.84019470214835], [-69.84440612792969, -70.83682250976553], [-69.81876373291016, -70.84228515624989], [-69.79439544677734, -70.84950256347648], [-69.79029083251953, -70.85462188720693], [-69.79833984375001, -70.85906982421865], [-69.8062744140625, -70.86216735839834], [-69.79869842529297, -70.87836456298818], [-69.80521392822266, -70.88636779785148], [-69.80205535888672, -70.89935302734366], [-69.80468750000001, -70.9101028442382], [-69.81431579589844, -70.91606903076163], [-69.83084869384766, -70.9341049194335], [-69.86030578613281, -70.94137573242179], [-69.89191436767578, -70.9438247680663], [-69.91521453857422, -70.94420623779287], [-69.92247772216797, -70.9472122192382], [-69.92889404296875, -70.95172119140615], [-69.9239501953125, -70.95540618896474], [-69.91527557373047, -70.95730590820303], [-69.87801361083984, -70.96060180664053], [-69.85360717773438, -70.96410369873038], [-69.83963775634766, -70.97579193115224], [-69.83830261230469, -70.98499298095695], [-69.84185028076172, -70.99932098388663], [-69.85493469238281, -71.0081100463866], [-69.8532485961914, -71.0132522583007], [-69.84650421142578, -71.0228729248046], [-69.81954193115234, -71.04238891601554], [-69.81170654296875, -71.05295562744132], [-69.81918334960938, -71.06962585449209], [-69.84329986572266, -71.08399963378898], [-69.86490631103516, -71.0940628051757], [-69.86737823486328, -71.09916687011709], [-69.870849609375, -71.10412597656241], [-69.8892059326172, -71.10978698730459], [-69.89202880859375, -71.11386108398429], [-69.89286041259766, -71.11824035644524], [-69.91326904296875, -71.12867736816398], [-69.93009185791016, -71.1328048706054], [-69.9638900756836, -71.13652801513663], [-69.98848724365234, -71.13595581054679], [-70.0116958618164, -71.13147735595696], [-70.02733612060547, -71.12049102783193], [-70.05744934082031, -71.10613250732413], [-70.09119415283203, -71.08553314208974], [-70.10456848144533, -71.0742874145507], [-70.1050033569336, -71.06872558593741], [-70.11170196533203, -71.06124114990226], [-70.12158966064453, -71.05679321289054], [-70.12486267089844, -71.05237579345696], [-70.13191223144531, -71.04012298583977], [-70.15910339355469, -71.00675201416006], [-70.17244720458984, -70.98803710937491], [-70.18311309814453, -70.98208618164054], [-70.17938232421876, -70.9765853881835], [-70.17646789550781, -70.97330474853506], [-70.1755142211914, -70.96972656249991], [-70.17560577392578, -70.96520233154287], [-70.18640899658203, -70.96060180664053], [-70.19801330566406, -70.9582290649413], [-70.20790100097656, -70.95592498779287], [-70.2120361328125, -70.94921112060538], [-70.2239761352539, -70.94874572753896], [-70.24810028076172, -70.95130920410148], [-70.26520538330078, -70.95358276367178], [-70.30714416503906, -70.94808959960928], [-70.34610748291016, -70.94677734374991], [-70.37458801269531, -70.94609832763662], [-70.4078140258789, -70.94703674316398], [-70.41769409179688, -70.94844818115226], [-70.42868041992188, -70.95558929443348], [-70.44209289550781, -70.9590072631835], [-70.47247314453125, -70.96332550048818], [-70.49491119384766, -70.96219635009756], [-70.521484375, -70.96100616455067], [-70.53317260742188, -70.9607620239257], [-70.57295989990234, -70.9533691406249], [-70.58314514160156, -70.95374298095693], [-70.60929107666016, -70.95594787597646], [-70.633056640625, -70.96187591552727], [-70.6220932006836, -70.97205352783192], [-70.625732421875, -70.97699737548818], [-70.63731384277344, -70.97911834716787], [-70.66383361816406, -70.98934173583976], [-70.74816131591797, -70.99896240234365], [-70.776123046875, -71.00028228759757], [-70.81729125976562, -71.00070190429678], [-70.83661651611328, -70.99863433837884], [-70.85781860351562, -70.99864196777335], [-70.8873519897461, -71.00383758544913], [-70.90233612060547, -71.00739288330068], [-70.92987060546876, -71.00756835937489], [-70.94734191894533, -71.0026321411132], [-70.95930480957031, -70.99441528320303], [-70.98988342285156, -70.99015808105459], [-71.02047729492188, -70.98509216308585], [-71.02930450439453, -70.98289489746084], [-71.03260040283203, -70.97822570800771], [-71.03223419189453, -70.97393798828115], [-71.04180145263673, -70.97103118896474], [-71.08736419677734, -70.97798156738271], [-71.10694122314453, -70.98335266113273], [-71.12162780761719, -70.99029541015616], [-71.1534423828125, -70.99411010742178], [-71.16592407226562, -70.99151611328116], [-71.18374633789062, -70.98925018310536], [-71.19469451904297, -70.98967742919915], [-71.20330047607422, -70.98532867431632], [-71.20458984375, -70.98175811767571], [-71.20343780517578, -70.97817993164054], [-71.19087219238281, -70.97386932373037], [-71.1666259765625, -70.9698486328124], [-71.12728881835938, -70.96705627441398], [-71.11855316162111, -70.96607971191398], [-71.1052474975586, -70.96327209472646], [-71.07695770263672, -70.95692443847646], [-71.05907440185547, -70.95306396484364], [-71.03692626953125, -70.9455337524413], [-71.03561401367188, -70.94061279296866], [-71.04413604736328, -70.9309539794921], [-71.05970001220703, -70.93004608154288], [-71.07749938964844, -70.92700195312491], [-71.09290313720703, -70.9223632812499], [-71.10165405273438, -70.92175292968739], [-71.12104797363283, -70.92259216308584], [-71.12577056884766, -70.92816162109366], [-71.1387710571289, -70.93279266357413], [-71.14739990234375, -70.93773651123038], [-71.15045166015625, -70.94258880615224], [-71.1550064086914, -70.945213317871], [-71.1632308959961, -70.94666290283192], [-71.1759262084961, -70.94383239746084], [-71.18423461914062, -70.94131469726553], [-71.19174194335938, -70.9426803588866], [-71.1915512084961, -70.95220184326163], [-71.19892883300781, -70.95991516113273], [-71.22337341308594, -70.96607971191398], [-71.22766876220703, -70.97053527832023], [-71.22605895996094, -70.9791030883788], [-71.24131774902344, -70.98317718505852], [-71.27192687988281, -70.98735809326162], [-71.28217315673828, -70.98610687255851], [-71.28952026367188, -70.98294067382804], [-71.29889678955078, -70.97390747070304], [-71.32699584960938, -70.9648208618163], [-71.33551025390625, -70.96443176269523], [-71.35298156738281, -70.96794891357413], [-71.35990142822266, -70.98010253906241], [-71.35469818115234, -70.98827362060537], [-71.35734558105469, -70.99121093749991], [-71.3570556640625, -70.99541473388662], [-71.34944915771484, -70.99961853027334], [-71.34770202636719, -71.00366210937491], [-71.34861755371094, -71.00827026367178], [-71.34661865234375, -71.0125503540038], [-71.33236694335938, -71.0215835571288], [-71.34395599365234, -71.03160095214834], [-71.35166931152344, -71.0398635864257], [-71.37512969970703, -71.06204223632805], [-71.42796325683594, -71.09059143066398], [-71.46417236328125, -71.09585571289053], [-71.49446868896484, -71.11397552490226], [-71.51160430908203, -71.12271881103506], [-71.52655792236328, -71.12645721435538], [-71.55844116210939, -71.1447219848632], [-71.57268524169922, -71.14758300781241], [-71.5997085571289, -71.15234374999991], [-71.62500762939453, -71.15161895751946], [-71.64071655273438, -71.14986419677726], [-71.65496063232422, -71.1487503051757], [-71.66478729248047, -71.14953613281241], [-71.68370056152344, -71.15023803710929], [-71.69476318359375, -71.15142822265618], [-71.75792694091797, -71.15446472167959], [-71.77979278564453, -71.15467834472648], [-71.80582427978516, -71.15400695800773], [-71.830078125, -71.14944458007805], [-71.84452819824219, -71.1464843749999], [-71.86358642578125, -71.14057922363273], [-71.88092803955078, -71.1355438232421], [-71.88744354248047, -71.12910461425771], [-71.89762878417969, -71.12225341796865], [-71.92098999023438, -71.1128387451171], [-71.94255065917969, -71.11248016357412], [-71.99039459228517, -71.1143569946288], [-72.00725555419922, -71.11216735839835], [-72.01750183105469, -71.11007690429678], [-72.04595184326173, -71.10118865966787], [-72.07791900634766, -71.09689331054679], [-72.10169982910156, -71.09753417968741], [-72.11710357666016, -71.09677124023429], [-72.12632751464844, -71.09404754638662], [-72.13113403320312, -71.09085083007804], [-72.13495635986328, -71.08782196044913], [-72.1400146484375, -71.08518981933585], [-72.149169921875, -71.08824920654288], [-72.15421295166016, -71.09300231933585], [-72.16429901123047, -71.09431457519523], [-72.17972564697266, -71.09434509277335], [-72.20734405517578, -71.09273529052726], [-72.23059844970703, -71.08566284179678], [-72.23652648925783, -71.08047485351553], [-72.25480651855469, -71.06523895263663], [-72.2707748413086, -71.0671615600585], [-72.28721618652344, -71.0686035156249], [-72.3011474609375, -71.06846618652335], [-72.3468017578125, -71.05501556396474], [-72.37799835205078, -71.05296325683585], [-72.39960479736328, -71.0499267578124], [-72.41146087646484, -71.05272674560537], [-72.41888427734375, -71.06008148193351], [-72.44984436035156, -71.05825805664054], [-72.46939086914062, -71.06316375732412], [-72.47994995117188, -71.06398010253898], [-72.48921966552734, -71.0636138916015], [-72.51392364501953, -71.05903625488273], [-72.53009033203125, -71.05490112304679], [-72.53279113769531, -71.05043792724601], [-72.53045654296875, -71.04782867431629], [-72.51797485351562, -71.04734039306634], [-72.50103759765625, -71.05061340332023], [-72.48839569091797, -71.0519485473632], [-72.47610473632812, -71.05042266845696], [-72.46819305419922, -71.0485610961913], [-72.46633911132812, -71.04547119140615], [-72.47176361083984, -71.0415496826171], [-72.48091125488281, -71.03880310058585], [-72.48838806152344, -71.03694152832021], [-72.4965591430664, -71.03435516357413], [-72.50282287597656, -71.02789306640615], [-72.51021575927734, -71.0244369506835], [-72.52066802978516, -71.02366638183585], [-72.53797149658203, -71.02333831787101], [-72.54522705078125, -71.0267105102538], [-72.53968811035156, -71.03746032714835], [-72.53528594970703, -71.04200744628896], [-72.54148864746094, -71.04396057128899], [-72.54792785644531, -71.04566955566396], [-72.55948638916016, -71.04711151123038], [-72.57081604003906, -71.04879760742178], [-72.5860824584961, -71.0464096069335], [-72.58931732177736, -71.04305267333976], [-72.59107208251953, -71.0395507812499], [-72.59776306152344, -71.03681182861318], [-72.61249542236328, -71.03830718994132], [-72.62115478515625, -71.03603363037101], [-72.6322021484375, -71.04136657714834], [-72.64302825927734, -71.04273223876945], [-72.66062927246094, -71.0429382324218], [-72.6689224243164, -71.04693603515618], [-72.68219757080078, -71.04828643798821], [-72.69265747070312, -71.04750061035149], [-72.6970244528311, -71.04894347751113], [-72.71942138671875, -71.04573822021474], [-72.71966552734375, -71.04971313476554], [-72.6969985961914, -71.05057525634757], [-72.67874908447266, -71.05187988281243], [-72.66764068603516, -71.0541763305663], [-72.65478515625, -71.05576324462882], [-72.62583923339844, -71.04966735839834], [-72.61233520507812, -71.04855346679678], [-72.60086059570312, -71.04869842529287], [-72.58651733398438, -71.05434417724601], [-72.56421661376953, -71.06233215332023], [-72.5551528930664, -71.06667327880851], [-72.54988861083984, -71.06876373291006], [-72.54461669921875, -71.07086181640616], [-72.54722595214844, -71.07402038574209], [-72.55542755126953, -71.07643890380851], [-72.5748519897461, -71.07815551757804], [-72.58650970458984, -71.08538818359366], [-72.6161880493164, -71.09077453613273], [-72.63032531738281, -71.08957672119132], [-72.64094543457031, -71.08697509765615], [-72.65142822265625, -71.08198547363273], [-72.66139221191406, -71.0766830444335], [-72.67910766601564, -71.07427215576162], [-72.70281219482422, -71.06983184814445], [-72.72135925292969, -71.06907653808585], [-72.74295043945312, -71.07020568847646], [-72.76264190673828, -71.06824493408193], [-72.7811508178711, -71.06327056884757], [-72.79365539550781, -71.06374359130851], [-72.80682373046875, -71.06690216064445], [-72.82245635986328, -71.06663513183585], [-72.83478546142578, -71.06813812255851], [-72.82833862304688, -71.07405853271476], [-72.83828735351562, -71.07637023925773], [-72.84687805175781, -71.0767059326171], [-72.85535430908203, -71.07545471191396], [-72.8632583618164, -71.07650756835929], [-72.8538589477539, -71.08213043212882], [-72.83609008789062, -71.08718872070303], [-72.8293685913086, -71.08914184570304], [-72.84556579589844, -71.09680938720695], [-72.88166809082033, -71.09805297851555], [-72.89846801757812, -71.10681915283196], [-72.93173217773438, -71.10593414306632], [-72.94761657714845, -71.1019973754882], [-72.97463989257812, -71.09312438964834], [-72.94614223757999, -71.08908187425423], [-72.95453210965931, -71.08237845194995], [-72.94748934100299, -71.07282531708628], [-72.95475252459674, -71.06511199921519], [-72.94654329608112, -71.06006896943002], [-72.97404322648691, -71.0308962316267], [-72.9905783342733, -71.02600426158887], [-72.99784151786704, -71.01829094371776], [-73.01331392997642, -71.01561302623729], [-73.0169455217733, -71.01175255260449], [-73.04785982841392, -71.00639671764355], [-73.0728020145104, -70.99726346141183], [-73.11957823379977, -70.99142738795712], [-73.16152207416653, -70.99041274491795], [-73.20224070392334, -70.99396441823733], [-73.24538709898567, -70.99748777589517], [-73.28259091380262, -70.99037117958821], [-73.3016704756394, -70.97437136930357], [-73.3031005859375, -70.95926666259756], [-73.2947998046875, -70.954246520996], [-73.29010009765625, -70.94536590576162], [-73.27825927734375, -70.94420623779288], [-73.28179931640625, -70.94034576416006], [-73.277099609375, -70.93145751953114], [-73.2806396484375, -70.92759704589835], [-73.27096706399129, -70.90605111046864], [-73.26401638193133, -70.90007688763475], [-73.26400756835938, -70.89672088623037], [-73.26585594347864, -70.88589485432188], [-73.26068115234375, -70.8793182373046], [-73.27560151887977, -70.86926117118564], [-73.2775710472163, -70.85300366588784], [-73.31011962890625, -70.82526397705068], [-73.35483467634774, -70.81613704013344], [-73.3829345703125, -70.81558990478506], [-73.40228659318629, -70.81202344762472], [-73.44039916992188, -70.80860137939445], [-73.46035006018954, -70.79538979701093], [-73.47305297851562, -70.78656768798817], [-73.47653198242188, -70.78269958496082], [-73.51043701171875, -70.77339935302723], [-73.52754132782836, -70.7700757420107], [-73.55249165509362, -70.77174457025068], [-73.59137604523696, -70.76773602946405], [-73.61794475928579, -70.7680336880352], [-73.58705139160156, -70.75785827636709], [-73.56517791748047, -70.75128936767567], [-73.55399322509766, -70.74784088134754], [-73.54063415527344, -70.7397460937499], [-73.5389175415039, -70.7301559448241], [-73.53524017333984, -70.71567535400379], [-73.55621337890625, -70.69131469726553], [-73.5842056274414, -70.6749572753905], [-73.60613250732422, -70.67160797119129], [-73.63603210449219, -70.66458129882804], [-73.64447784423828, -70.65860748291004], [-73.67599487304688, -70.64704132080065], [-73.71003723144531, -70.63701629638662], [-73.7286605834961, -70.6283721923827], [-73.73621368408203, -70.62335968017567], [-73.74282836914062, -70.61851501464832], [-73.75817108154297, -70.61268615722643], [-73.82952880859375, -70.58407592773428], [-73.87164306640625, -70.57534027099597], [-73.93659973144531, -70.56278991699207], [-73.97147369384766, -70.55596160888662], [-73.91402045849249, -70.5536068777888], [-73.8124710186254, -70.54790334982924], [-73.77974415304169, -70.53818600081394], [-73.65776482083781, -70.5175609091821], [-73.60127140868819, -70.48649466502643], [-73.62516045312952, -70.45428586406095], [-73.65500624001727, -70.43435952343235], [-73.65872486452953, -70.41288021979942], [-73.68678305783064, -70.39066569613294], [-73.68921489225778, -70.38071086865321], [-73.7174611240266, -70.3680118432588], [-73.71384436452473, -70.36150658014643], [-73.74536299698987, -70.350408435677], [-73.731222989573, -70.34117618667038], [-73.86487973080327, -70.30260737124034], [-73.98250593757304, -70.26139127108927], [-74.10874964720311, -70.22385200152847], [-74.21839813641832, -70.18477053854997], [-74.35245367673129, -70.13789263282183], [-74.37581585488138, -70.13240792696737], [-74.37052366527479, -70.13918181980434], [-74.38835292883037, -70.13870650450164], [-74.41830504579116, -70.1306966074794], [-74.43199345336932, -70.13210943791441]], [[-72.20178785863813, -70.59331932746264], [-72.1994924905932, -70.60063230985314], [-72.18885407197664, -70.59949653610646], [-72.17616371903874, -70.59631186714157], [-72.17449142081776, -70.59235357874124], [-72.18214587630342, -70.59012401051919], [-72.19420245719117, -70.59092462528349], [-72.20178785863813, -70.59331932746264]], [[-70.76496657684386, -70.24956537404152], [-70.76366826486026, -70.25405473816082], [-70.7696058107415, -70.25780590058365], [-70.77050903466234, -70.26149375378378], [-70.77868807734059, -70.26497788720597], [-70.77196805495169, -70.28023614561393], [-70.78211662233659, -70.29323634026646], [-70.78210198632901, -70.30809130146397], [-70.7757763898796, -70.31915422281347], [-70.77239131213548, -70.33003294428691], [-70.74913056960379, -70.33499397158151], [-70.74027556014772, -70.34125055433722], [-70.69359122253854, -70.33269800113143], [-70.673800865546, -70.3282374843147], [-70.66482621958036, -70.32399075417518], [-70.66318975851199, -70.3187526365307], [-70.6558405351862, -70.31257293855333], [-70.64326834162196, -70.30763244671145], [-70.63966017097334, -70.30202706551643], [-70.66083958351354, -70.2911284002036], [-70.65512540947256, -70.28036274850788], [-70.65642424358978, -70.26644625239143], [-70.65248898498118, -70.26040433188416], [-70.64551478948209, -70.25426673044616], [-70.64755377815713, -70.2507921714696], [-70.6587130888484, -70.2476043232228], [-70.6829724963713, -70.24464295436094], [-70.68507566799795, -70.23958412056705], [-70.70394344185954, -70.23120530253397], [-70.71183559826609, -70.23267109172141], [-70.73374823417991, -70.2456127180646], [-70.74720819919894, -70.24852998817744], [-70.76496657684386, -70.24956537404152]], [[-70.75990077280319, -70.1488338218948], [-70.73340209166638, -70.1472797196594], [-70.70694171443081, -70.15023562877523], [-70.69331212452934, -70.14755232401754], [-70.69418452386492, -70.14367639500212], [-70.70381624415128, -70.13659868477347], [-70.71403314408445, -70.13728412219187], [-70.72595667443699, -70.1416202133468], [-70.76236114189808, -70.1456778896101], [-70.75990077280319, -70.1488338218948]], [[-72.05738348795961, -70.18771800821789], [-72.02850301233936, -70.18345205853382], [-72.01293905674555, -70.17955660630854], [-72.014279457022, -70.17479535564358], [-72.02155096894798, -70.17055139914504], [-72.03187319612378, -70.16773423163575], [-72.04660304792543, -70.16744675818381], [-72.06453809304658, -70.16969139700029], [-72.07739885342674, -70.17178557940449], [-72.08421024038466, -70.173487371699], [-72.08883416310933, -70.17917415989444], [-72.08711491782645, -70.18266579874307], [-72.06979569629009, -70.18608174678671], [-72.05738348795961, -70.18771800821789]], [[-72.05666225132899, -70.12575044383769], [-72.04617747569795, -70.12582173367947], [-72.04933898835287, -70.12208091128657], [-72.06076074179768, -70.1210224683861], [-72.06347875861384, -70.12363897166617], [-72.05666225132899, -70.12575044383769]], [[-72.40811805070295, -69.70754024524865], [-72.40424426620615, -69.7044210525352], [-72.41273610448337, -69.70248348076046], [-72.41522417082741, -69.70598844231401], [-72.40811805070295, -69.70754024524865]], [[-72.20742171316836, -69.70184100381286], [-72.19807059608915, -69.7018771393671], [-72.20289129514008, -69.69666344209121], [-72.21933149426422, -69.69903427883168], [-72.20742171316836, -69.70184100381286]], [[-72.37112605726536, -69.70274609455868], [-72.36659644919432, -69.69865517692791], [-72.37086300839242, -69.69625321617247], [-72.38080770927372, -69.6955549308995], [-72.37112605726536, -69.70274609455868]], [[-72.34674602099697, -69.69323046879221], [-72.33739922868315, -69.69327449782467], [-72.32609197407034, -69.69094593877104], [-72.31810696608818, -69.69401309759192], [-72.31916882056059, -69.69736348453932], [-72.32492686958705, -69.70123351749606], [-72.33196752820525, -69.7059633459763], [-72.33363088237608, -69.7086615493899], [-72.33221800310356, -69.7124564744499], [-72.31760552785094, -69.71371435670497], [-72.30568946351407, -69.7120364181865], [-72.30338991587776, -69.70890781873776], [-72.31010370269253, -69.70498112408671], [-72.3087434129586, -69.70195665800532], [-72.29303961579328, -69.69877965114877], [-72.28597154700552, -69.69296611730101], [-72.27377060149675, -69.69161198367796], [-72.26618690519656, -69.68861394387953], [-72.26603445982484, -69.68428542401519], [-72.27631532002268, -69.68434962428606], [-72.2866354692463, -69.6854953038523], [-72.29537965667588, -69.68610618464044], [-72.30374465236892, -69.68487839636065], [-72.32576106810207, -69.68228900998218], [-72.350032236044, -69.68174231429369], [-72.35877671424639, -69.68234982615564], [-72.36423970429054, -69.68654444262606], [-72.35813997564024, -69.68982085342246], [-72.34674602099697, -69.69323046879221]], [[-72.13001384923346, -70.03654231190593], [-72.12625219035458, -70.03926084178262], [-72.11817910057216, -70.03809870734942], [-72.10922267860829, -70.03534013369567], [-72.11250843316705, -70.03270557288641], [-72.12646049226227, -70.03397136425747], [-72.13001384923346, -70.03654231190593]], [[-71.90438089332258, -70.19921001134844], [-71.91432667212308, -70.20058432074642], [-71.90625689918248, -70.20269267019347], [-71.90438089332258, -70.19921001134844]], [[-71.88169570992014, -70.15098093039681], [-71.87347873546709, -70.15033998997322], [-71.87767311810144, -70.14098195785874], [-71.8884105962942, -70.14108472660865], [-71.89026445226794, -70.14374679502991], [-71.88169570992014, -70.15098093039681]], [[-71.8854023260512, -70.13420092880723], [-71.87455003072856, -70.13422121473084], [-71.87242963850717, -70.12975517552249], [-71.8804994209994, -70.12928916584588], [-71.8854023260512, -70.13420092880723]], [[-72.26803408327459, -70.5877027131658], [-72.26818303976803, -70.59173974924641], [-72.25342354672289, -70.59260688505329], [-72.2464573197153, -70.58918423022205], [-72.26046938089932, -70.58604496673563], [-72.26803408327459, -70.5877027131658]], [[-72.30847589450786, -70.56921712890957], [-72.31831537996352, -70.57269795304587], [-72.31272042266829, -70.57624598992517], [-72.30469759570082, -70.57697803708247], [-72.29550104216358, -70.57587945750865], [-72.28950193268152, -70.57183062452742], [-72.29683819388713, -70.56761533615914], [-72.30847589450786, -70.56921712890957]], [[-72.28105607819592, -70.5142820461116], [-72.27276487011495, -70.51303201059619], [-72.27628406470082, -70.51011834658412], [-72.28577897884946, -70.51125305280375], [-72.28105607819592, -70.5142820461116]], [[-72.25083038450482, -70.48071857043608], [-72.25590687302096, -70.48455109328195], [-72.2617935053991, -70.49249010010885], [-72.26449428242059, -70.49728625320384], [-72.26629613421022, -70.50149896833379], [-72.26432576168408, -70.5046996233413], [-72.25253104142999, -70.5128206770094], [-72.2483171087849, -70.52102116291414], [-72.24736159886945, -70.52506181473974], [-72.24074759189918, -70.52776699160479], [-72.23321827673769, -70.52952130916253], [-72.22387922355976, -70.5266948627423], [-72.22323451614228, -70.52394493140199], [-72.22644482296006, -70.52136370418405], [-72.23320319810978, -70.51964941518072], [-72.24126109190965, -70.514296660224], [-72.2440042969156, -70.51105644753264], [-72.24388710580592, -70.50775416470094], [-72.24553032474816, -70.50451833262252], [-72.2432160808529, -70.50122481328206], [-72.23614037563841, -70.49681242489824], [-72.21828244739902, -70.4948998218047], [-72.21544381249136, -70.4921584658925], [-72.22346480958078, -70.4891188557125], [-72.22875845756383, -70.48663988995892], [-72.23130457553377, -70.48094238333213], [-72.2079836940839, -70.47600444636545], [-72.19563232000326, -70.4740689252714], [-72.19212757745838, -70.47088951000565], [-72.20092188351765, -70.46817852095067], [-72.2193510537663, -70.46832925075597], [-72.2340993080453, -70.47612460079206], [-72.25083038450482, -70.48071857043608]], [[-72.19761029211602, -70.25672467240985], [-72.18765404181643, -70.25496572743913], [-72.18792560593167, -70.25214858549339], [-72.1965035578465, -70.25240252962391], [-72.19761029211602, -70.25672467240985]], [[-70.63647022063749, -70.22559236454386], [-70.62955516895434, -70.22325690575252], [-70.6362566895758, -70.21992985623055], [-70.64662858531051, -70.22088900842672], [-70.63647022063749, -70.22559236454386]], [[-70.37274891776713, -70.2402279316126], [-70.3658858609597, -70.23747150464584], [-70.36392282443332, -70.23392906421412], [-70.36389389314732, -70.23048242826417], [-70.37271049065463, -70.23099608801037], [-70.37697279428372, -70.23660599763694], [-70.37274891776713, -70.2402279316126]], [[-70.6574145835887, -70.19157567879463], [-70.66606958951513, -70.19380007344793], [-70.67564517865023, -70.19891986190589], [-70.6991735252258, -70.2056953326823], [-70.71165911433424, -70.21142211629972], [-70.71336911357147, -70.2150743028001], [-70.70216706017331, -70.21984927786774], [-70.70247981699839, -70.22333611719377], [-70.69191752229864, -70.22672762252559], [-70.67146230395355, -70.21620463356508], [-70.66810195816932, -70.21301847812161], [-70.66622928493261, -70.20801841231425], [-70.66838769812308, -70.20177252461694], [-70.65298172013016, -70.19396753978425], [-70.6574145835887, -70.19157567879463]], [[-71.21860612712572, -70.84121324612228], [-71.20927463729666, -70.84099005957951], [-71.20148911623427, -70.8380714575379], [-71.20675962228218, -70.83579304587361], [-71.21643077377823, -70.83769315354586], [-71.21860612712572, -70.84121324612228]], [[-71.18399152826245, -70.82327641217626], [-71.17735962008724, -70.82526487433643], [-71.17329829156957, -70.82918024536632], [-71.17531225278012, -70.83404950281769], [-71.17174810869716, -70.83788428878519], [-71.15880368460218, -70.83793638248095], [-71.15562314939245, -70.83539433105283], [-71.1565926408892, -70.83085887239666], [-71.16554057498276, -70.82544258441139], [-71.17254687734041, -70.81748708903761], [-71.17695260825754, -70.81483986163998], [-71.18981135952109, -70.81204744761213], [-71.19582798755968, -70.80944413240948], [-71.20855369852589, -70.8067727408], [-71.22181135116557, -70.80880235922986], [-71.23565391927346, -70.81308035238403], [-71.24152420151967, -70.81865077205883], [-71.20596179478119, -70.81890814584166], [-71.19698172531805, -70.8203610428937], [-71.18399152826245, -70.82327641217626]], [[-71.25097193318372, -70.24897453570243], [-71.23906844012772, -70.24993659328233], [-71.23560162224892, -70.24693524154291], [-71.24302234929482, -70.24559577651387], [-71.25097193318372, -70.24897453570243]], [[-69.98476852220941, -70.30731199946456], [-69.9794165393046, -70.30430692150172], [-69.98290456488702, -70.30183576388006], [-69.99007004064539, -70.30050688831777], [-69.99562084596627, -70.30256942170493], [-69.99367846334755, -70.30550662467236], [-69.98476852220941, -70.30731199946456]], [[-70.7876119627493, -70.22663984609656], [-70.7882891083937, -70.22141516397556], [-70.79398657217693, -70.21930261073426], [-70.83757702416293, -70.21688186220078], [-70.83875161213184, -70.22298585669348], [-70.81259813704105, -70.22786172174467], [-70.79266667364588, -70.22896007587445], [-70.7876119627493, -70.22663984609656]], [[-71.28560272013101, -70.87055860635783], [-71.26035220699534, -70.87586918157099], [-71.24051897828653, -70.87508303694709], [-71.2153906715425, -70.87281272341741], [-71.20254139664577, -70.87049048001161], [-71.18965530010792, -70.8638986421445], [-71.1740069724841, -70.86129856792246], [-71.16289337380276, -70.85901059837914], [-71.17792388587019, -70.8536635074278], [-71.19869107806801, -70.85032303062471], [-71.23414246206619, -70.85320457919438], [-71.25340333616684, -70.85745483402258], [-71.27506428604278, -70.86355868032871], [-71.28414333328509, -70.86703460805009], [-71.30872325230867, -70.86872871807336], [-71.28560272013101, -70.87055860635783]], [[-71.42798472902626, -70.38571003658392], [-71.42169993534694, -70.38146098818207], [-71.40598548027329, -70.37260579475553], [-71.40180139522884, -70.36977268332613], [-71.39761854076706, -70.36693949252312], [-71.39343691638969, -70.36410622239728], [-71.38925652159875, -70.36127287299959], [-71.38192699022915, -70.35808245491016], [-71.36165241909866, -70.34618085395991], [-71.3464982737381, -70.33045848599954], [-71.33400329058514, -70.32195558226213], [-71.32984074144568, -70.31912112387283], [-71.33209710426739, -70.31033285763965], [-71.33068131510437, -70.30705591875521], [-71.32174360644542, -70.30429001487799], [-71.3063572130915, -70.30292462500663], [-71.31802952000571, -70.29944872815241], [-71.32908112941766, -70.29543019770458], [-71.33892272238762, -70.2851768528932], [-71.35019458162223, -70.28131581774403], [-71.31954180722649, -70.26985289276932], [-71.29942447897947, -70.26878270723364], [-71.30688316665076, -70.26333812487348], [-71.30222042673718, -70.26093844632086], [-71.30011839670172, -70.25776085668193], [-71.32698569666165, -70.25765543118315], [-71.34546554821996, -70.26130073330671], [-71.36897356087496, -70.25745803317835], [-71.38658093939887, -70.2611063441097], [-71.4058403481799, -70.27020919698782], [-71.44813251579814, -70.26651808759478], [-71.48323210539012, -70.26693683841101], [-71.4905438093311, -70.2701220466104], [-71.51347671264242, -70.27851614061836], [-71.53866515757414, -70.28144979331789], [-71.55806907466096, -70.28052140170053], [-71.58106369666581, -70.28099020976452], [-71.5795504670593, -70.28498664559848], [-71.58702461339523, -70.2894144600213], [-71.60264983279146, -70.29282317728267], [-71.60465988018348, -70.29594310527236], [-71.62551372354451, -70.30208985596819], [-71.64606657161453, -70.30348661408917], [-71.65509567073042, -70.30251760877069], [-71.66258853078212, -70.29981156154278], [-71.67305016652558, -70.29626989229371], [-71.6688444034166, -70.2934438619839], [-71.67519054680324, -70.29178794795973], [-71.67503128003337, -70.28876450593094], [-71.67089209376468, -70.28425014655481], [-71.67191520921415, -70.27965337208285], [-71.68952612331012, -70.27352089252472], [-71.69682602975152, -70.2696265351149], [-71.70308429733186, -70.26679334662673], [-71.73009951639493, -70.26051264549585], [-71.75315797705356, -70.26543809328443], [-71.75763922729443, -70.26974185926564], [-71.76302506531164, -70.27286447535988], [-71.77419637199337, -70.2760197026672], [-71.78326936902765, -70.27842640305605], [-71.79310475364359, -70.28165214765482], [-71.79943855292736, -70.28588618797794], [-71.81464116285446, -70.28860781763036], [-71.82098119247962, -70.29284132450833], [-71.81585513319928, -70.30168810690061], [-71.79132488879566, -70.30852565251601], [-71.78650394958242, -70.3109757118182], [-71.78996167335694, -70.31682279352052], [-71.78334463127685, -70.32308450691521], [-71.77042105740178, -70.32752722644231], [-71.76626752636201, -70.33177547729032], [-71.7551003154277, -70.35091422369861], [-71.76560723967829, -70.35629466694142], [-71.77091950885347, -70.36159281831475], [-71.77110191107151, -70.3650131128073], [-71.76693930109761, -70.36926170381912], [-71.7638520334389, -70.3759845526249], [-71.75463431110198, -70.38569335364255], [-71.74626034148142, -70.3906540337919], [-71.73792677753403, -70.39156833884635], [-71.74186290773757, -70.39435947916125], [-71.74205053156334, -70.39896880713587], [-71.73787536442548, -70.40321719005213], [-71.72382275790744, -70.4075395145642], [-71.72086329895438, -70.4125730872693], [-71.7113943069842, -70.41505727916582], [-71.70281133742492, -70.41581142399244], [-71.70179071552882, -70.4204102683038], [-71.71347518994064, -70.42326960846547], [-71.71819714386778, -70.42603628718295], [-71.71003596992031, -70.43103195178962], [-71.69254284642183, -70.4341721197585], [-71.68305953890625, -70.43665489614516], [-71.67357377871753, -70.43913716425448], [-71.66622367572062, -70.44500510915306], [-71.64299824771064, -70.44870421842663], [-71.63493767200188, -70.45331499304355], [-71.61370667738382, -70.45620610051398], [-71.58586010077015, -70.45231206783494], [-71.57280709737132, -70.44770611651212], [-71.56707443176276, -70.44487810585906], [-71.55973049572388, -70.44082660713013], [-71.55747953285527, -70.43816466471915], [-71.54779572574155, -70.43344023620006], [-71.53961586946215, -70.42873206133356], [-71.52685780488407, -70.4235703703102], [-71.51526156942265, -70.42109159274709], [-71.50366832587974, -70.41861204608904], [-71.4931363507732, -70.41507110850068], [-71.47522783521657, -70.4118795656988], [-71.47525057926543, -70.40873003280593], [-71.46715595782645, -70.40861248283682], [-71.46295489479064, -70.40578062710905], [-71.45525092701595, -70.40412050574838], [-71.4485749204971, -70.4025854324813], [-71.44579575890768, -70.39951638482553], [-71.4342722980264, -70.38995890570446], [-71.42798472902626, -70.38571003658392]], [[-72.16256499753835, -69.78600817969374], [-72.1539555071234, -69.78073434776992], [-72.16717820319185, -69.78328500394917], [-72.16256499753835, -69.78600817969374]], [[-71.60692684206269, -70.11182352812014], [-71.60932828499851, -70.10854249416039], [-71.61726881822382, -70.10575188558238], [-71.62555947685532, -70.10013150851375], [-71.63555940950494, -70.1026288698288], [-71.61944940434495, -70.1105077745949], [-71.60692684206269, -70.11182352812014]], [[-72.26941427623845, -70.17955521183146], [-72.26715284109439, -70.1768714793235], [-72.27535137527069, -70.17749006710325], [-72.26941427623845, -70.17955521183146]], [[-70.50131154501993, -70.21630677198323], [-70.52124508521842, -70.21831185108051], [-70.51573302237794, -70.22138978486247], [-70.50583225932643, -70.22020153191932], [-70.49681415285869, -70.21716211038597], [-70.4863400266341, -70.21573911770551], [-70.47413762297305, -70.22065137227574], [-70.46224419505263, -70.2200197462358], [-70.46433463105676, -70.21203270236187], [-70.45828471024019, -70.2055232099726], [-70.46305986964397, -70.19896706339807], [-70.45499300495318, -70.1954955707866], [-70.45775579793835, -70.19210769299126], [-70.47809201393164, -70.1876457027915], [-70.48293691503788, -70.18450853378789], [-70.49027270162725, -70.18273363899966], [-70.50053866685354, -70.18153231467774], [-70.50849275863457, -70.18253180715564], [-70.5089603590499, -70.18546218837263], [-70.50290006065674, -70.19089262208715], [-70.50329325147281, -70.19651887969687], [-70.49184737406439, -70.20072389025607], [-70.4899448872447, -70.20554365583574], [-70.49878301053347, -70.21058997328426], [-70.49860899389762, -70.2137573820866], [-70.50131154501993, -70.21630677198323]], [[-71.1699079598531, -70.90775258748586], [-71.15830973702568, -70.90686735089338], [-71.15353976448729, -70.9022357729496], [-71.15822311592262, -70.89934365519683], [-71.16556091713063, -70.90070987261359], [-71.16861775900817, -70.9037834554172], [-71.1699079598531, -70.90775258748586]], [[-71.31224460153427, -70.89435953861802], [-71.2979333774888, -70.89127176138453], [-71.29773268102612, -70.88783699671961], [-71.31241510973258, -70.89096618746744], [-71.31224460153427, -70.89435953861802]], [[-71.25765160469638, -70.84365752001324], [-71.24849588445832, -70.84768841787283], [-71.24255842788344, -70.84538817529642], [-71.25765160469638, -70.84365752001324]], [[-72.12485194793582, -70.14600488322566], [-72.12478506168156, -70.14367786906502], [-72.1317635135837, -70.14351491588414], [-72.13320050545832, -70.14583731657653], [-72.12485194793582, -70.14600488322566]], [[-72.05723142452659, -70.0875284490689], [-72.05625354565024, -70.08664711975551], [-72.05664083277576, -70.08576180004991], [-72.05921446354951, -70.08496313962347], [-72.0605794843928, -70.08495912065098], [-72.06210113817473, -70.08574574120954], [-72.0620037033744, -70.08728172599967], [-72.05723142452659, -70.0875284490689]], [[-72.02234280666298, -70.09605013032504], [-72.01903457418338, -70.09475605260593], [-72.0201119590412, -70.09410162145876], [-72.02433129517833, -70.09348516849343], [-72.02641821901514, -70.09510825318102], [-72.02234280666298, -70.09605013032504]], [[-71.9827481667627, -70.17500772315009], [-71.98304848553019, -70.17302870114814], [-71.98495613005541, -70.17246539537965], [-71.98906458614454, -70.17222238665295], [-71.99061054336899, -70.17394075888303], [-71.98775412239996, -70.17501853605272], [-71.9827481667627, -70.17500772315009]], [[-71.88091802886072, -70.17487987227334], [-71.89028811780935, -70.17344238762978], [-71.8981628964913, -70.17284519115483], [-71.90063189096722, -70.17288684759399], [-71.90010104373698, -70.17391194067547], [-71.89353770305931, -70.17504197644647], [-71.88462759332563, -70.17529181653079], [-71.88091802886072, -70.17487987227334]], [[-71.88452370631249, -70.189838383374], [-71.88197751913859, -70.18940096074115], [-71.88196992800388, -70.18893548223443], [-71.88400172187974, -70.18730243819174], [-71.88687340439566, -70.18669185416036], [-71.88940769425938, -70.18643098716298], [-71.89196931879793, -70.18779924508512], [-71.89117173046762, -70.18933691163352], [-71.88856962765152, -70.18966776057655], [-71.88452370631249, -70.189838383374]], [[-71.84021838475522, -70.19645658728412], [-71.83862939813615, -70.19573764165166], [-71.84111590521462, -70.19198634330021], [-71.84480778485005, -70.19100273218612], [-71.84899970811064, -70.19139140850334], [-71.84888489268916, -70.19292773633613], [-71.84527390962933, -70.1947724794604], [-71.84021838475522, -70.19645658728412]], [[-71.8601940609653, -70.18287704828101], [-71.85859841694312, -70.1816928495286], [-71.85961495957449, -70.18087648755977], [-71.86220926361727, -70.18008062591629], [-71.86529027043711, -70.17972606601738], [-71.86729842149623, -70.18095600535027], [-71.86375893304997, -70.18273113524634], [-71.8601940609653, -70.18287704828101]], [[-71.76857646440557, -70.17258572169592], [-71.76800952120288, -70.17081763853466], [-71.77032514492012, -70.16937190407508], [-71.77334829427991, -70.17001984673905], [-71.77282076252108, -70.17197544525932], [-71.76857646440557, -70.17258572169592]], [[-71.75736959988402, -70.10702107670774], [-71.76350276443112, -70.10538514237102], [-71.7659653255302, -70.10566144402223], [-71.76762156585747, -70.10724173428389], [-71.76422163707113, -70.10887461445071], [-71.75736959988402, -70.10702107670774]], [[-71.66022899837456, -70.11236283558262], [-71.65680386729885, -70.110735907558], [-71.66213305275147, -70.110407152437], [-71.67991031919458, -70.111792097048], [-71.68019030124383, -70.11290882131368], [-71.68005990996164, -70.11397929134405], [-71.66966195881903, -70.11249685102325], [-71.66022899837456, -70.11236283558262]], [[-71.6328047409335, -70.12740824659596], [-71.63184408019104, -70.126524368622], [-71.63307087882126, -70.1252672991218], [-71.63648293798289, -70.12317159910278], [-71.64003585607962, -70.12233234305799], [-71.64386839050785, -70.12307522497494], [-71.64455700497554, -70.12423839247185], [-71.6400519689456, -70.12652091335364], [-71.6328047409335, -70.12740824659596]], [[-71.92865520463114, -70.11135705423531], [-71.93049736078066, -70.107536898459], [-71.93204315435318, -70.1061606554167], [-71.93475416316085, -70.1049912676994], [-71.93706735884011, -70.10447425057596], [-71.93904998797021, -70.10453966159898], [-71.9390856689646, -70.10640110643402], [-71.9361155601324, -70.10831575538417], [-71.92865520463114, -70.11135705423531]], [[-71.76841870051496, -70.0886611251921], [-71.77030716244876, -70.08647168708524], [-71.7724150211178, -70.08570127638842], [-71.7751452497352, -70.08569788589244], [-71.775355278049, -70.08618623808393], [-71.77461018851193, -70.08672231905257], [-71.77352996172151, -70.08784050053839], [-71.77155697166059, -70.08847115894353], [-71.76841870051496, -70.0886611251921]], [[-71.72445113399925, -70.07984376524612], [-71.72484570286758, -70.07802857799852], [-71.72565565450601, -70.07695753622424], [-71.72702016166016, -70.07695622632357], [-71.72859148677024, -70.07721063789533], [-71.72935117062798, -70.0783034340128], [-71.72574818152331, -70.07991233051406], [-71.72445113399925, -70.07984376524612]], [[-72.13923847840728, -70.01508556567387], [-72.14125132523704, -70.01414811414615], [-72.14503336307422, -70.01325105021287], [-72.14709409872509, -70.01394180501825], [-72.14863448977498, -70.01542531080938], [-72.14442212285664, -70.01557951475155], [-72.13923847840728, -70.01508556567387]], [[-71.89006505869308, -70.00218080024135], [-71.88626795505775, -69.99858256557845], [-71.88362683838922, -69.99495882784568], [-71.8851860284595, -69.99474650053463], [-71.89209708105454, -69.99768733801419], [-71.89285890219277, -69.99854652535049], [-71.89318441405386, -70.00175600216292], [-71.89006505869308, -70.00218080024135]], [[-72.2573151721795, -69.70534687872312], [-72.2571214362631, -69.70362774622879], [-72.25883109656465, -69.70273735610468], [-72.26486367666038, -69.70294430892244], [-72.26032371011739, -69.70521801967305], [-72.2573151721795, -69.70534687872312]], [[-72.19769292389664, -69.71067628431098], [-72.19599297594931, -69.70986929827546], [-72.19728789461762, -69.70846979134423], [-72.19932430579215, -69.70723012873626], [-72.20145492826722, -69.70685004921934], [-72.20361531751756, -69.70739952390662], [-72.20258725997154, -69.70875156244213], [-72.20109849561437, -69.7103610442062], [-72.19769292389664, -69.71067628431098]], [[-72.06695164075198, -69.71690124491035], [-72.06689883277447, -69.71480958131578], [-72.06908622083928, -69.71389646564168], [-72.07168828538956, -69.71349338211571], [-72.0745926914396, -69.71443738251966], [-72.06695164075198, -69.71690124491035]], [[-71.9888325099292, -69.7292064132791], [-71.99324247235732, -69.72854423604586], [-71.9953642075733, -69.72746954142163], [-71.99617051590437, -69.72756041178918], [-71.99646283850133, -69.72867531821838], [-71.99587319196206, -69.72930442232588], [-71.9888325099292, -69.7292064132791]], [[-71.70321558469286, -69.73549115361429], [-71.6994445721014, -69.73312348179009], [-71.70177914886592, -69.73137835624266], [-71.71138817301518, -69.73441494191026], [-71.71745114948122, -69.73812835957538], [-71.71584378200818, -69.73840875250256], [-71.70537014891173, -69.73674446504884], [-71.70321558469286, -69.73549115361429]], [[-72.1634937437666, -70.2270100444174], [-72.16464018558192, -70.22628436493717], [-72.16827726896388, -70.22606193619278], [-72.1694597357656, -70.2265000009637], [-72.17236463449194, -70.22704827653459], [-72.16607282233925, -70.22814153532393], [-72.1634937437666, -70.2270100444174]], [[-72.35802747508703, -70.2896282611226], [-72.36070962860815, -70.28775304558967], [-72.36318460266659, -70.28755515917881], [-72.367341636691, -70.2880012253257], [-72.36879830687568, -70.28985700276849], [-72.36607807001613, -70.29080119927706], [-72.35802747508703, -70.2896282611226]], [[-70.49960022101399, -70.37325397058594], [-70.50235301744902, -70.37108182957917], [-70.50524383370929, -70.37142590139884], [-70.5093226980244, -70.37284865928473], [-70.50567494605025, -70.37366449148622], [-70.49960022101399, -70.37325397058594]], [[-70.54783457644096, -70.38617235469714], [-70.54540352076633, -70.38494668861577], [-70.54615821957191, -70.38378663826651], [-70.54783624962398, -70.38351716267569], [-70.55004899404754, -70.38362351298896], [-70.55109404723153, -70.38484087185005], [-70.55157984071735, -70.38614807039303], [-70.54783457644096, -70.38617235469714]], [[-70.35652147491436, -70.36380960991376], [-70.36001113315234, -70.36227381803783], [-70.36239661565853, -70.36177827221228], [-70.36569595363137, -70.3621741943686], [-70.36643391111707, -70.3636700250258], [-70.36553652184277, -70.36473510721622], [-70.36161805625518, -70.3642649354202], [-70.35652147491436, -70.36380960991376]]]}}]}