{
 "type": "FeatureCollection",
 "features": [
  {
   "type": "Feature",
   "bbox": [
    -67.7485854485983,
    -71.8700604087535,
    -67.38849674172714,
    -71.71000355892808
   ],
   "properties": {
    "pond_id": "19DEA-3145",
    "area_km2": 34.04,
    "scene_date": "2021-01-24"
   },
   "geometry": null
  },
  {
   "type": "Feature",
   "bbox": [
    -67.61316396519722,
    -71.71498503808456,
    -67.44258506513877,
    -71.6773569632849
   ],
   "properties": {
    "pond_id": "19DEA-2627",
    "area_km2": 5.82,
    "scene_date": "2021-01-24"
   },
   "geometry": null
  },
  {
   "type": "Feature",
   "bbox": [
    -67.71766864186746,
    -71.90106387975024,
    -67.59048103810218,
    -71.86619382108205
   ],
   "properties": {
    "pond_id": "19DEA-7713",
    "area_km2": 3.33,
    "scene_date": "2021-01-24"
   },
   "geometry": null
  },
  {
   "type": "Feature",
   "bbox": [
    -68.20831867245421,
    -71.98958231818432,
    -68.12603381249936,
    -71.95829722142705
   ],
   "properties": {
    "pond_id": "19DEA-14616",
    "area_km2": 2.91,
    "scene_date": "2021-01-24"
   },
   "geometry": null
  },
  {
   "type": "Feature",
   "bbox": [
    -67.84358333377568,
    -71.84258487151804,
    -67.77420067618647,
    -71.7820779060557
   ],
   "properties": {
    "pond_id": "19DEA-5247",
    "area_km2": 2.73,
    "scene_date": "2021-01-24"
   },
   "geometry": null
  },
  {
   "type": "Feature",
   "bbox": [
    -67.6276960412854,
    -71.74306822691145,
    -67.49118204213828,
    -71.70796769588178
   ],
   "properties": {
    "pond_id": "19DEA-3118",
    "area_km2": 2.7,
    "scene_date": "2021-01-24"
   },
   "geometry": null
  },
  {
   "type": "Feature",
   "bbox": [
    -67.74530978268713,
    -71.85013218231177,
    -67.67404749679912,
    -71.8122628663796
   ],
   "properties": {
    "pond_id": "19DEA-6077",
    "area_km2": 2.12,
    "scene_date": "2021-01-24"
   },
   "geometry": null
  },
  {
   "type": "Feature",
   "bbox": [
    -67.34841008522608,
    -71.76688215343137,
    -67.22121770794703,
    -71.74260958051477
   ],
   "properties": {
    "pond_id": "19DEA-4515",
    "area_km2": 1.72,
    "scene_date": "2021-01-24"
   },
   "geometry": null
  },
  {
   "type": "Feature",
   "bbox": [
    -68.72636946253249,
    -72.23198512043352,
    -68.61093388578718,
    -72.2066883490369
   ],
   "properties": {
    "pond_id": "19CEV-6552",
    "area_km2": 2.0,
    "scene_date": "2021-01-24"
   },
   "geometry": null
  },
  {
   "type": "Feature",
   "bbox": [
    -68.71716696340523,
    -72.31480965822895,
    -68.60475017779372,
    -72.27615644185808
   ],
   "properties": {
    "pond_id": "19CEV-8090",
    "area_km2": 1.14,
    "scene_date": "2021-01-24"
   },
   "geometry": null
  },
  {
   "type": "Feature",
   "bbox": [
    -68.69485877906268,
    -72.25542751403968,
    -68.58215922131981,
    -72.23433199169445
   ],
   "properties": {
    "pond_id": "19CEV-6685",
    "area_km2": 1.03,
    "scene_date": "2021-01-24"
   },
   "geometry": null
  },
  {
   "type": "Feature",
   "bbox": [
    -66.69853792674101,
    -72.10820349854453,
    -66.64913016976736,
    -72.0882383344825
   ],
   "properties": {
    "pond_id": "19CEV-378",
    "area_km2": 0.74,
    "scene_date": "2021-01-24"
   },
   "geometry": null
  },
  {
   "type": "Feature",
   "bbox": [
    -68.56341023270859,
    -72.14598313836217,
    -68.52960678891424,
    -72.13075351349866
   ],
   "properties": {
    "pond_id": "19CEV-3158",
    "area_km2": 0.66,
    "scene_date": "2021-01-24"
   },
   "geometry": null
  },
  {
   "type": "Feature",
   "bbox": [
    -68.82795412523971,
    -72.32596397456061,
    -68.75388519541947,
    -72.28195698710775
   ],
   "properties": {
    "pond_id": "19CEV-8103",
    "area_km2": 0.59,
    "scene_date": "2021-01-24"
   },
   "geometry": null
  }
 ]
}