{
 "type": "FeatureCollection",
 "features": [
  {
   "type": "Feature",
   "bbox": [
    -68.58258844452878,
    -71.23044262512265,
    -68.54170481353673,
    -71.21644972243963
   ],
   "properties": {
    "pond_id": "19DEA-2022-01-11-97",
    "area_km2": 0.52,
    "scene_date": "2022-01-11"
   },
   "geometry": null
  },
  {
   "type": "Feature",
   "bbox": [
    -68.89714210417488,
    -71.30341269951754,
    -68.85446068154465,
    -71.29235646805977
   ],
   "properties": {
    "pond_id": "19DEA-2022-01-11-351",
    "area_km2": 0.51,
    "scene_date": "2022-01-11"
   },
   "geometry": null
  },
  {
   "type": "Feature",
   "bbox": [
    -68.89423858586537,
    -71.27203026997194,
    -68.86417541446582,
    -71.26134147077894
   ],
   "properties": {
    "pond_id": "19DEA-2022-01-11-230",
    "area_km2": 0.51,
    "scene_date": "2022-01-11"
   },
   "geometry": null
  },
  {
   "type": "Feature",
   "bbox": [
    -68.89531858473758,
    -71.27875534433848,
    -68.86306107862899,
    -71.26116134360993
   ],
   "properties": {
    "pond_id": "19DEA-2022-01-22-148",
    "area_km2": 0.62,
    "scene_date": "2022-01-22"
   },
   "geometry": null
  },
  {
   "type": "Feature",
   "bbox": [
    -68.89411190465647,
    -71.2440563471346,
    -68.85020424678069,
    -71.22851529882115
   ],
   "properties": {
    "pond_id": "19DEA-2022-01-01-86",
    "area_km2": 0.69,
    "scene_date": "2022-01-01"
   },
   "geometry": null
  },
  {
   "type": "Feature",
   "bbox": [
    -68.89714210417488,
    -71.30341269951754,
    -68.85362467453646,
    -71.2920868419381
   ],
   "properties": {
    "pond_id": "19DEA-2022-01-01-165",
    "area_km2": 0.56,
    "scene_date": "2022-01-01"
   },
   "geometry": null
  }
 ]
}