{
 "type": "FeatureCollection",
 "features": [
  {
   "type": "Feature",
   "bbox": [
    -66.79681815674972,
    -72.5736402045347,
    -66.76422551479985,
    -72.55408249809958
   ],
   "properties": {
    "pond_id": "19CEV-2018-02-22-6358",
    "area_km2": 1.13,
    "scene_date": "2018-02-22"
   },
   "geometry": null
  },
  {
   "type": "Feature",
   "bbox": [
    -66.8687687227928,
    -72.66869119594189,
    -66.83722113285931,
    -72.65086332446671
   ],
   "properties": {
    "pond_id": "19CEV-2018-02-22-8838",
    "area_km2": 0.67,
    "scene_date": "2018-02-22"
   },
   "geometry": null
  }
 ]
}