{
 "type": "FeatureCollection",
 "features": [
  {
   "type": "Feature",
   "bbox": [
    -68.19862871591195,
    -71.91162797620191,
    -67.33990214379251,
    -71.1947816116337
   ],
   "properties": {
    "pond_id": "19DEA-2020-01-29-28",
    "area_km2": 603.01,
    "scene_date": "2020-01-29"
   },
   "geometry": null
  },
  {
   "type": "Feature",
   "bbox": [
    -68.2154179798209,
    -71.3308601136121,
    -67.98214586509744,
    -71.19936512400622
   ],
   "properties": {
    "pond_id": "19DEA-2020-01-29-19",
    "area_km2": 30.03,
    "scene_date": "2020-01-29"
   },
   "geometry": null
  },
  {
   "type": "Feature",
   "bbox": [
    -68.34458804408438,
    -71.99591639683032,
    -68.03420351999328,
    -71.90460257530775
   ],
   "properties": {
    "pond_id": "19DEA-2020-01-29-125411",
    "area_km2": 17.37,
    "scene_date": "2020-01-29"
   },
   "geometry": null
  },
  {
   "type": "Feature",
   "bbox": [
    -68.30934417646158,
    -72.04734780400862,
    -68.2034131140769,
    -72.00265262611687
   ],
   "properties": {
    "pond_id": "19DEA-2020-01-29-134498",
    "area_km2": 4.3,
    "scene_date": "2020-01-29"
   },
   "geometry": null
  },
  {
   "type": "Feature",
   "bbox": [
    -67.84946270097208,
    -71.23796555392015,
    -67.77333211615903,
    -71.20367619363846
   ],
   "properties": {
    "pond_id": "19DEA-2020-01-29-139",
    "area_km2": 4.16,
    "scene_date": "2020-01-29"
   },
   "geometry": null
  },
  {
   "type": "Feature",
   "bbox": [
    -68.37611733076399,
    -72.11911819355554,
    -68.29852909315385,
    -72.04892308880879
   ],
   "properties": {
    "pond_id": "19DEA-2020-01-29-135779",
    "area_km2": 3.19,
    "scene_date": "2020-01-29"
   },
   "geometry": null
  },
  {
   "type": "Feature",
   "bbox": [
    -67.73822689570386,
    -71.21752280804186,
    -67.64027998890754,
    -71.19719920736279
   ],
   "properties": {
    "pond_id": "19DEA-2020-01-29-36",
    "area_km2": 2.7,
    "scene_date": "2020-01-29"
   },
   "geometry": null
  },
  {
   "type": "Feature",
   "bbox": [
    -68.28212821066221,
    -72.01443479576032,
    -68.19509106016831,
    -71.98719693098226
   ],
   "properties": {
    "pond_id": "19DEA-2020-01-29-133490",
    "area_km2": 2.33,
    "scene_date": "2020-01-29"
   },
   "geometry": null
  },
  {
   "type": "Feature",
   "bbox": [
    -68.4389222853942,
    -72.1843077726342,
    -68.37566213744316,
    -72.12395815887785
   ],
   "properties": {
    "pond_id": "19DEA-2020-01-29-136538",
    "area_km2": 1.86,
    "scene_date": "2020-01-29"
   },
   "geometry": null
  },
  {
   "type": "Feature",
   "bbox": [
    -67.89004719960136,
    -71.50821180746098,
    -67.844928137488,
    -71.45987911831288
   ],
   "properties": {
    "pond_id": "19DEA-2020-01-29-28072",
    "area_km2": 1.77,
    "scene_date": "2020-01-29"
   },
   "geometry": null
  },
  {
   "type": "Feature",
   "bbox": [
    -67.42097750577682,
    -71.87188024044642,
    -67.28243023007083,
    -71.85608164560048
   ],
   "properties": {
    "pond_id": "19DEA-2020-01-29-112515",
    "area_km2": 1.76,
    "scene_date": "2020-01-29"
   },
   "geometry": null
  },
  {
   "type": "Feature",
   "bbox": [
    -68.07510643517682,
    -71.47880399480857,
    -68.00951725135677,
    -71.45426306900235
   ],
   "properties": {
    "pond_id": "19DEA-2020-01-29-27767",
    "area_km2": 1.71,
    "scene_date": "2020-01-29"
   },
   "geometry": null
  },
  {
   "type": "Feature",
   "bbox": [
    -66.78286252620977,
    -71.97919182548921,
    -66.73133001511965,
    -71.95258182537891
   ],
   "properties": {
    "pond_id": "19DEA-2020-01-29-131993",
    "area_km2": 1.71,
    "scene_date": "2020-01-29"
   },
   "geometry": null
  },
  {
   "type": "Feature",
   "bbox": [
    -67.58674628923755,
    -71.93109172038791,
    -67.513532883183,
    -71.91431329046195
   ],
   "properties": {
    "pond_id": "19DEA-2020-01-29-128033",
    "area_km2": 1.47,
    "scene_date": "2020-01-29"
   },
   "geometry": null
  },
  {
   "type": "Feature",
   "bbox": [
    -67.6750972723614,
    -71.9156633188955,
    -67.61018084858148,
    -71.90346173182988
   ],
   "properties": {
    "pond_id": "19DEA-2020-01-29-125804",
    "area_km2": 1.36,
    "scene_date": "2020-01-29"
   },
   "geometry": null
  },
  {
   "type": "Feature",
   "bbox": [
    -67.4504349605471,
    -71.79418581005129,
    -67.3407819902699,
    -71.78197336152965
   ],
   "properties": {
    "pond_id": "19DEA-2020-01-29-89323",
    "area_km2": 1.22,
    "scene_date": "2020-01-29"
   },
   "geometry": null
  },
  {
   "type": "Feature",
   "bbox": [
    -68.06185592234267,
    -71.8824121516811,
    -68.02747303165675,
    -71.83974168569578
   ],
   "properties": {
    "pond_id": "19DEA-2020-01-29-104447",
    "area_km2": 1.15,
    "scene_date": "2020-01-29"
   },
   "geometry": null
  },
  {
   "type": "Feature",
   "bbox": [
    -67.97599135841052,
    -71.49129785399361,
    -67.94142289955408,
    -71.45784108720927
   ],
   "properties": {
    "pond_id": "19DEA-2020-01-29-27915",
    "area_km2": 1.15,
    "scene_date": "2020-01-29"
   },
   "geometry": null
  },
  {
   "type": "Feature",
   "bbox": [
    -67.9191667724932,
    -71.47780187560389,
    -67.8651619592951,
    -71.43220282708943
   ],
   "properties": {
    "pond_id": "19DEA-2020-01-29-26705",
    "area_km2": 1.04,
    "scene_date": "2020-01-29"
   },
   "geometry": null
  },
  {
   "type": "Feature",
   "bbox": [
    -67.93360810721974,
    -71.47680741108492,
    -67.88712925390718,
    -71.4270423780602
   ],
   "properties": {
    "pond_id": "19DEA-2020-01-29-26092",
    "area_km2": 0.98,
    "scene_date": "2020-01-29"
   },
   "geometry": null
  },
  {
   "type": "Feature",
   "bbox": [
    -68.20870801122756,
    -71.90530346303571,
    -67.35629440374012,
    -71.19492596578812
   ],
   "properties": {
    "pond_id": "19DEA-2020-01-19-4",
    "area_km2": 446.57,
    "scene_date": "2020-01-19"
   },
   "geometry": null
  },
  {
   "type": "Feature",
   "bbox": [
    -67.52676070821872,
    -71.79021029029339,
    -67.18813680701246,
    -71.72059561176222
   ],
   "properties": {
    "pond_id": "19DEA-2020-01-19-18939",
    "area_km2": 12.49,
    "scene_date": "2020-01-19"
   },
   "geometry": null
  },
  {
   "type": "Feature",
   "bbox": [
    -68.31669272825266,
    -71.98981345866669,
    -68.09507887332971,
    -71.91646265901032
   ],
   "properties": {
    "pond_id": "19DEA-2020-01-19-42612",
    "area_km2": 9.73,
    "scene_date": "2020-01-19"
   },
   "geometry": null
  },
  {
   "type": "Feature",
   "bbox": [
    -68.08941954564118,
    -71.77163007938486,
    -67.9675115990988,
    -71.7012546687679
   ],
   "properties": {
    "pond_id": "19DEA-2020-01-19-17176",
    "area_km2": 7.63,
    "scene_date": "2020-01-19"
   },
   "geometry": null
  },
  {
   "type": "Feature",
   "bbox": [
    -67.7938547344803,
    -71.47435772320738,
    -67.66190165565436,
    -71.4048711096359
   ],
   "properties": {
    "pond_id": "19DEA-2020-01-19-4757",
    "area_km2": 5.4,
    "scene_date": "2020-01-19"
   },
   "geometry": null
  },
  {
   "type": "Feature",
   "bbox": [
    -67.47938703608528,
    -71.83710381625788,
    -67.34456417599615,
    -71.8074763312403
   ],
   "properties": {
    "pond_id": "19DEA-2020-01-19-30508",
    "area_km2": 4.26,
    "scene_date": "2020-01-19"
   },
   "geometry": null
  },
  {
   "type": "Feature",
   "bbox": [
    -68.35758686915135,
    -72.0476917920726,
    -68.20544275607014,
    -72.00266091348875
   ],
   "properties": {
    "pond_id": "19DEA-2020-01-19-54961",
    "area_km2": 4.04,
    "scene_date": "2020-01-19"
   },
   "geometry": null
  },
  {
   "type": "Feature",
   "bbox": [
    -67.44354562677874,
    -71.71431376542326,
    -67.31385385310372,
    -71.66945230359713
   ],
   "properties": {
    "pond_id": "19DEA-2020-01-19-15621",
    "area_km2": 2.89,
    "scene_date": "2020-01-19"
   },
   "geometry": null
  },
  {
   "type": "Feature",
   "bbox": [
    -67.99514737101404,
    -71.65907856403376,
    -67.92045320270098,
    -71.61545206624534
   ],
   "properties": {
    "pond_id": "19DEA-2020-01-19-10526",
    "area_km2": 2.25,
    "scene_date": "2020-01-19"
   },
   "geometry": null
  },
  {
   "type": "Feature",
   "bbox": [
    -68.37525711683398,
    -72.11866717346237,
    -68.30347397272844,
    -72.04885113131029
   ],
   "properties": {
    "pond_id": "19DEA-2020-01-19-61718",
    "area_km2": 2.11,
    "scene_date": "2020-01-19"
   },
   "geometry": null
  },
  {
   "type": "Feature",
   "bbox": [
    -67.43036920575501,
    -71.81124241989659,
    -67.30751165644338,
    -71.79172894898542
   ],
   "properties": {
    "pond_id": "19DEA-2020-01-19-27968",
    "area_km2": 2.02,
    "scene_date": "2020-01-19"
   },
   "geometry": null
  },
  {
   "type": "Feature",
   "bbox": [
    -68.0372328523901,
    -71.65463193735825,
    -67.98932114537824,
    -71.61869768820254
   ],
   "properties": {
    "pond_id": "19DEA-2020-01-19-10748",
    "area_km2": 1.92,
    "scene_date": "2020-01-19"
   },
   "geometry": null
  },
  {
   "type": "Feature",
   "bbox": [
    -68.43896050357496,
    -72.18305271959815,
    -68.38523968332596,
    -72.13438848794544
   ],
   "properties": {
    "pond_id": "19DEA-2020-01-19-68957",
    "area_km2": 1.66,
    "scene_date": "2020-01-19"
   },
   "geometry": null
  },
  {
   "type": "Feature",
   "bbox": [
    -68.29219064242075,
    -72.00927142040976,
    -68.20531110706199,
    -71.98535605942814
   ],
   "properties": {
    "pond_id": "19DEA-2020-01-19-52102",
    "area_km2": 1.65,
    "scene_date": "2020-01-19"
   },
   "geometry": null
  },
  {
   "type": "Feature",
   "bbox": [
    -67.7491578852079,
    -71.64525618059676,
    -67.7210957959916,
    -71.58857616658602
   ],
   "properties": {
    "pond_id": "19DEA-2020-01-19-9114",
    "area_km2": 1.28,
    "scene_date": "2020-01-19"
   },
   "geometry": null
  },
  {
   "type": "Feature",
   "bbox": [
    -68.1167141487024,
    -71.74539606293303,
    -68.08343061777639,
    -71.7120646066941
   ],
   "properties": {
    "pond_id": "19DEA-2020-01-19-17601",
    "area_km2": 1.03,
    "scene_date": "2020-01-19"
   },
   "geometry": null
  },
  {
   "type": "Feature",
   "bbox": [
    -67.86893164302435,
    -71.2865073883726,
    -67.83144502568634,
    -71.25964532513247
   ],
   "properties": {
    "pond_id": "19DEA-2020-01-19-1385",
    "area_km2": 1.01,
    "scene_date": "2020-01-19"
   },
   "geometry": null
  },
  {
   "type": "Feature",
   "bbox": [
    -68.06444863319608,
    -71.88242469041448,
    -68.03201180449334,
    -71.8409301027953
   ],
   "properties": {
    "pond_id": "19DEA-2020-01-19-34386",
    "area_km2": 0.99,
    "scene_date": "2020-01-19"
   },
   "geometry": null
  },
  {
   "type": "Feature",
   "bbox": [
    -68.07085419093224,
    -71.63659581529772,
    -68.03948818814416,
    -71.60998949359403
   ],
   "properties": {
    "pond_id": "19DEA-2020-01-19-10012",
    "area_km2": 0.97,
    "scene_date": "2020-01-19"
   },
   "geometry": null
  },
  {
   "type": "Feature",
   "bbox": [
    -67.9785009838234,
    -71.3273953893213,
    -67.9127522040279,
    -71.30200963728201
   ],
   "properties": {
    "pond_id": "19DEA-2020-01-19-2178",
    "area_km2": 0.96,
    "scene_date": "2020-01-19"
   },
   "geometry": null
  },
  {
   "type": "Feature",
   "bbox": [
    -68.68849604814021,
    -73.06117132432932,
    -68.62767122648134,
    -73.01499266664246
   ],
   "properties": {
    "pond_id": "19CEV-2020-01-29-14729",
    "area_km2": 4.06,
    "scene_date": "2020-01-29"
   },
   "geometry": null
  },
  {
   "type": "Feature",
   "bbox": [
    -68.4389222853942,
    -72.1843077726342,
    -68.37564700246028,
    -72.12440638972646
   ],
   "properties": {
    "pond_id": "19CEV-2020-01-29-213",
    "area_km2": 1.98,
    "scene_date": "2020-01-29"
   },
   "geometry": null
  },
  {
   "type": "Feature",
   "bbox": [
    -68.7169911379717,
    -72.23089605634073,
    -68.60789124076902,
    -72.21188215007392
   ],
   "properties": {
    "pond_id": "19CEV-2020-01-29-694",
    "area_km2": 1.44,
    "scene_date": "2020-01-29"
   },
   "geometry": null
  },
  {
   "type": "Feature",
   "bbox": [
    -68.70252658716888,
    -72.25391515467663,
    -68.61380136992595,
    -72.22372793633542
   ],
   "properties": {
    "pond_id": "19CEV-2020-01-29-727",
    "area_km2": 1.09,
    "scene_date": "2020-01-29"
   },
   "geometry": null
  },
  {
   "type": "Feature",
   "bbox": [
    -68.76567695121898,
    -72.28071621893895,
    -68.70111821782876,
    -72.25014767066939
   ],
   "properties": {
    "pond_id": "19CEV-2020-01-29-795",
    "area_km2": 1.03,
    "scene_date": "2020-01-29"
   },
   "geometry": null
  },
  {
   "type": "Feature",
   "bbox": [
    -68.37611733076399,
    -72.11911819355554,
    -68.35147708497189,
    -72.09778964838488
   ],
   "properties": {
    "pond_id": "19CEV-2020-01-29-2",
    "area_km2": 0.62,
    "scene_date": "2020-01-29"
   },
   "geometry": null
  },
  {
   "type": "Feature",
   "bbox": [
    -68.35213794728816,
    -72.11222650411655,
    -68.30397161772356,
    -72.09762649074968
   ],
   "properties": {
    "pond_id": "19CEV-2020-01-29-3",
    "area_km2": 0.59,
    "scene_date": "2020-01-29"
   },
   "geometry": null
  },
  {
   "type": "Feature",
   "bbox": [
    -68.73837343667009,
    -72.25495212091639,
    -68.57563413415818,
    -72.21172559684389
   ],
   "properties": {
    "pond_id": "19CEV-2020-01-19-6866",
    "area_km2": 3.3,
    "scene_date": "2020-01-19"
   },
   "geometry": null
  },
  {
   "type": "Feature",
   "bbox": [
    -68.43896050357496,
    -72.18305271959815,
    -68.38523968332596,
    -72.13438848794544
   ],
   "properties": {
    "pond_id": "19CEV-2020-01-19-3971",
    "area_km2": 1.79,
    "scene_date": "2020-01-19"
   },
   "geometry": null
  },
  {
   "type": "Feature",
   "bbox": [
    -68.7548751470864,
    -72.27397930175889,
    -68.70159081480325,
    -72.25723083828011
   ],
   "properties": {
    "pond_id": "19CEV-2020-01-19-7914",
    "area_km2": 0.75,
    "scene_date": "2020-01-19"
   },
   "geometry": null
  },
  {
   "type": "Feature",
   "bbox": [
    -68.4389632332355,
    -72.1829630729462,
    -68.3855317096376,
    -72.13438940324816
   ],
   "properties": {
    "pond_id": "19CEV-2020-01-19-3336",
    "area_km2": 1.93,
    "scene_date": "2020-01-19"
   },
   "geometry": null
  },
  {
   "type": "Feature",
   "bbox": [
    -68.73719760263853,
    -72.25495055786341,
    -68.57536922195588,
    -72.22320056291237
   ],
   "properties": {
    "pond_id": "19CEV-2020-01-19-5308",
    "area_km2": 1.79,
    "scene_date": "2020-01-19"
   },
   "geometry": null
  },
  {
   "type": "Feature",
   "bbox": [
    -68.71669894721859,
    -72.23080598501194,
    -68.61053063855876,
    -72.21188739014772
   ],
   "properties": {
    "pond_id": "19CEV-2020-01-19-5265",
    "area_km2": 1.39,
    "scene_date": "2020-01-19"
   },
   "geometry": null
  },
  {
   "type": "Feature",
   "bbox": [
    -68.7548751470864,
    -72.27397930175889,
    -68.70159081480325,
    -72.25723083828011
   ],
   "properties": {
    "pond_id": "19CEV-2020-01-19-6121",
    "area_km2": 0.75,
    "scene_date": "2020-01-19"
   },
   "geometry": null
  },
  {
   "type": "Feature",
   "bbox": [
    -68.37525711683398,
    -72.11866717346237,
    -68.35235142687804,
    -72.09779254324116
   ],
   "properties": {
    "pond_id": "19CEV-2020-01-19-2",
    "area_km2": 0.5,
    "scene_date": "2020-01-19"
   },
   "geometry": null
  },
  {
   "type": "Feature",
   "bbox": [
    68.58394253464427,
    -72.58422488478077,
    69.23032351316026,
    -72.41024923666652
   ],
   "properties": {
    "pond_id": "41CPV-2020-01-18-15553",
    "area_km2": 158.29,
    "scene_date": "2020-01-18"
   },
   "geometry": null
  },
  {
   "type": "Feature",
   "bbox": [
    67.23609915369863,
    -72.73408918597292,
    67.54048031774359,
    -72.46357895119102
   ],
   "properties": {
    "pond_id": "41CPV-2020-01-18-16041",
    "area_km2": 8.0,
    "scene_date": "2020-01-18"
   },
   "geometry": null
  },
  {
   "type": "Feature",
   "bbox": [
    67.19376041523225,
    -72.61350429011421,
    67.43479910170147,
    -72.41797334049024
   ],
   "properties": {
    "pond_id": "41CPV-2020-01-18-13076",
    "area_km2": 7.68,
    "scene_date": "2020-01-18"
   },
   "geometry": null
  },
  {
   "type": "Feature",
   "bbox": [
    67.3658788982195,
    -72.88309554464145,
    67.42680778778434,
    -72.80251477717503
   ],
   "properties": {
    "pond_id": "41CPV-2020-01-18-38743",
    "area_km2": 5.21,
    "scene_date": "2020-01-18"
   },
   "geometry": null
  },
  {
   "type": "Feature",
   "bbox": [
    68.82281087240821,
    -72.09665132349849,
    68.91429299549607,
    -72.04599693074002
   ],
   "properties": {
    "pond_id": "41CPV-2020-01-18-562",
    "area_km2": 5.09,
    "scene_date": "2020-01-18"
   },
   "geometry": null
  },
  {
   "type": "Feature",
   "bbox": [
    69.0978553986817,
    -72.42112762523693,
    69.20966221350076,
    -72.35000319022997
   ],
   "properties": {
    "pond_id": "41CPV-2020-01-18-12496",
    "area_km2": 4.83,
    "scene_date": "2020-01-18"
   },
   "geometry": null
  },
  {
   "type": "Feature",
   "bbox": [
    68.4607231401188,
    -72.47955930605598,
    68.576454849913,
    -72.44610793381497
   ],
   "properties": {
    "pond_id": "41CPV-2020-01-18-16703",
    "area_km2": 3.89,
    "scene_date": "2020-01-18"
   },
   "geometry": null
  },
  {
   "type": "Feature",
   "bbox": [
    67.53067621105832,
    -72.46371265571715,
    67.65723668967169,
    -72.38096514230793
   ],
   "properties": {
    "pond_id": "41CPV-2020-01-18-12296",
    "area_km2": 3.7,
    "scene_date": "2020-01-18"
   },
   "geometry": null
  },
  {
   "type": "Feature",
   "bbox": [
    67.23027226406253,
    -72.84184882196163,
    67.29944184583556,
    -72.7345456696363
   ],
   "properties": {
    "pond_id": "41CPV-2020-01-18-32750",
    "area_km2": 3.62,
    "scene_date": "2020-01-18"
   },
   "geometry": null
  },
  {
   "type": "Feature",
   "bbox": [
    67.05856155456125,
    -72.667940470013,
    67.14324568179596,
    -72.58086473164869
   ],
   "properties": {
    "pond_id": "41CPV-2020-01-18-23036",
    "area_km2": 3.5,
    "scene_date": "2020-01-18"
   },
   "geometry": null
  },
  {
   "type": "Feature",
   "bbox": [
    67.50621536232211,
    -72.10089728966034,
    67.61936678029905,
    -72.04728749673964
   ],
   "properties": {
    "pond_id": "41CPV-2020-01-18-47",
    "area_km2": 2.77,
    "scene_date": "2020-01-18"
   },
   "geometry": null
  },
  {
   "type": "Feature",
   "bbox": [
    68.03078864746487,
    -72.60627790191381,
    68.07892179522499,
    -72.57349455353972
   ],
   "properties": {
    "pond_id": "41CPV-2020-01-18-24154",
    "area_km2": 2.54,
    "scene_date": "2020-01-18"
   },
   "geometry": null
  },
  {
   "type": "Feature",
   "bbox": [
    66.61085209915464,
    -72.53828558639998,
    66.70307048474045,
    -72.52133113998083
   ],
   "properties": {
    "pond_id": "41CPV-2020-01-18-19487",
    "area_km2": 2.14,
    "scene_date": "2020-01-18"
   },
   "geometry": null
  },
  {
   "type": "Feature",
   "bbox": [
    67.9208794881102,
    -72.80143645054682,
    68.01219286313558,
    -72.75144108669056
   ],
   "properties": {
    "pond_id": "41CPV-2020-01-18-34970",
    "area_km2": 2.06,
    "scene_date": "2020-01-18"
   },
   "geometry": null
  },
  {
   "type": "Feature",
   "bbox": [
    68.97608857606842,
    -72.77576054962401,
    69.06492666719483,
    -72.75293496776956
   ],
   "properties": {
    "pond_id": "41CPV-2020-01-18-38071",
    "area_km2": 2.06,
    "scene_date": "2020-01-18"
   },
   "geometry": null
  },
  {
   "type": "Feature",
   "bbox": [
    68.931490158638,
    -72.10148035217303,
    68.9753693400537,
    -72.04800276012816
   ],
   "properties": {
    "pond_id": "41CPV-2020-01-18-641",
    "area_km2": 2.0,
    "scene_date": "2020-01-18"
   },
   "geometry": null
  },
  {
   "type": "Feature",
   "bbox": [
    67.34267551695886,
    -72.240559605886,
    67.40659721426778,
    -72.19537299321522
   ],
   "properties": {
    "pond_id": "41CPV-2020-01-18-3841",
    "area_km2": 1.9,
    "scene_date": "2020-01-18"
   },
   "geometry": null
  },
  {
   "type": "Feature",
   "bbox": [
    66.69266207400578,
    -72.53616148580723,
    66.76432134143766,
    -72.50842062333572
   ],
   "properties": {
    "pond_id": "41CPV-2020-01-18-18435",
    "area_km2": 1.88,
    "scene_date": "2020-01-18"
   },
   "geometry": null
  },
  {
   "type": "Feature",
   "bbox": [
    67.06426689906633,
    -72.49426809948456,
    67.18465091907287,
    -72.47794008908947
   ],
   "properties": {
    "pond_id": "41CPV-2020-01-18-16486",
    "area_km2": 1.67,
    "scene_date": "2020-01-18"
   },
   "geometry": null
  },
  {
   "type": "Feature",
   "bbox": [
    66.73718012104378,
    -72.42927419344706,
    66.8426275928005,
    -72.38531939388933
   ],
   "properties": {
    "pond_id": "41CPV-2020-01-18-12051",
    "area_km2": 1.64,
    "scene_date": "2020-01-18"
   },
   "geometry": null
  },
  {
   "type": "Feature",
   "bbox": [
    66.47786018267583,
    -72.43182700216505,
    67.24488458669123,
    -72.19839697676903
   ],
   "properties": {
    "pond_id": "41CPV-2020-01-07-34522",
    "area_km2": 135.37,
    "scene_date": "2020-01-07"
   },
   "geometry": null
  },
  {
   "type": "Feature",
   "bbox": [
    68.68185435812954,
    -72.55653213795138,
    69.22092254423387,
    -72.38288931521446
   ],
   "properties": {
    "pond_id": "41CPV-2020-01-07-69704",
    "area_km2": 97.49,
    "scene_date": "2020-01-07"
   },
   "geometry": null
  },
  {
   "type": "Feature",
   "bbox": [
    66.43592773332578,
    -72.21043725814002,
    66.87644570801176,
    -72.13900960785283
   ],
   "properties": {
    "pond_id": "41CPV-2020-01-07-17846",
    "area_km2": 51.26,
    "scene_date": "2020-01-07"
   },
   "geometry": null
  },
  {
   "type": "Feature",
   "bbox": [
    66.49931880161895,
    -72.54296369165495,
    67.01074484834972,
    -72.43067592214112
   ],
   "properties": {
    "pond_id": "41CPV-2020-01-07-67407",
    "area_km2": 42.97,
    "scene_date": "2020-01-07"
   },
   "geometry": null
  },
  {
   "type": "Feature",
   "bbox": [
    66.63341518315762,
    -72.18578346816012,
    67.15208595040663,
    -72.10353044477054
   ],
   "properties": {
    "pond_id": "41CPV-2020-01-07-8627",
    "area_km2": 38.59,
    "scene_date": "2020-01-07"
   },
   "geometry": null
  },
  {
   "type": "Feature",
   "bbox": [
    66.4671316824113,
    -72.37572033183645,
    66.68162679843115,
    -72.23759874666024
   ],
   "properties": {
    "pond_id": "41CPV-2020-01-07-41267",
    "area_km2": 37.87,
    "scene_date": "2020-01-07"
   },
   "geometry": null
  },
  {
   "type": "Feature",
   "bbox": [
    66.42068672553617,
    -72.12855333439153,
    66.5581468341052,
    -72.08928870971104
   ],
   "properties": {
    "pond_id": "41CPV-2020-01-07-2998",
    "area_km2": 10.33,
    "scene_date": "2020-01-07"
   },
   "geometry": null
  },
  {
   "type": "Feature",
   "bbox": [
    67.10414564148529,
    -72.09421143173518,
    67.3001160580698,
    -72.05153701468322
   ],
   "properties": {
    "pond_id": "41CPV-2020-01-07-15",
    "area_km2": 9.84,
    "scene_date": "2020-01-07"
   },
   "geometry": null
  },
  {
   "type": "Feature",
   "bbox": [
    66.51730404207761,
    -72.1184911666402,
    66.68619384082378,
    -72.06410519626519
   ],
   "properties": {
    "pond_id": "41CPV-2020-01-07-3",
    "area_km2": 9.59,
    "scene_date": "2020-01-07"
   },
   "geometry": null
  },
  {
   "type": "Feature",
   "bbox": [
    67.23068216412872,
    -72.84228950686453,
    67.29062376368171,
    -72.70049925528194
   ],
   "properties": {
    "pond_id": "41CPV-2020-01-07-101659",
    "area_km2": 5.93,
    "scene_date": "2020-01-07"
   },
   "geometry": null
  },
  {
   "type": "Feature",
   "bbox": [
    67.16161846386923,
    -72.6588254777945,
    67.32936697353479,
    -72.48940230935773
   ],
   "properties": {
    "pond_id": "41CPV-2020-01-07-87712",
    "area_km2": 5.34,
    "scene_date": "2020-01-07"
   },
   "geometry": null
  },
  {
   "type": "Feature",
   "bbox": [
    66.90118359448967,
    -72.3499544440253,
    67.070120119238,
    -72.30567642420168
   ],
   "properties": {
    "pond_id": "41CPV-2020-01-07-52050",
    "area_km2": 4.68,
    "scene_date": "2020-01-07"
   },
   "geometry": null
  },
  {
   "type": "Feature",
   "bbox": [
    68.46126163265342,
    -72.47936455168943,
    68.57393151576436,
    -72.44662879181261
   ],
   "properties": {
    "pond_id": "41CPV-2020-01-07-83927",
    "area_km2": 4.62,
    "scene_date": "2020-01-07"
   },
   "geometry": null
  },
  {
   "type": "Feature",
   "bbox": [
    66.6868482140038,
    -72.14940521412841,
    66.86630011950598,
    -72.11154637522797
   ],
   "properties": {
    "pond_id": "41CPV-2020-01-07-9171",
    "area_km2": 4.46,
    "scene_date": "2020-01-07"
   },
   "geometry": null
  },
  {
   "type": "Feature",
   "bbox": [
    66.73659635084748,
    -72.57494808952164,
    66.87715739274466,
    -72.54155683382152
   ],
   "properties": {
    "pond_id": "41CPV-2020-01-07-91642",
    "area_km2": 3.96,
    "scene_date": "2020-01-07"
   },
   "geometry": null
  },
  {
   "type": "Feature",
   "bbox": [
    66.61191458491018,
    -72.5406010245045,
    66.70299694045416,
    -72.51369936659955
   ],
   "properties": {
    "pond_id": "41CPV-2020-01-07-89577",
    "area_km2": 3.64,
    "scene_date": "2020-01-07"
   },
   "geometry": null
  },
  {
   "type": "Feature",
   "bbox": [
    68.85992138516598,
    -72.09553997461103,
    68.91437846895055,
    -72.0462644556601
   ],
   "properties": {
    "pond_id": "41CPV-2020-01-07-5986",
    "area_km2": 2.87,
    "scene_date": "2020-01-07"
   },
   "geometry": null
  },
  {
   "type": "Feature",
   "bbox": [
    67.36386455912573,
    -72.8749615432253,
    67.41466596811426,
    -72.80376858061004
   ],
   "properties": {
    "pond_id": "41CPV-2020-01-07-108978",
    "area_km2": 2.7,
    "scene_date": "2020-01-07"
   },
   "geometry": null
  },
  {
   "type": "Feature",
   "bbox": [
    68.48175478396992,
    -72.23790890767455,
    68.59321531450814,
    -72.18103748587721
   ],
   "properties": {
    "pond_id": "41CPV-2020-01-07-39468",
    "area_km2": 2.62,
    "scene_date": "2020-01-07"
   },
   "geometry": null
  },
  {
   "type": "Feature",
   "bbox": [
    66.61125069927907,
    -72.34926097735202,
    66.69088907926066,
    -72.3245331011734
   ],
   "properties": {
    "pond_id": "41CPV-2020-01-07-53343",
    "area_km2": 2.39,
    "scene_date": "2020-01-07"
   },
   "geometry": null
  },
  {
   "type": "Feature",
   "bbox": [
    66.47784301637336,
    -72.43173751860529,
    67.24748568315273,
    -72.21091994889356
   ],
   "properties": {
    "pond_id": "41CPV-2020-01-07-44692",
    "area_km2": 127.44,
    "scene_date": "2020-01-07"
   },
   "geometry": null
  },
  {
   "type": "Feature",
   "bbox": [
    68.68244917808828,
    -72.55651520233823,
    69.22092254423387,
    -72.38288931521446
   ],
   "properties": {
    "pond_id": "41CPV-2020-01-07-79736",
    "area_km2": 95.73,
    "scene_date": "2020-01-07"
   },
   "geometry": null
  },
  {
   "type": "Feature",
   "bbox": [
    66.43596120328415,
    -72.2106162372073,
    66.86751311026285,
    -72.14107237812205
   ],
   "properties": {
    "pond_id": "41CPV-2020-01-07-21714",
    "area_km2": 51.04,
    "scene_date": "2020-01-07"
   },
   "geometry": null
  },
  {
   "type": "Feature",
   "bbox": [
    66.49930141245359,
    -72.54287421114455,
    67.01540380606734,
    -72.45438650541641
   ],
   "properties": {
    "pond_id": "41CPV-2020-01-07-85210",
    "area_km2": 39.19,
    "scene_date": "2020-01-07"
   },
   "geometry": null
  },
  {
   "type": "Feature",
   "bbox": [
    66.4671316824113,
    -72.37572033183645,
    66.6813337206342,
    -72.23760422868332
   ],
   "properties": {
    "pond_id": "41CPV-2020-01-07-47846",
    "area_km2": 37.25,
    "scene_date": "2020-01-07"
   },
   "geometry": null
  },
  {
   "type": "Feature",
   "bbox": [
    66.63181425953032,
    -72.18213138838667,
    67.15560632669582,
    -72.10489312657059
   ],
   "properties": {
    "pond_id": "41CPV-2020-01-07-10806",
    "area_km2": 36.66,
    "scene_date": "2020-01-07"
   },
   "geometry": null
  },
  {
   "type": "Feature",
   "bbox": [
    66.42068672553617,
    -72.12855333439153,
    66.55843760459683,
    -72.08928341521595
   ],
   "properties": {
    "pond_id": "41CPV-2020-01-07-3839",
    "area_km2": 9.95,
    "scene_date": "2020-01-07"
   },
   "geometry": null
  },
  {
   "type": "Feature",
   "bbox": [
    66.51725293279321,
    -72.1182227186493,
    66.68590350585342,
    -72.06411067983024
   ],
   "properties": {
    "pond_id": "41CPV-2020-01-07-2",
    "area_km2": 9.27,
    "scene_date": "2020-01-07"
   },
   "geometry": null
  },
  {
   "type": "Feature",
   "bbox": [
    67.10354447351396,
    -72.09413422006689,
    67.28648951858963,
    -72.05183710676111
   ],
   "properties": {
    "pond_id": "41CPV-2020-01-07-14",
    "area_km2": 9.01,
    "scene_date": "2020-01-07"
   },
   "geometry": null
  },
  {
   "type": "Feature",
   "bbox": [
    67.24020222094185,
    -72.88575686267068,
    67.29032332041864,
    -72.70050565859255
   ],
   "properties": {
    "pond_id": "41CPV-2020-01-07-117336",
    "area_km2": 7.36,
    "scene_date": "2020-01-07"
   },
   "geometry": null
  },
  {
   "type": "Feature",
   "bbox": [
    67.16219722555425,
    -72.65872364680835,
    67.3293455367159,
    -72.48931291702523
   ],
   "properties": {
    "pond_id": "41CPV-2020-01-07-102241",
    "area_km2": 5.4,
    "scene_date": "2020-01-07"
   },
   "geometry": null
  },
  {
   "type": "Feature",
   "bbox": [
    66.68683032428962,
    -72.14931574842005,
    66.86575551027674,
    -72.11173677526176
   ],
   "properties": {
    "pond_id": "41CPV-2020-01-07-11070",
    "area_km2": 4.65,
    "scene_date": "2020-01-07"
   },
   "geometry": null
  },
  {
   "type": "Feature",
   "bbox": [
    68.46126163265342,
    -72.47936455168943,
    68.57363585341265,
    -72.44663709370963
   ],
   "properties": {
    "pond_id": "41CPV-2020-01-07-97794",
    "area_km2": 4.62,
    "scene_date": "2020-01-07"
   },
   "geometry": null
  },
  {
   "type": "Feature",
   "bbox": [
    66.90069723423807,
    -72.34906583882862,
    67.04509940476636,
    -72.31140095560862
   ],
   "properties": {
    "pond_id": "41CPV-2020-01-07-60672",
    "area_km2": 4.01,
    "scene_date": "2020-01-07"
   },
   "geometry": null
  },
  {
   "type": "Feature",
   "bbox": [
    66.61119294848383,
    -72.5399855108005,
    66.70236511715662,
    -72.5135314886994
   ],
   "properties": {
    "pond_id": "41CPV-2020-01-07-104239",
    "area_km2": 3.6,
    "scene_date": "2020-01-07"
   },
   "geometry": null
  },
  {
   "type": "Feature",
   "bbox": [
    66.74930277021186,
    -72.56977115595942,
    66.86765148292237,
    -72.54605223942359
   ],
   "properties": {
    "pond_id": "41CPV-2020-01-07-106829",
    "area_km2": 2.98,
    "scene_date": "2020-01-07"
   },
   "geometry": null
  },
  {
   "type": "Feature",
   "bbox": [
    68.85992138516598,
    -72.09553997461103,
    68.91408935866447,
    -72.04627324357088
   ],
   "properties": {
    "pond_id": "41CPV-2020-01-07-7431",
    "area_km2": 2.89,
    "scene_date": "2020-01-07"
   },
   "geometry": null
  },
  {
   "type": "Feature",
   "bbox": [
    67.36386455912573,
    -72.8749615432253,
    67.41506711095447,
    -72.80537740809409
   ],
   "properties": {
    "pond_id": "41CPV-2020-01-07-124082",
    "area_km2": 2.7,
    "scene_date": "2020-01-07"
   },
   "geometry": null
  },
  {
   "type": "Feature",
   "bbox": [
    67.12435885224801,
    -72.80665817414675,
    67.14948469912906,
    -72.71423838636584
   ],
   "properties": {
    "pond_id": "41CPV-2020-01-07-117797",
    "area_km2": 2.32,
    "scene_date": "2020-01-07"
   },
   "geometry": null
  },
  {
   "type": "Feature",
   "bbox": [
    67.92105722154722,
    -72.80098253003482,
    67.98256705997528,
    -72.75927927157504
   ],
   "properties": {
    "pond_id": "41CPV-2020-01-07-121705",
    "area_km2": 2.28,
    "scene_date": "2020-01-07"
   },
   "geometry": null
  }
 ]
}