{
 "type": "FeatureCollection",
 "features": [
  {
   "type": "Feature",
   "bbox": [
    68.58031194509365,
    -72.58414628600737,
    69.20972313013117,
    -72.35018143700198
   ],
   "properties": {
    "pond_id": "41CPV-2019-01-13-26278",
    "area_km2": 186.28,
    "scene_date": "2019-01-13"
   },
   "geometry": null
  },
  {
   "type": "Feature",
   "bbox": [
    68.31334582940141,
    -72.44261694449897,
    69.13310236164602,
    -72.31141416676556
   ],
   "properties": {
    "pond_id": "41CPV-2019-01-13-23877",
    "area_km2": 71.81,
    "scene_date": "2019-01-13"
   },
   "geometry": null
  },
  {
   "type": "Feature",
   "bbox": [
    68.7970731147676,
    -72.1097514018462,
    69.05842960654205,
    -72.01184144855824
   ],
   "properties": {
    "pond_id": "41CPV-2019-01-13-736",
    "area_km2": 17.46,
    "scene_date": "2019-01-13"
   },
   "geometry": null
  },
  {
   "type": "Feature",
   "bbox": [
    67.53709132135971,
    -72.57357818631775,
    67.64455235453698,
    -72.34063250340198
   ],
   "properties": {
    "pond_id": "41CPV-2019-01-13-23211",
    "area_km2": 14.87,
    "scene_date": "2019-01-13"
   },
   "geometry": null
  },
  {
   "type": "Feature",
   "bbox": [
    68.00978837142775,
    -72.30517969558487,
    68.41751450324942,
    -72.02365308019286
   ],
   "properties": {
    "pond_id": "41CPV-2019-01-13-23",
    "area_km2": 13.48,
    "scene_date": "2019-01-13"
   },
   "geometry": null
  },
  {
   "type": "Feature",
   "bbox": [
    69.0618854037609,
    -72.39025966460888,
    69.19765564814028,
    -72.3147989859001
   ],
   "properties": {
    "pond_id": "41CPV-2019-01-13-24279",
    "area_km2": 9.25,
    "scene_date": "2019-01-13"
   },
   "geometry": null
  },
  {
   "type": "Feature",
   "bbox": [
    67.18937490451879,
    -72.61916634665596,
    67.43125910540796,
    -72.42173702881553
   ],
   "properties": {
    "pond_id": "41CPV-2019-01-13-27648",
    "area_km2": 8.3,
    "scene_date": "2019-01-13"
   },
   "geometry": null
  },
  {
   "type": "Feature",
   "bbox": [
    68.29118032546891,
    -72.42899486247902,
    68.4133236097427,
    -72.37729139230656
   ],
   "properties": {
    "pond_id": "41CPV-2019-01-13-26475",
    "area_km2": 8.11,
    "scene_date": "2019-01-13"
   },
   "geometry": null
  },
  {
   "type": "Feature",
   "bbox": [
    67.23889985190377,
    -72.7217210784252,
    67.52918974962475,
    -72.46967847811224
   ],
   "properties": {
    "pond_id": "41CPV-2019-01-13-30476",
    "area_km2": 7.94,
    "scene_date": "2019-01-13"
   },
   "geometry": null
  },
  {
   "type": "Feature",
   "bbox": [
    68.2802339821011,
    -72.51295038967089,
    68.41971217738435,
    -72.45539740058365
   ],
   "properties": {
    "pond_id": "41CPV-2019-01-13-31001",
    "area_km2": 7.52,
    "scene_date": "2019-01-13"
   },
   "geometry": null
  },
  {
   "type": "Feature",
   "bbox": [
    67.91668136597062,
    -72.21859151679317,
    68.24984644023488,
    -72.02825074806478
   ],
   "properties": {
    "pond_id": "41CPV-2019-01-13-12",
    "area_km2": 6.63,
    "scene_date": "2019-01-13"
   },
   "geometry": null
  },
  {
   "type": "Feature",
   "bbox": [
    68.46174608984329,
    -72.4789913134756,
    68.57339520675912,
    -72.44682384459506
   ],
   "properties": {
    "pond_id": "41CPV-2019-01-13-30693",
    "area_km2": 6.06,
    "scene_date": "2019-01-13"
   },
   "geometry": null
  },
  {
   "type": "Feature",
   "bbox": [
    67.77597293170255,
    -72.19913694722314,
    67.90883880167436,
    -72.12329335223606
   ],
   "properties": {
    "pond_id": "41CPV-2019-01-13-7977",
    "area_km2": 5.05,
    "scene_date": "2019-01-13"
   },
   "geometry": null
  },
  {
   "type": "Feature",
   "bbox": [
    67.24674749800387,
    -72.84707507065391,
    67.29996186743101,
    -72.7204274277033
   ],
   "properties": {
    "pond_id": "41CPV-2019-01-13-43764",
    "area_km2": 4.51,
    "scene_date": "2019-01-13"
   },
   "geometry": null
  },
  {
   "type": "Feature",
   "bbox": [
    67.34341787309293,
    -72.88357693037976,
    67.43345416318171,
    -72.80722208996619
   ],
   "properties": {
    "pond_id": "41CPV-2019-01-13-49119",
    "area_km2": 4.47,
    "scene_date": "2019-01-13"
   },
   "geometry": null
  },
  {
   "type": "Feature",
   "bbox": [
    67.9039884004123,
    -72.80409468896164,
    68.01249385729206,
    -72.75143360654772
   ],
   "properties": {
    "pond_id": "41CPV-2019-01-13-46422",
    "area_km2": 4.05,
    "scene_date": "2019-01-13"
   },
   "geometry": null
  },
  {
   "type": "Feature",
   "bbox": [
    69.07452759934156,
    -72.0841090864568,
    69.10514710460228,
    -72.03865931775925
   ],
   "properties": {
    "pond_id": "41CPV-2019-01-13-3257",
    "area_km2": 4.0,
    "scene_date": "2019-01-13"
   },
   "geometry": null
  },
  {
   "type": "Feature",
   "bbox": [
    66.53580863415317,
    -72.49724780835483,
    66.64660370138621,
    -72.4504432113224
   ],
   "properties": {
    "pond_id": "41CPV-2019-01-13-28471",
    "area_km2": 3.77,
    "scene_date": "2019-01-13"
   },
   "geometry": null
  },
  {
   "type": "Feature",
   "bbox": [
    67.59900978833551,
    -72.64434135459996,
    67.9825773258228,
    -72.39282840320554
   ],
   "properties": {
    "pond_id": "41CPV-2019-01-13-26682",
    "area_km2": 3.7,
    "scene_date": "2019-01-13"
   },
   "geometry": null
  },
  {
   "type": "Feature",
   "bbox": [
    66.95361551572087,
    -72.72203887754846,
    67.10769216459474,
    -72.60243977158788
   ],
   "properties": {
    "pond_id": "41CPV-2019-01-13-35982",
    "area_km2": 3.64,
    "scene_date": "2019-01-13"
   },
   "geometry": null
  },
  {
   "type": "Feature",
   "bbox": [
    68.58481446218174,
    -72.56773081317013,
    69.20704398112306,
    -72.34233855647346
   ],
   "properties": {
    "pond_id": "41CPV-2019-01-03-38264",
    "area_km2": 219.75,
    "scene_date": "2019-01-03"
   },
   "geometry": null
  },
  {
   "type": "Feature",
   "bbox": [
    67.23352264545952,
    -72.88589611531972,
    67.49635636700123,
    -72.47554609846345
   ],
   "properties": {
    "pond_id": "41CPV-2019-01-03-44949",
    "area_km2": 23.9,
    "scene_date": "2019-01-03"
   },
   "geometry": null
  },
  {
   "type": "Feature",
   "bbox": [
    67.79000641215151,
    -72.24617556043357,
    68.24840064851638,
    -72.02828975701878
   ],
   "properties": {
    "pond_id": "41CPV-2019-01-03-3",
    "area_km2": 19.36,
    "scene_date": "2019-01-03"
   },
   "geometry": null
  },
  {
   "type": "Feature",
   "bbox": [
    67.94467075322852,
    -72.33874540679015,
    68.41751450324942,
    -72.02365308019286
   ],
   "properties": {
    "pond_id": "41CPV-2019-01-03-10",
    "area_km2": 18.5,
    "scene_date": "2019-01-03"
   },
   "geometry": null
  },
  {
   "type": "Feature",
   "bbox": [
    67.46593137696635,
    -72.75528166842801,
    67.614950279472,
    -72.51354977089127
   ],
   "properties": {
    "pond_id": "41CPV-2019-01-03-48983",
    "area_km2": 10.42,
    "scene_date": "2019-01-03"
   },
   "geometry": null
  },
  {
   "type": "Feature",
   "bbox": [
    67.15845316551098,
    -72.66464085827253,
    67.43256311217205,
    -72.42098896300595
   ],
   "properties": {
    "pond_id": "41CPV-2019-01-03-40142",
    "area_km2": 10.09,
    "scene_date": "2019-01-03"
   },
   "geometry": null
  },
  {
   "type": "Feature",
   "bbox": [
    68.78274294001514,
    -72.10981636007737,
    68.91478990370264,
    -72.04481129145871
   ],
   "properties": {
    "pond_id": "41CPV-2019-01-03-2957",
    "area_km2": 7.97,
    "scene_date": "2019-01-03"
   },
   "geometry": null
  },
  {
   "type": "Feature",
   "bbox": [
    66.95187036547837,
    -72.73051636755618,
    67.14136239464477,
    -72.5818021132199
   ],
   "properties": {
    "pond_id": "41CPV-2019-01-03-52939",
    "area_km2": 6.9,
    "scene_date": "2019-01-03"
   },
   "geometry": null
  },
  {
   "type": "Feature",
   "bbox": [
    68.46955874134063,
    -72.50082267166782,
    68.59995957946578,
    -72.44400619172326
   ],
   "properties": {
    "pond_id": "41CPV-2019-01-03-44596",
    "area_km2": 6.74,
    "scene_date": "2019-01-03"
   },
   "geometry": null
  },
  {
   "type": "Feature",
   "bbox": [
    68.99652454807637,
    -72.07995072298075,
    69.07667765880436,
    -72.00793901277085
   ],
   "properties": {
    "pond_id": "41CPV-2019-01-03-306",
    "area_km2": 5.31,
    "scene_date": "2019-01-03"
   },
   "geometry": null
  },
  {
   "type": "Feature",
   "bbox": [
    67.88905808145856,
    -72.80616453368035,
    68.01788646745852,
    -72.75120958521622
   ],
   "properties": {
    "pond_id": "41CPV-2019-01-03-65737",
    "area_km2": 5.05,
    "scene_date": "2019-01-03"
   },
   "geometry": null
  },
  {
   "type": "Feature",
   "bbox": [
    68.61180308598267,
    -72.3745501965901,
    68.72647921713967,
    -72.33876678480986
   ],
   "properties": {
    "pond_id": "41CPV-2019-01-03-37354",
    "area_km2": 4.63,
    "scene_date": "2019-01-03"
   },
   "geometry": null
  },
  {
   "type": "Feature",
   "bbox": [
    68.93069961779166,
    -72.10357538050015,
    69.03709530149541,
    -72.00539124182521
   ],
   "properties": {
    "pond_id": "41CPV-2019-01-03-44",
    "area_km2": 4.6,
    "scene_date": "2019-01-03"
   },
   "geometry": null
  },
  {
   "type": "Feature",
   "bbox": [
    69.07478788708514,
    -72.0840109107391,
    69.100301154888,
    -72.02395051616647
   ],
   "properties": {
    "pond_id": "41CPV-2019-01-03-1567",
    "area_km2": 4.54,
    "scene_date": "2019-01-03"
   },
   "geometry": null
  },
  {
   "type": "Feature",
   "bbox": [
    67.8880129413667,
    -72.25455441814447,
    68.31576773116852,
    -72.0264605662559
   ],
   "properties": {
    "pond_id": "41CPV-2019-01-03-7",
    "area_km2": 4.35,
    "scene_date": "2019-01-03"
   },
   "geometry": null
  },
  {
   "type": "Feature",
   "bbox": [
    68.08569971873088,
    -72.18496712979118,
    68.36837947436246,
    -72.02501558911241
   ],
   "properties": {
    "pond_id": "41CPV-2019-01-03-8",
    "area_km2": 4.12,
    "scene_date": "2019-01-03"
   },
   "geometry": null
  },
  {
   "type": "Feature",
   "bbox": [
    68.07321080587886,
    -72.36948253125892,
    68.20052086883494,
    -72.3061787137893
   ],
   "properties": {
    "pond_id": "41CPV-2019-01-03-34940",
    "area_km2": 3.66,
    "scene_date": "2019-01-03"
   },
   "geometry": null
  },
  {
   "type": "Feature",
   "bbox": [
    68.19845092968451,
    -72.32278441651921,
    68.2903468667145,
    -72.25179083630873
   ],
   "properties": {
    "pond_id": "41CPV-2019-01-03-31297",
    "area_km2": 3.65,
    "scene_date": "2019-01-03"
   },
   "geometry": null
  },
  {
   "type": "Feature",
   "bbox": [
    68.03016883572054,
    -72.60728272535381,
    68.09177359491702,
    -72.57118890506149
   ],
   "properties": {
    "pond_id": "41CPV-2019-01-03-53556",
    "area_km2": 3.25,
    "scene_date": "2019-01-03"
   },
   "geometry": null
  },
  {
   "type": "Feature",
   "bbox": [
    66.59278272526346,
    -72.47467898565715,
    66.70771260349149,
    -72.42183386135518
   ],
   "properties": {
    "pond_id": "41CPV-2019-01-03-39348",
    "area_km2": 3.15,
    "scene_date": "2019-01-03"
   },
   "geometry": null
  },
  {
   "type": "Feature",
   "bbox": [
    68.6492561816224,
    -72.56546810515779,
    69.20938810414164,
    -72.34920107946067
   ],
   "properties": {
    "pond_id": "41CPV-2019-01-02-36931",
    "area_km2": 168.13,
    "scene_date": "2019-01-02"
   },
   "geometry": null
  },
  {
   "type": "Feature",
   "bbox": [
    66.43592773332578,
    -72.21043725814002,
    66.85407887376009,
    -72.14681598058749
   ],
   "properties": {
    "pond_id": "41CPV-2019-01-02-10310",
    "area_km2": 44.15,
    "scene_date": "2019-01-02"
   },
   "geometry": null
  },
  {
   "type": "Feature",
   "bbox": [
    66.46721696199434,
    -72.37616775723342,
    66.68822882498603,
    -72.23531989347256
   ],
   "properties": {
    "pond_id": "41CPV-2019-01-02-23810",
    "area_km2": 34.28,
    "scene_date": "2019-01-02"
   },
   "geometry": null
  },
  {
   "type": "Feature",
   "bbox": [
    68.60353347728034,
    -72.45938546564537,
    68.93219294645102,
    -72.35664222198497
   ],
   "properties": {
    "pond_id": "41CPV-2019-01-02-36869",
    "area_km2": 28.92,
    "scene_date": "2019-01-02"
   },
   "geometry": null
  },
  {
   "type": "Feature",
   "bbox": [
    67.79000641215151,
    -72.24617556043357,
    68.24840064851638,
    -72.02828975701878
   ],
   "properties": {
    "pond_id": "41CPV-2019-01-02-17",
    "area_km2": 18.01,
    "scene_date": "2019-01-02"
   },
   "geometry": null
  },
  {
   "type": "Feature",
   "bbox": [
    67.96288496549975,
    -72.33927789785831,
    68.41751450324942,
    -72.02365308019286
   ],
   "properties": {
    "pond_id": "41CPV-2019-01-02-26",
    "area_km2": 17.9,
    "scene_date": "2019-01-02"
   },
   "geometry": null
  },
  {
   "type": "Feature",
   "bbox": [
    67.23929137624084,
    -72.88577586456594,
    67.40771427184588,
    -72.70381052303115
   ],
   "properties": {
    "pond_id": "41CPV-2019-01-02-56796",
    "area_km2": 15.62,
    "scene_date": "2019-01-02"
   },
   "geometry": null
  },
  {
   "type": "Feature",
   "bbox": [
    67.37654491756841,
    -72.76137313790286,
    67.60666912998647,
    -72.53729143289264
   ],
   "properties": {
    "pond_id": "41CPV-2019-01-02-47365",
    "area_km2": 12.7,
    "scene_date": "2019-01-02"
   },
   "geometry": null
  },
  {
   "type": "Feature",
   "bbox": [
    67.1817927605001,
    -72.62660195907229,
    67.4327598250268,
    -72.42179338840727
   ],
   "properties": {
    "pond_id": "41CPV-2019-01-02-38161",
    "area_km2": 8.96,
    "scene_date": "2019-01-02"
   },
   "geometry": null
  },
  {
   "type": "Feature",
   "bbox": [
    68.78245276883837,
    -72.10982495608992,
    68.91476141275108,
    -72.04472211654374
   ],
   "properties": {
    "pond_id": "41CPV-2019-01-02-3338",
    "area_km2": 7.79,
    "scene_date": "2019-01-02"
   },
   "geometry": null
  },
  {
   "type": "Feature",
   "bbox": [
    68.0763942078671,
    -72.36175618195053,
    68.29534786354093,
    -72.25174620715308
   ],
   "properties": {
    "pond_id": "41CPV-2019-01-02-29899",
    "area_km2": 6.38,
    "scene_date": "2019-01-02"
   },
   "geometry": null
  },
  {
   "type": "Feature",
   "bbox": [
    68.46947882620343,
    -72.5015447400037,
    68.59767758921981,
    -72.44434056594946
   ],
   "properties": {
    "pond_id": "41CPV-2019-01-02-41886",
    "area_km2": 6.26,
    "scene_date": "2019-01-02"
   },
   "geometry": null
  },
  {
   "type": "Feature",
   "bbox": [
    66.64272333022322,
    -72.17797810906457,
    66.90366309116123,
    -72.1390078996374
   ],
   "properties": {
    "pond_id": "41CPV-2019-01-02-9251",
    "area_km2": 5.12,
    "scene_date": "2019-01-02"
   },
   "geometry": null
  },
  {
   "type": "Feature",
   "bbox": [
    67.88817681554838,
    -72.80627574708731,
    68.01610576648088,
    -72.75134380991005
   ],
   "properties": {
    "pond_id": "41CPV-2019-01-02-61503",
    "area_km2": 5.03,
    "scene_date": "2019-01-02"
   },
   "geometry": null
  },
  {
   "type": "Feature",
   "bbox": [
    66.41907933462086,
    -72.1198726268478,
    66.52792280986736,
    -72.08992646065647
   ],
   "properties": {
    "pond_id": "41CPV-2019-01-02-2008",
    "area_km2": 4.91,
    "scene_date": "2019-01-02"
   },
   "geometry": null
  },
  {
   "type": "Feature",
   "bbox": [
    67.8880367972115,
    -72.25464374237083,
    68.31576773116852,
    -72.0264605662559
   ],
   "properties": {
    "pond_id": "41CPV-2019-01-02-22",
    "area_km2": 4.64,
    "scene_date": "2019-01-02"
   },
   "geometry": null
  },
  {
   "type": "Feature",
   "bbox": [
    66.92074312679027,
    -72.75941693882766,
    67.03044955104329,
    -72.66221801694525
   ],
   "properties": {
    "pond_id": "41CPV-2019-01-02-52648",
    "area_km2": 4.42,
    "scene_date": "2019-01-02"
   },
   "geometry": null
  },
  {
   "type": "Feature",
   "bbox": [
    69.0750775006102,
    -72.08400188304162,
    69.10033049998269,
    -72.0240396608864
   ],
   "properties": {
    "pond_id": "41CPV-2019-01-02-1763",
    "area_km2": 4.35,
    "scene_date": "2019-01-02"
   },
   "geometry": null
  },
  {
   "type": "Feature",
   "bbox": [
    66.96473713569112,
    -72.26515375940669,
    67.10818491987568,
    -72.21882281803569
   ],
   "properties": {
    "pond_id": "41CPV-2019-01-02-22775",
    "area_km2": 4.3,
    "scene_date": "2019-01-02"
   },
   "geometry": null
  },
  {
   "type": "Feature",
   "bbox": [
    67.26449241550874,
    -72.66448504769788,
    67.42849347394579,
    -72.51750830382987
   ],
   "properties": {
    "pond_id": "41CPV-2019-01-02-45679",
    "area_km2": 4.18,
    "scene_date": "2019-01-02"
   },
   "geometry": null
  }
 ]
}