{
 "type": "FeatureCollection",
 "features": [
  {
   "type": "Feature",
   "bbox": [
    -67.68938698795726,
    -71.76923467084329,
    -67.43541552799238,
    -71.74357376535355
   ],
   "properties": {
    "pond_id": "19DEA-2024-02-08-5917",
    "area_km2": 4.94,
    "scene_date": "2024-02-08"
   },
   "geometry": null
  },
  {
   "type": "Feature",
   "bbox": [
    -66.78399726251885,
    -72.17431600003813,
    -66.69998880673825,
    -72.12939215832236
   ],
   "properties": {
    "pond_id": "19DEA-2024-02-08-39447",
    "area_km2": 4.24,
    "scene_date": "2024-02-08"
   },
   "geometry": null
  },
  {
   "type": "Feature",
   "bbox": [
    -66.7221163551508,
    -72.1300094739695,
    -66.63315748828971,
    -72.08320110942539
   ],
   "properties": {
    "pond_id": "19DEA-2024-02-08-33503",
    "area_km2": 3.4,
    "scene_date": "2024-02-08"
   },
   "geometry": null
  },
  {
   "type": "Feature",
   "bbox": [
    -66.77428115712767,
    -71.99524118505671,
    -66.7261673185152,
    -71.94032088176095
   ],
   "properties": {
    "pond_id": "19DEA-2024-02-08-14223",
    "area_km2": 3.29,
    "scene_date": "2024-02-08"
   },
   "geometry": null
  },
  {
   "type": "Feature",
   "bbox": [
    -67.40319215417775,
    -71.83039090599985,
    -67.29904480651354,
    -71.80609395360334
   ],
   "properties": {
    "pond_id": "19DEA-2024-02-08-7245",
    "area_km2": 2.29,
    "scene_date": "2024-02-08"
   },
   "geometry": null
  },
  {
   "type": "Feature",
   "bbox": [
    -66.78685611971676,
    -72.05782031521751,
    -66.72282204657476,
    -72.02469888600321
   ],
   "properties": {
    "pond_id": "19DEA-2024-02-08-28724",
    "area_km2": 2.08,
    "scene_date": "2024-02-08"
   },
   "geometry": null
  },
  {
   "type": "Feature",
   "bbox": [
    -66.7734398987014,
    -72.02896152899424,
    -66.73543090696887,
    -71.99272983627101
   ],
   "properties": {
    "pond_id": "19DEA-2024-02-08-23742",
    "area_km2": 1.5,
    "scene_date": "2024-02-08"
   },
   "geometry": null
  },
  {
   "type": "Feature",
   "bbox": [
    -67.69248294695196,
    -71.78243771389175,
    -67.64207976914943,
    -71.757877006401
   ],
   "properties": {
    "pond_id": "19DEA-2024-02-08-6582",
    "area_km2": 1.26,
    "scene_date": "2024-02-08"
   },
   "geometry": null
  },
  {
   "type": "Feature",
   "bbox": [
    -67.43354313324011,
    -71.84211855436315,
    -67.3186176091516,
    -71.81514434539572
   ],
   "properties": {
    "pond_id": "19DEA-2024-02-08-7314",
    "area_km2": 1.13,
    "scene_date": "2024-02-08"
   },
   "geometry": null
  },
  {
   "type": "Feature",
   "bbox": [
    -67.39462013251146,
    -71.81632937713549,
    -67.29909781929877,
    -71.80232759699216
   ],
   "properties": {
    "pond_id": "19DEA-2024-02-08-7211",
    "area_km2": 1.12,
    "scene_date": "2024-02-08"
   },
   "geometry": null
  },
  {
   "type": "Feature",
   "bbox": [
    -66.76040198520515,
    -72.072051331592,
    -66.71099335101614,
    -72.05470300881925
   ],
   "properties": {
    "pond_id": "19DEA-2024-02-08-32251",
    "area_km2": 1.11,
    "scene_date": "2024-02-08"
   },
   "geometry": null
  },
  {
   "type": "Feature",
   "bbox": [
    -67.63372314435082,
    -71.81404421629885,
    -67.5384805132863,
    -71.78330457474536
   ],
   "properties": {
    "pond_id": "19DEA-2024-02-08-6977",
    "area_km2": 0.79,
    "scene_date": "2024-02-08"
   },
   "geometry": null
  },
  {
   "type": "Feature",
   "bbox": [
    -67.31871223975278,
    -71.86231961470462,
    -67.23416437804028,
    -71.84596070276562
   ],
   "properties": {
    "pond_id": "19DEA-2024-02-08-7467",
    "area_km2": 0.73,
    "scene_date": "2024-02-08"
   },
   "geometry": null
  },
  {
   "type": "Feature",
   "bbox": [
    -67.38587469178162,
    -71.73742479340854,
    -67.2803295258739,
    -71.72494043163256
   ],
   "properties": {
    "pond_id": "19DEA-2024-02-08-5214",
    "area_km2": 0.64,
    "scene_date": "2024-02-08"
   },
   "geometry": null
  },
  {
   "type": "Feature",
   "bbox": [
    -67.49158808967951,
    -71.74590559418529,
    -67.44938990947726,
    -71.73364256182363
   ],
   "properties": {
    "pond_id": "19DEA-2024-02-08-5461",
    "area_km2": 0.62,
    "scene_date": "2024-02-08"
   },
   "geometry": null
  },
  {
   "type": "Feature",
   "bbox": [
    -67.10905341343556,
    -71.71983376017567,
    -67.07423723690682,
    -71.70531605281084
   ],
   "properties": {
    "pond_id": "19DEA-2024-02-08-3751",
    "area_km2": 0.61,
    "scene_date": "2024-02-08"
   },
   "geometry": null
  },
  {
   "type": "Feature",
   "bbox": [
    -66.87286585036055,
    -71.93704958860367,
    -66.80841760893732,
    -71.92942539125264
   ],
   "properties": {
    "pond_id": "19DEA-2024-02-08-12015",
    "area_km2": 0.51,
    "scene_date": "2024-02-08"
   },
   "geometry": null
  },
  {
   "type": "Feature",
   "bbox": [
    -68.56254207366038,
    -72.14562259099188,
    -68.53104847220125,
    -72.131474198048
   ],
   "properties": {
    "pond_id": "19CEV-2024-01-31-108",
    "area_km2": 0.58,
    "scene_date": "2024-01-31"
   },
   "geometry": null
  },
  {
   "type": "Feature",
   "bbox": [
    66.43569346279114,
    -72.2091844044014,
    66.68374307052935,
    -72.16023984529677
   ],
   "properties": {
    "pond_id": "41CPV-2023-12-07-2546",
    "area_km2": 20.15,
    "scene_date": "2023-12-07"
   },
   "geometry": null
  },
  {
   "type": "Feature",
   "bbox": [
    68.7627997481563,
    -72.50109839521025,
    69.17427844331824,
    -72.41362617457146
   ],
   "properties": {
    "pond_id": "41CPV-2023-12-07-10533",
    "area_km2": 20.11,
    "scene_date": "2023-12-07"
   },
   "geometry": null
  },
  {
   "type": "Feature",
   "bbox": [
    67.25805204864828,
    -72.14240317276935,
    67.43959223522403,
    -72.08876210106263
   ],
   "properties": {
    "pond_id": "41CPV-2023-12-07-715",
    "area_km2": 9.46,
    "scene_date": "2023-12-07"
   },
   "geometry": null
  },
  {
   "type": "Feature",
   "bbox": [
    67.24868189899898,
    -72.25546046778057,
    67.3409790878098,
    -72.19485805121313
   ],
   "properties": {
    "pond_id": "41CPV-2023-12-07-4520",
    "area_km2": 6.88,
    "scene_date": "2023-12-07"
   },
   "geometry": null
  },
  {
   "type": "Feature",
   "bbox": [
    68.65103468970746,
    -72.52725487777283,
    68.83860339485405,
    -72.49771814534854
   ],
   "properties": {
    "pond_id": "41CPV-2023-12-07-12936",
    "area_km2": 4.8,
    "scene_date": "2023-12-07"
   },
   "geometry": null
  },
  {
   "type": "Feature",
   "bbox": [
    69.13350768242191,
    -72.51397118425335,
    69.24890627222372,
    -72.46407622009953
   ],
   "properties": {
    "pond_id": "41CPV-2023-12-07-12118",
    "area_km2": 3.77,
    "scene_date": "2023-12-07"
   },
   "geometry": null
  },
  {
   "type": "Feature",
   "bbox": [
    69.1915881651415,
    -72.43722692214472,
    69.22768702091945,
    -72.4025849509124
   ],
   "properties": {
    "pond_id": "41CPV-2023-12-07-10329",
    "area_km2": 2.89,
    "scene_date": "2023-12-07"
   },
   "geometry": null
  },
  {
   "type": "Feature",
   "bbox": [
    69.19293262774661,
    -72.4620468171338,
    69.23744757233325,
    -72.43092476227949
   ],
   "properties": {
    "pond_id": "41CPV-2023-12-07-11015",
    "area_km2": 2.41,
    "scene_date": "2023-12-07"
   },
   "geometry": null
  },
  {
   "type": "Feature",
   "bbox": [
    69.1532880858535,
    -72.5236290560271,
    69.26047105221906,
    -72.49740506610404
   ],
   "properties": {
    "pond_id": "41CPV-2023-12-07-13133",
    "area_km2": 2.35,
    "scene_date": "2023-12-07"
   },
   "geometry": null
  },
  {
   "type": "Feature",
   "bbox": [
    69.17924687792795,
    -72.5040890686736,
    69.2557345997734,
    -72.48377064091163
   ],
   "properties": {
    "pond_id": "41CPV-2023-12-07-12888",
    "area_km2": 2.19,
    "scene_date": "2023-12-07"
   },
   "geometry": null
  },
  {
   "type": "Feature",
   "bbox": [
    67.26401527297513,
    -72.1770466530543,
    67.31913271903728,
    -72.14313209776769
   ],
   "properties": {
    "pond_id": "41CPV-2023-12-07-2446",
    "area_km2": 1.98,
    "scene_date": "2023-12-07"
   },
   "geometry": null
  },
  {
   "type": "Feature",
   "bbox": [
    67.54625168191737,
    -72.81811129493656,
    67.56907434186888,
    -72.74281629697863
   ],
   "properties": {
    "pond_id": "41CPV-2023-12-07-14787",
    "area_km2": 1.63,
    "scene_date": "2023-12-07"
   },
   "geometry": null
  },
  {
   "type": "Feature",
   "bbox": [
    68.91653751949649,
    -72.44166069267625,
    69.02070746125594,
    -72.42213592219838
   ],
   "properties": {
    "pond_id": "41CPV-2023-12-07-10632",
    "area_km2": 1.55,
    "scene_date": "2023-12-07"
   },
   "geometry": null
  },
  {
   "type": "Feature",
   "bbox": [
    69.15531869446905,
    -72.48402375892788,
    69.24288726356127,
    -72.4587703294676
   ],
   "properties": {
    "pond_id": "41CPV-2023-12-07-11819",
    "area_km2": 1.16,
    "scene_date": "2023-12-07"
   },
   "geometry": null
  },
  {
   "type": "Feature",
   "bbox": [
    67.54647253183218,
    -72.74323715710281,
    67.5716667244482,
    -72.70698461474888
   ],
   "properties": {
    "pond_id": "41CPV-2023-12-07-14650",
    "area_km2": 1.12,
    "scene_date": "2023-12-07"
   },
   "geometry": null
  },
  {
   "type": "Feature",
   "bbox": [
    68.62069196564818,
    -72.5116423990886,
    68.67517240678737,
    -72.49740571554696
   ],
   "properties": {
    "pond_id": "41CPV-2023-12-07-12726",
    "area_km2": 0.87,
    "scene_date": "2023-12-07"
   },
   "geometry": null
  },
  {
   "type": "Feature",
   "bbox": [
    68.8888981440338,
    -72.50604979679396,
    68.9527100212275,
    -72.47812782976709
   ],
   "properties": {
    "pond_id": "41CPV-2023-12-07-12374",
    "area_km2": 0.81,
    "scene_date": "2023-12-07"
   },
   "geometry": null
  },
  {
   "type": "Feature",
   "bbox": [
    68.83336765667698,
    -72.5037237127939,
    68.90105491712946,
    -72.4801184968099
   ],
   "properties": {
    "pond_id": "41CPV-2023-12-07-12400",
    "area_km2": 0.81,
    "scene_date": "2023-12-07"
   },
   "geometry": null
  },
  {
   "type": "Feature",
   "bbox": [
    69.00679066655503,
    -72.11511556749244,
    69.02601869639143,
    -72.08966745527235
   ],
   "properties": {
    "pond_id": "41CPV-2023-12-07-2161",
    "area_km2": 0.65,
    "scene_date": "2023-12-07"
   },
   "geometry": null
  },
  {
   "type": "Feature",
   "bbox": [
    69.03108252437426,
    -72.44253351275874,
    69.0647313544924,
    -72.4298895679083
   ],
   "properties": {
    "pond_id": "41CPV-2023-12-07-10855",
    "area_km2": 0.63,
    "scene_date": "2023-12-07"
   },
   "geometry": null
  },
  {
   "type": "Feature",
   "bbox": [
    69.11831499225978,
    -72.5327227772643,
    69.24921490959116,
    -72.46496737676257
   ],
   "properties": {
    "pond_id": "41CPV-2023-12-25-10",
    "area_km2": 12.26,
    "scene_date": "2023-12-25"
   },
   "geometry": null
  },
  {
   "type": "Feature",
   "bbox": [
    69.19118968946282,
    -72.4621912634409,
    69.23766278727315,
    -72.43154858775252
   ],
   "properties": {
    "pond_id": "41CPV-2023-12-25-1",
    "area_km2": 2.6,
    "scene_date": "2023-12-25"
   },
   "geometry": null
  },
  {
   "type": "Feature",
   "bbox": [
    69.15446123385055,
    -72.48414038867588,
    69.22702007758477,
    -72.46386309276669
   ],
   "properties": {
    "pond_id": "41CPV-2023-12-25-7",
    "area_km2": 1.27,
    "scene_date": "2023-12-25"
   },
   "geometry": null
  },
  {
   "type": "Feature",
   "bbox": [
    68.97578787790331,
    -72.77216747030552,
    69.01973373426442,
    -72.75573117997139
   ],
   "properties": {
    "pond_id": "41CPV-2023-12-25-258",
    "area_km2": 0.82,
    "scene_date": "2023-12-25"
   },
   "geometry": null
  },
  {
   "type": "Feature",
   "bbox": [
    69.18280167330117,
    -72.48217975341153,
    69.23741682860992,
    -72.43083564433066
   ],
   "properties": {
    "pond_id": "41CPV-2023-12-15-1",
    "area_km2": 4.32,
    "scene_date": "2023-12-15"
   },
   "geometry": null
  },
  {
   "type": "Feature",
   "bbox": [
    69.15820337855675,
    -72.53185404033871,
    69.2601612511113,
    -72.49651393155335
   ],
   "properties": {
    "pond_id": "41CPV-2023-12-15-50",
    "area_km2": 4.25,
    "scene_date": "2023-12-15"
   },
   "geometry": null
  },
  {
   "type": "Feature",
   "bbox": [
    69.16105099240966,
    -72.49816804095681,
    69.22694650808826,
    -72.47836894071365
   ],
   "properties": {
    "pond_id": "41CPV-2023-12-15-40",
    "area_km2": 1.77,
    "scene_date": "2023-12-15"
   },
   "geometry": null
  },
  {
   "type": "Feature",
   "bbox": [
    69.21179062964775,
    -72.4994721837139,
    69.25610581540067,
    -72.48484001273846
   ],
   "properties": {
    "pond_id": "41CPV-2023-12-15-43",
    "area_km2": 1.38,
    "scene_date": "2023-12-15"
   },
   "geometry": null
  },
  {
   "type": "Feature",
   "bbox": [
    69.14222814116773,
    -72.48686071834483,
    69.19043463502675,
    -72.47392507731128
   ],
   "properties": {
    "pond_id": "41CPV-2023-12-15-35",
    "area_km2": 0.88,
    "scene_date": "2023-12-15"
   },
   "geometry": null
  },
  {
   "type": "Feature",
   "bbox": [
    69.18393321147266,
    -72.51250086378894,
    69.22104996643193,
    -72.5028761672585
   ],
   "properties": {
    "pond_id": "41CPV-2023-12-15-54",
    "area_km2": 0.6,
    "scene_date": "2023-12-15"
   },
   "geometry": null
  },
  {
   "type": "Feature",
   "bbox": [
    69.18133059087911,
    -72.5049251093808,
    69.23196170458851,
    -72.49460711645948
   ],
   "properties": {
    "pond_id": "41CPV-2023-12-15-48",
    "area_km2": 0.59,
    "scene_date": "2023-12-15"
   },
   "geometry": null
  },
  {
   "type": "Feature",
   "bbox": [
    68.62003255475555,
    -72.771139220423,
    68.65286656680017,
    -72.75411067167347
   ],
   "properties": {
    "pond_id": "41CPV-2023-12-15-130",
    "area_km2": 0.51,
    "scene_date": "2023-12-15"
   },
   "geometry": null
  }
 ]
}