{
 "type": "FeatureCollection",
 "features": [
  {
   "type": "Feature",
   "bbox": [
    -67.6475599632102,
    -71.7693042924432,
    -67.44260502370012,
    -71.6944864199635
   ],
   "properties": {
    "pond_id": "19DEA-2025-01-03-521",
    "area_km2": 25.53,
    "scene_date": "2025-01-03"
   },
   "geometry": null
  },
  {
   "type": "Feature",
   "bbox": [
    -67.3529422866652,
    -71.75104677033988,
    -67.22925136408742,
    -71.7209788136289
   ],
   "properties": {
    "pond_id": "19DEA-2025-01-03-700",
    "area_km2": 4.75,
    "scene_date": "2025-01-03"
   },
   "geometry": null
  },
  {
   "type": "Feature",
   "bbox": [
    -66.77743116048568,
    -71.98585790240018,
    -66.73044048946133,
    -71.94799622761363
   ],
   "properties": {
    "pond_id": "19DEA-2025-01-03-2232",
    "area_km2": 2.17,
    "scene_date": "2025-01-03"
   },
   "geometry": null
  },
  {
   "type": "Feature",
   "bbox": [
    -67.59244508874909,
    -71.93983160457131,
    -67.50168558946562,
    -71.92166543322011
   ],
   "properties": {
    "pond_id": "19DEA-2025-01-03-1201",
    "area_km2": 1.84,
    "scene_date": "2025-01-03"
   },
   "geometry": null
  },
  {
   "type": "Feature",
   "bbox": [
    -67.27344599865536,
    -71.75339945313483,
    -67.1847032650589,
    -71.7355416673285
   ],
   "properties": {
    "pond_id": "19DEA-2025-01-03-880",
    "area_km2": 1.37,
    "scene_date": "2025-01-03"
   },
   "geometry": null
  },
  {
   "type": "Feature",
   "bbox": [
    -68.30441845401455,
    -72.05468223627084,
    -68.24733762339542,
    -72.03519405445114
   ],
   "properties": {
    "pond_id": "19DEA-2025-01-03-12889",
    "area_km2": 1.1,
    "scene_date": "2025-01-03"
   },
   "geometry": null
  },
  {
   "type": "Feature",
   "bbox": [
    -66.87061996731659,
    -71.93899844140778,
    -66.7951373443734,
    -71.92685288216579
   ],
   "properties": {
    "pond_id": "19DEA-2025-01-03-1588",
    "area_km2": 0.93,
    "scene_date": "2025-01-03"
   },
   "geometry": null
  },
  {
   "type": "Feature",
   "bbox": [
    -67.36043909957284,
    -71.78339714063956,
    -67.32393701623687,
    -71.77151378350057
   ],
   "properties": {
    "pond_id": "19DEA-2025-01-03-982",
    "area_km2": 0.92,
    "scene_date": "2025-01-03"
   },
   "geometry": null
  },
  {
   "type": "Feature",
   "bbox": [
    -66.76708892686469,
    -72.02619768326338,
    -66.7356611613892,
    -72.00753455268351
   ],
   "properties": {
    "pond_id": "19DEA-2025-01-03-11296",
    "area_km2": 0.74,
    "scene_date": "2025-01-03"
   },
   "geometry": null
  },
  {
   "type": "Feature",
   "bbox": [
    -67.4937774691932,
    -71.93738759738963,
    -67.46825480327814,
    -71.92786133181004
   ],
   "properties": {
    "pond_id": "19DEA-2025-01-03-1444",
    "area_km2": 0.55,
    "scene_date": "2025-01-03"
   },
   "geometry": null
  },
  {
   "type": "Feature",
   "bbox": [
    -68.32696864337949,
    -72.01020153244313,
    -68.15088185851266,
    -71.93357120400634
   ],
   "properties": {
    "pond_id": "19DEA-2025-01-05-1424",
    "area_km2": 8.33,
    "scene_date": "2025-01-05"
   },
   "geometry": null
  },
  {
   "type": "Feature",
   "bbox": [
    -68.3699301609552,
    -72.11228454257265,
    -68.23171363425293,
    -72.00554570640436
   ],
   "properties": {
    "pond_id": "19DEA-2025-01-05-2889",
    "area_km2": 6.79,
    "scene_date": "2025-01-05"
   },
   "geometry": null
  },
  {
   "type": "Feature",
   "bbox": [
    -68.24478812848047,
    -71.94776665850429,
    -68.10359539659945,
    -71.9194610454837
   ],
   "properties": {
    "pond_id": "19DEA-2025-01-05-1075",
    "area_km2": 2.83,
    "scene_date": "2025-01-05"
   },
   "geometry": null
  },
  {
   "type": "Feature",
   "bbox": [
    -68.20987380478134,
    -71.98707816466273,
    -68.16400273240514,
    -71.95676063436673
   ],
   "properties": {
    "pond_id": "19DEA-2025-01-05-1913",
    "area_km2": 1.01,
    "scene_date": "2025-01-05"
   },
   "geometry": null
  },
  {
   "type": "Feature",
   "bbox": [
    -68.39762298391906,
    -72.01428791996757,
    -68.35753530626322,
    -71.96511739263723
   ],
   "properties": {
    "pond_id": "19DEA-2025-01-05-2034",
    "area_km2": 0.95,
    "scene_date": "2025-01-05"
   },
   "geometry": null
  },
  {
   "type": "Feature",
   "bbox": [
    -68.20308305490863,
    -71.88833457673273,
    -68.1698246849778,
    -71.85179239928038
   ],
   "properties": {
    "pond_id": "19DEA-2025-01-05-20",
    "area_km2": 0.5,
    "scene_date": "2025-01-05"
   },
   "geometry": null
  },
  {
   "type": "Feature",
   "bbox": [
    -68.59475136657626,
    -72.1293748809531,
    -68.56080771018213,
    -72.12024676176213
   ],
   "properties": {
    "pond_id": "19DEA-2025-01-05-3800",
    "area_km2": 0.5,
    "scene_date": "2025-01-05"
   },
   "geometry": null
  },
  {
   "type": "Feature",
   "bbox": [
    -66.6604195446267,
    -71.28855914932693,
    -66.62073725534545,
    -71.25432692678267
   ],
   "properties": {
    "pond_id": "19DEA-2025-02-22-19",
    "area_km2": 1.69,
    "scene_date": "2025-02-22"
   },
   "geometry": null
  },
  {
   "type": "Feature",
   "bbox": [
    -66.77584546979617,
    -71.9894280823075,
    -66.73720879023388,
    -71.94466622426692
   ],
   "properties": {
    "pond_id": "19DEA-2025-02-22-14983",
    "area_km2": 1.61,
    "scene_date": "2025-02-22"
   },
   "geometry": null
  },
  {
   "type": "Feature",
   "bbox": [
    -67.78913438977156,
    -71.88879028021705,
    -67.74690553782348,
    -71.86502795664899
   ],
   "properties": {
    "pond_id": "19DEA-2025-02-22-7426",
    "area_km2": 1.25,
    "scene_date": "2025-02-22"
   },
   "geometry": null
  },
  {
   "type": "Feature",
   "bbox": [
    -66.69034490534534,
    -71.37290355227307,
    -66.66044414390765,
    -71.35557917502209
   ],
   "properties": {
    "pond_id": "19DEA-2025-02-22-192",
    "area_km2": 0.84,
    "scene_date": "2025-02-22"
   },
   "geometry": null
  },
  {
   "type": "Feature",
   "bbox": [
    -66.81562408735924,
    -71.34227600433151,
    -66.78854615805182,
    -71.33155419192087
   ],
   "properties": {
    "pond_id": "19DEA-2025-02-22-160",
    "area_km2": 0.63,
    "scene_date": "2025-02-22"
   },
   "geometry": null
  },
  {
   "type": "Feature",
   "bbox": [
    -66.70092475343283,
    -72.10778299577937,
    -66.66129564643487,
    -72.09116529040209
   ],
   "properties": {
    "pond_id": "19DEA-2025-02-22-34173",
    "area_km2": 0.52,
    "scene_date": "2025-02-22"
   },
   "geometry": null
  },
  {
   "type": "Feature",
   "bbox": [
    -68.69515770384257,
    -72.27282031637063,
    -68.22644934454593,
    -72.0973354762823
   ],
   "properties": {
    "pond_id": "19CEV-2025-01-19-4",
    "area_km2": 20.95,
    "scene_date": "2025-01-19"
   },
   "geometry": null
  },
  {
   "type": "Feature",
   "bbox": [
    -68.73319525804622,
    -72.32801054292176,
    -68.59113438882434,
    -72.26644630213659
   ],
   "properties": {
    "pond_id": "19CEV-2025-01-19-8973",
    "area_km2": 3.97,
    "scene_date": "2025-01-19"
   },
   "geometry": null
  },
  {
   "type": "Feature",
   "bbox": [
    -68.82649138387437,
    -72.32461794811246,
    -68.70074100777451,
    -72.25525722300293
   ],
   "properties": {
    "pond_id": "19CEV-2025-01-19-8763",
    "area_km2": 3.57,
    "scene_date": "2025-01-19"
   },
   "geometry": null
  },
  {
   "type": "Feature",
   "bbox": [
    -66.7229741841223,
    -72.1325312940786,
    -66.68920170832534,
    -72.10585073424824
   ],
   "properties": {
    "pond_id": "19CEV-2025-01-19-3202",
    "area_km2": 1.55,
    "scene_date": "2025-01-19"
   },
   "geometry": null
  },
  {
   "type": "Feature",
   "bbox": [
    -66.69613716955546,
    -72.1040485743574,
    -66.65097180753831,
    -72.08521022443175
   ],
   "properties": {
    "pond_id": "19CEV-2025-01-19-102",
    "area_km2": 1.21,
    "scene_date": "2025-01-19"
   },
   "geometry": null
  },
  {
   "type": "Feature",
   "bbox": [
    -68.34971443113277,
    -72.16457760620696,
    -68.3201221341884,
    -72.14995306200703
   ],
   "properties": {
    "pond_id": "19CEV-2025-01-19-6758",
    "area_km2": 0.59,
    "scene_date": "2025-01-19"
   },
   "geometry": null
  },
  {
   "type": "Feature",
   "bbox": [
    -68.68776187508993,
    -72.22332116570881,
    -68.61644270729492,
    -72.20965769091333
   ],
   "properties": {
    "pond_id": "19CEV-2025-01-19-7749",
    "area_km2": 0.57,
    "scene_date": "2025-01-19"
   },
   "geometry": null
  },
  {
   "type": "Feature",
   "bbox": [
    -68.42434293167341,
    -72.18229321577044,
    -68.24335247664547,
    -72.09740154780378
   ],
   "properties": {
    "pond_id": "19CEV-2025-01-12-2",
    "area_km2": 16.76,
    "scene_date": "2025-01-12"
   },
   "geometry": null
  },
  {
   "type": "Feature",
   "bbox": [
    -68.73201472247912,
    -72.32800894835087,
    -68.58690814607829,
    -72.25818950678388
   ],
   "properties": {
    "pond_id": "19CEV-2025-01-12-2011",
    "area_km2": 4.01,
    "scene_date": "2025-01-12"
   },
   "geometry": null
  },
  {
   "type": "Feature",
   "bbox": [
    -68.51797992600419,
    -72.25184708843237,
    -68.39097424027065,
    -72.18192368745989
   ],
   "properties": {
    "pond_id": "19CEV-2025-01-12-1836",
    "area_km2": 2.62,
    "scene_date": "2025-01-12"
   },
   "geometry": null
  },
  {
   "type": "Feature",
   "bbox": [
    -68.75248713057587,
    -72.27648654450917,
    -68.70837976216063,
    -72.25553761749448
   ],
   "properties": {
    "pond_id": "19CEV-2025-01-12-1994",
    "area_km2": 1.04,
    "scene_date": "2025-01-12"
   },
   "geometry": null
  },
  {
   "type": "Feature",
   "bbox": [
    -68.86413179867125,
    -72.3421290710986,
    -68.70073954541928,
    -72.25534687206552
   ],
   "properties": {
    "pond_id": "19CEV-2025-01-15-994",
    "area_km2": 3.56,
    "scene_date": "2025-01-15"
   },
   "geometry": null
  },
  {
   "type": "Feature",
   "bbox": [
    -68.7323098563506,
    -72.32800934765358,
    -68.61881293724431,
    -72.27923224787985
   ],
   "properties": {
    "pond_id": "19CEV-2025-01-15-1152",
    "area_km2": 3.12,
    "scene_date": "2025-01-15"
   },
   "geometry": null
  },
  {
   "type": "Feature",
   "bbox": [
    -68.69519891653918,
    -72.25264884867931,
    -68.563040258502,
    -72.22335290029037
   ],
   "properties": {
    "pond_id": "19CEV-2025-01-15-685",
    "area_km2": 1.4,
    "scene_date": "2025-01-15"
   },
   "geometry": null
  },
  {
   "type": "Feature",
   "bbox": [
    -68.90713898119219,
    -72.30692154827678,
    -68.84916770677266,
    -72.29433481302682
   ],
   "properties": {
    "pond_id": "19CEV-2025-01-15-1195",
    "area_km2": 0.97,
    "scene_date": "2025-01-15"
   },
   "geometry": null
  },
  {
   "type": "Feature",
   "bbox": [
    -68.90007748016235,
    -72.3583770274577,
    -68.85796054102869,
    -72.33809050445187
   ],
   "properties": {
    "pond_id": "19CEV-2025-01-15-1265",
    "area_km2": 0.66,
    "scene_date": "2025-01-15"
   },
   "geometry": null
  },
  {
   "type": "Feature",
   "bbox": [
    -68.68629308854985,
    -72.22340848333256,
    -68.61614573494403,
    -72.20983641662986
   ],
   "properties": {
    "pond_id": "19CEV-2025-01-15-582",
    "area_km2": 0.61,
    "scene_date": "2025-01-15"
   },
   "geometry": null
  },
  {
   "type": "Feature",
   "bbox": [
    66.68513360563614,
    -72.38821960122465,
    67.46841570742166,
    -72.08235274252863
   ],
   "properties": {
    "pond_id": "41CPV-2024-12-05-2366",
    "area_km2": 231.79,
    "scene_date": "2024-12-05"
   },
   "geometry": null
  },
  {
   "type": "Feature",
   "bbox": [
    66.4991449181166,
    -72.54206888643985,
    67.41885236041652,
    -72.31713819618096
   ],
   "properties": {
    "pond_id": "41CPV-2024-12-05-40487",
    "area_km2": 143.09,
    "scene_date": "2024-12-05"
   },
   "geometry": null
  },
  {
   "type": "Feature",
   "bbox": [
    66.43599467392735,
    -72.21079521626497,
    66.7856332602171,
    -72.1414145855485
   ],
   "properties": {
    "pond_id": "41CPV-2024-12-05-8930",
    "area_km2": 46.46,
    "scene_date": "2024-12-05"
   },
   "geometry": null
  },
  {
   "type": "Feature",
   "bbox": [
    68.77139525977768,
    -72.24851657795926,
    68.98221783372271,
    -72.08093073983444
   ],
   "properties": {
    "pond_id": "41CPV-2024-12-05-8175",
    "area_km2": 44.44,
    "scene_date": "2024-12-05"
   },
   "geometry": null
  },
  {
   "type": "Feature",
   "bbox": [
    68.64219148848511,
    -72.53344581753326,
    69.11735110583352,
    -72.41620332557025
   ],
   "properties": {
    "pond_id": "41CPV-2024-12-05-59741",
    "area_km2": 36.46,
    "scene_date": "2024-12-05"
   },
   "geometry": null
  },
  {
   "type": "Feature",
   "bbox": [
    67.22137768030021,
    -72.88614874077949,
    67.40420837239155,
    -72.78737153411042
   ],
   "properties": {
    "pond_id": "41CPV-2024-12-05-92466",
    "area_km2": 21.64,
    "scene_date": "2024-12-05"
   },
   "geometry": null
  },
  {
   "type": "Feature",
   "bbox": [
    66.47457701082074,
    -72.41159329802635,
    66.75922421170331,
    -72.33770416700973
   ],
   "properties": {
    "pond_id": "41CPV-2024-12-05-41708",
    "area_km2": 20.87,
    "scene_date": "2024-12-05"
   },
   "geometry": null
  },
  {
   "type": "Feature",
   "bbox": [
    67.19068518186968,
    -72.10108942682355,
    67.54154636719281,
    -72.04606076149241
   ],
   "properties": {
    "pond_id": "41CPV-2024-12-05-14",
    "area_km2": 19.49,
    "scene_date": "2024-12-05"
   },
   "geometry": null
  },
  {
   "type": "Feature",
   "bbox": [
    66.4634688196333,
    -72.35648098236464,
    66.57119749189344,
    -72.27626851042143
   ],
   "properties": {
    "pond_id": "41CPV-2024-12-05-28834",
    "area_km2": 18.42,
    "scene_date": "2024-12-05"
   },
   "geometry": null
  },
  {
   "type": "Feature",
   "bbox": [
    69.11229626561695,
    -72.53795133862008,
    69.24585248161135,
    -72.45525373644851
   ],
   "properties": {
    "pond_id": "41CPV-2024-12-05-63753",
    "area_km2": 18.41,
    "scene_date": "2024-12-05"
   },
   "geometry": null
  },
  {
   "type": "Feature",
   "bbox": [
    67.0862406540647,
    -72.8889103519242,
    67.19731753144191,
    -72.79024426964905
   ],
   "properties": {
    "pond_id": "41CPV-2024-12-05-92179",
    "area_km2": 15.98,
    "scene_date": "2024-12-05"
   },
   "geometry": null
  },
  {
   "type": "Feature",
   "bbox": [
    68.97225084744937,
    -72.12427973985224,
    69.11300585758579,
    -72.06246050342885
   ],
   "properties": {
    "pond_id": "41CPV-2024-12-05-5085",
    "area_km2": 12.18,
    "scene_date": "2024-12-05"
   },
   "geometry": null
  },
  {
   "type": "Feature",
   "bbox": [
    66.42073646397581,
    -72.12882180952677,
    66.54126202705204,
    -72.07576760531981
   ],
   "properties": {
    "pond_id": "41CPV-2024-12-05-534",
    "area_km2": 10.69,
    "scene_date": "2024-12-05"
   },
   "geometry": null
  },
  {
   "type": "Feature",
   "bbox": [
    66.48015925206771,
    -72.2981873800427,
    66.63527146947496,
    -72.24564417059769
   ],
   "properties": {
    "pond_id": "41CPV-2024-12-05-22502",
    "area_km2": 10.25,
    "scene_date": "2024-12-05"
   },
   "geometry": null
  },
  {
   "type": "Feature",
   "bbox": [
    66.52033718567742,
    -72.11753873807592,
    66.68416149223984,
    -72.06414357216613
   ],
   "properties": {
    "pond_id": "41CPV-2024-12-05-5",
    "area_km2": 9.87,
    "scene_date": "2024-12-05"
   },
   "geometry": null
  },
  {
   "type": "Feature",
   "bbox": [
    69.03867775443155,
    -72.4750835412816,
    69.17920017239005,
    -72.42455217725285
   ],
   "properties": {
    "pond_id": "41CPV-2024-12-05-60876",
    "area_km2": 7.48,
    "scene_date": "2024-12-05"
   },
   "geometry": null
  },
  {
   "type": "Feature",
   "bbox": [
    69.1930549623275,
    -72.46240331790916,
    69.22946486397431,
    -72.40775389269787
   ],
   "properties": {
    "pond_id": "41CPV-2024-12-05-58914",
    "area_km2": 5.55,
    "scene_date": "2024-12-05"
   },
   "geometry": null
  },
  {
   "type": "Feature",
   "bbox": [
    68.46530849546352,
    -72.2460156568857,
    68.57004886413388,
    -72.18799723730696
   ],
   "properties": {
    "pond_id": "41CPV-2024-12-05-20437",
    "area_km2": 4.55,
    "scene_date": "2024-12-05"
   },
   "geometry": null
  },
  {
   "type": "Feature",
   "bbox": [
    68.65025068909378,
    -72.56958027444556,
    68.79341892193247,
    -72.52001486377776
   ],
   "properties": {
    "pond_id": "41CPV-2024-12-05-67178",
    "area_km2": 3.89,
    "scene_date": "2024-12-05"
   },
   "geometry": null
  },
  {
   "type": "Feature",
   "bbox": [
    68.17634854792429,
    -72.29916896400398,
    68.23633327509599,
    -72.2464895804485
   ],
   "properties": {
    "pond_id": "41CPV-2024-12-05-30517",
    "area_km2": 3.57,
    "scene_date": "2024-12-05"
   },
   "geometry": null
  },
  {
   "type": "Feature",
   "bbox": [
    68.00536182309524,
    -72.71860687591621,
    68.4155288325392,
    -72.49618132184665
   ],
   "properties": {
    "pond_id": "41CPV-2024-12-30-37024",
    "area_km2": 99.21,
    "scene_date": "2024-12-30"
   },
   "geometry": null
  },
  {
   "type": "Feature",
   "bbox": [
    68.33374216015409,
    -72.65619256218574,
    68.68561916563544,
    -72.52672119736035
   ],
   "properties": {
    "pond_id": "41CPV-2024-12-30-42128",
    "area_km2": 72.51,
    "scene_date": "2024-12-30"
   },
   "geometry": null
  },
  {
   "type": "Feature",
   "bbox": [
    68.44852749870307,
    -72.25898895534537,
    68.81094994340218,
    -72.0320051670437
   ],
   "properties": {
    "pond_id": "41CPV-2024-12-30-629",
    "area_km2": 64.84,
    "scene_date": "2024-12-30"
   },
   "geometry": null
  },
  {
   "type": "Feature",
   "bbox": [
    68.30577971943907,
    -72.78837110158516,
    68.60331027753091,
    -72.7038338055893
   ],
   "properties": {
    "pond_id": "41CPV-2024-12-30-66118",
    "area_km2": 27.29,
    "scene_date": "2024-12-30"
   },
   "geometry": null
  },
  {
   "type": "Feature",
   "bbox": [
    68.88229956537297,
    -72.80264684030685,
    69.14756478182653,
    -72.72070581861192
   ],
   "properties": {
    "pond_id": "41CPV-2024-12-30-69573",
    "area_km2": 20.78,
    "scene_date": "2024-12-30"
   },
   "geometry": null
  },
  {
   "type": "Feature",
   "bbox": [
    66.49456093602637,
    -72.51844593954958,
    66.63421245714014,
    -72.4495026488074
   ],
   "properties": {
    "pond_id": "41CPV-2024-12-30-30450",
    "area_km2": 20.52,
    "scene_date": "2024-12-30"
   },
   "geometry": null
  },
  {
   "type": "Feature",
   "bbox": [
    68.01821030758154,
    -72.77809064024757,
    68.2433651108016,
    -72.7325185492586
   ],
   "properties": {
    "pond_id": "41CPV-2024-12-30-68012",
    "area_km2": 17.35,
    "scene_date": "2024-12-30"
   },
   "geometry": null
  },
  {
   "type": "Feature",
   "bbox": [
    68.6283645849976,
    -72.52852644041752,
    68.85866101654382,
    -72.48947560444753
   ],
   "properties": {
    "pond_id": "41CPV-2024-12-30-37451",
    "area_km2": 11.67,
    "scene_date": "2024-12-30"
   },
   "geometry": null
  },
  {
   "type": "Feature",
   "bbox": [
    66.4366642306409,
    -72.21437479541046,
    66.57877361430796,
    -72.15670627749938
   ],
   "properties": {
    "pond_id": "41CPV-2024-12-30-5956",
    "area_km2": 8.5,
    "scene_date": "2024-12-30"
   },
   "geometry": null
  },
  {
   "type": "Feature",
   "bbox": [
    67.97868196718845,
    -72.80919396089868,
    68.21953816159176,
    -72.7576046592092
   ],
   "properties": {
    "pond_id": "41CPV-2024-12-30-70854",
    "area_km2": 8.05,
    "scene_date": "2024-12-30"
   },
   "geometry": null
  },
  {
   "type": "Feature",
   "bbox": [
    68.0279864704928,
    -72.7365690398086,
    68.1763063589857,
    -72.70816760321411
   ],
   "properties": {
    "pond_id": "41CPV-2024-12-30-64971",
    "area_km2": 7.06,
    "scene_date": "2024-12-30"
   },
   "geometry": null
  },
  {
   "type": "Feature",
   "bbox": [
    68.096083763785,
    -72.86203224578588,
    68.24722657800058,
    -72.83685781827887
   ],
   "properties": {
    "pond_id": "41CPV-2024-12-30-84185",
    "area_km2": 3.84,
    "scene_date": "2024-12-30"
   },
   "geometry": null
  },
  {
   "type": "Feature",
   "bbox": [
    68.74787790346575,
    -72.6867896916361,
    68.89062271910312,
    -72.64942947075897
   ],
   "properties": {
    "pond_id": "41CPV-2024-12-30-59116",
    "area_km2": 3.79,
    "scene_date": "2024-12-30"
   },
   "geometry": null
  },
  {
   "type": "Feature",
   "bbox": [
    68.58958070982166,
    -72.79205487646688,
    68.69821804834356,
    -72.76588556988122
   ],
   "properties": {
    "pond_id": "41CPV-2024-12-30-74511",
    "area_km2": 3.48,
    "scene_date": "2024-12-30"
   },
   "geometry": null
  },
  {
   "type": "Feature",
   "bbox": [
    69.08355817041861,
    -72.10175008571099,
    69.1068230367643,
    -72.04374050399518
   ],
   "properties": {
    "pond_id": "41CPV-2024-12-30-1808",
    "area_km2": 3.45,
    "scene_date": "2024-12-30"
   },
   "geometry": null
  },
  {
   "type": "Feature",
   "bbox": [
    68.17058593969008,
    -72.84458548480488,
    68.27571678438086,
    -72.81596656352892
   ],
   "properties": {
    "pond_id": "41CPV-2024-12-30-80445",
    "area_km2": 3.33,
    "scene_date": "2024-12-30"
   },
   "geometry": null
  },
  {
   "type": "Feature",
   "bbox": [
    68.54377502429492,
    -72.23535878165622,
    68.67597872871778,
    -72.21772138613137
   ],
   "properties": {
    "pond_id": "41CPV-2024-12-30-19983",
    "area_km2": 3.18,
    "scene_date": "2024-12-30"
   },
   "geometry": null
  },
  {
   "type": "Feature",
   "bbox": [
    68.73765229295853,
    -72.20584582765987,
    68.77845085091496,
    -72.17088922471353
   ],
   "properties": {
    "pond_id": "41CPV-2024-12-30-15027",
    "area_km2": 2.69,
    "scene_date": "2024-12-30"
   },
   "geometry": null
  },
  {
   "type": "Feature",
   "bbox": [
    68.87953828406225,
    -72.09188837077917,
    68.91050397045493,
    -72.04052955671342
   ],
   "properties": {
    "pond_id": "41CPV-2024-12-30-1165",
    "area_km2": 2.54,
    "scene_date": "2024-12-30"
   },
   "geometry": null
  },
  {
   "type": "Feature",
   "bbox": [
    67.93419327703388,
    -72.79904386121903,
    67.98638147490047,
    -72.7599044572685
   ],
   "properties": {
    "pond_id": "41CPV-2024-12-30-70418",
    "area_km2": 2.37,
    "scene_date": "2024-12-30"
   },
   "geometry": null
  },
  {
   "type": "Feature",
   "bbox": [
    68.00568739371242,
    -72.71868871140705,
    68.41523064322189,
    -72.49717918682082
   ],
   "properties": {
    "pond_id": "41CPV-2024-12-27-40383",
    "area_km2": 93.12,
    "scene_date": "2024-12-27"
   },
   "geometry": null
  },
  {
   "type": "Feature",
   "bbox": [
    68.33431397062468,
    -72.65608739413001,
    68.68595755043434,
    -72.52779167812974
   ],
   "properties": {
    "pond_id": "41CPV-2024-12-27-48527",
    "area_km2": 69.51,
    "scene_date": "2024-12-27"
   },
   "geometry": null
  },
  {
   "type": "Feature",
   "bbox": [
    68.44908630047941,
    -72.25888349416941,
    68.80119012903607,
    -72.03436716833754
   ],
   "properties": {
    "pond_id": "41CPV-2024-12-27-631",
    "area_km2": 56.4,
    "scene_date": "2024-12-27"
   },
   "geometry": null
  },
  {
   "type": "Feature",
   "bbox": [
    68.29909365539946,
    -72.78836667300264,
    68.59677364655963,
    -72.71094584031201
   ],
   "properties": {
    "pond_id": "41CPV-2024-12-27-77545",
    "area_km2": 25.03,
    "scene_date": "2024-12-27"
   },
   "geometry": null
  },
  {
   "type": "Feature",
   "bbox": [
    66.49450891766418,
    -72.51817749598423,
    66.63454488952814,
    -72.44967616698027
   ],
   "properties": {
    "pond_id": "41CPV-2024-12-27-30027",
    "area_km2": 19.96,
    "scene_date": "2024-12-27"
   },
   "geometry": null
  },
  {
   "type": "Feature",
   "bbox": [
    68.88214646983349,
    -72.80310148323672,
    69.15038724732537,
    -72.72097981885821
   ],
   "properties": {
    "pond_id": "41CPV-2024-12-27-80195",
    "area_km2": 19.73,
    "scene_date": "2024-12-27"
   },
   "geometry": null
  },
  {
   "type": "Feature",
   "bbox": [
    68.02358561712079,
    -72.77777714637695,
    68.2428166528935,
    -72.7327127365141
   ],
   "properties": {
    "pond_id": "41CPV-2024-12-27-78820",
    "area_km2": 15.56,
    "scene_date": "2024-12-27"
   },
   "geometry": null
  },
  {
   "type": "Feature",
   "bbox": [
    68.62525953487761,
    -72.5205137821539,
    68.85842913464928,
    -72.4887621653459
   ],
   "properties": {
    "pond_id": "41CPV-2024-12-27-40823",
    "area_km2": 10.06,
    "scene_date": "2024-12-27"
   },
   "geometry": null
  },
  {
   "type": "Feature",
   "bbox": [
    66.43664748838302,
    -72.21428530597842,
    66.57818996190497,
    -72.15671693046187
   ],
   "properties": {
    "pond_id": "41CPV-2024-12-27-6616",
    "area_km2": 8.79,
    "scene_date": "2024-12-27"
   },
   "geometry": null
  },
  {
   "type": "Feature",
   "bbox": [
    68.0283124747669,
    -72.73665083765363,
    68.19059713278565,
    -72.70842910750977
   ],
   "properties": {
    "pond_id": "41CPV-2024-12-27-76143",
    "area_km2": 6.47,
    "scene_date": "2024-12-27"
   },
   "geometry": null
  },
  {
   "type": "Feature",
   "bbox": [
    68.04330165720049,
    -72.80759315658904,
    68.22787374164703,
    -72.78383541294018
   ],
   "properties": {
    "pond_id": "41CPV-2024-12-27-86658",
    "area_km2": 5.38,
    "scene_date": "2024-12-27"
   },
   "geometry": null
  },
  {
   "type": "Feature",
   "bbox": [
    68.72990273869907,
    -72.69387447308466,
    68.88882966166737,
    -72.64948215346955
   ],
   "properties": {
    "pond_id": "41CPV-2024-12-27-70209",
    "area_km2": 4.26,
    "scene_date": "2024-12-27"
   },
   "geometry": null
  },
  {
   "type": "Feature",
   "bbox": [
    68.09636079218728,
    -72.86193534592627,
    68.2435082913845,
    -72.8376737716804
   ],
   "properties": {
    "pond_id": "41CPV-2024-12-27-96803",
    "area_km2": 3.51,
    "scene_date": "2024-12-27"
   },
   "geometry": null
  },
  {
   "type": "Feature",
   "bbox": [
    68.17086228619121,
    -72.84448848498994,
    68.27670260674746,
    -72.81926938137686
   ],
   "properties": {
    "pond_id": "41CPV-2024-12-27-93452",
    "area_km2": 3.02,
    "scene_date": "2024-12-27"
   },
   "geometry": null
  },
  {
   "type": "Feature",
   "bbox": [
    68.59119181496709,
    -72.79138029143209,
    68.69803184950516,
    -72.76625088165068
   ],
   "properties": {
    "pond_id": "41CPV-2024-12-27-85793",
    "area_km2": 2.84,
    "scene_date": "2024-12-27"
   },
   "geometry": null
  },
  {
   "type": "Feature",
   "bbox": [
    69.08347408546898,
    -72.10238315455807,
    69.10790464809611,
    -72.05586559065176
   ],
   "properties": {
    "pond_id": "41CPV-2024-12-27-2276",
    "area_km2": 2.45,
    "scene_date": "2024-12-27"
   },
   "geometry": null
  },
  {
   "type": "Feature",
   "bbox": [
    68.8790329591469,
    -72.08938258690844,
    68.91021494736573,
    -72.04053833860796
   ],
   "properties": {
    "pond_id": "41CPV-2024-12-27-1019",
    "area_km2": 2.34,
    "scene_date": "2024-12-27"
   },
   "geometry": null
  },
  {
   "type": "Feature",
   "bbox": [
    67.93976191504014,
    -72.80484269244533,
    67.98404865577304,
    -72.75267806173746
   ],
   "properties": {
    "pond_id": "41CPV-2024-12-27-80121",
    "area_km2": 2.28,
    "scene_date": "2024-12-27"
   },
   "geometry": null
  },
  {
   "type": "Feature",
   "bbox": [
    67.96366227572574,
    -72.72746247371586,
    68.03275980195785,
    -72.69139401069523
   ],
   "properties": {
    "pond_id": "41CPV-2024-12-27-72991",
    "area_km2": 2.08,
    "scene_date": "2024-12-27"
   },
   "geometry": null
  },
  {
   "type": "Feature",
   "bbox": [
    68.7381798879774,
    -72.2056503559412,
    68.7789102791804,
    -72.17141580428095
   ],
   "properties": {
    "pond_id": "41CPV-2024-12-27-15467",
    "area_km2": 2.08,
    "scene_date": "2024-12-27"
   },
   "geometry": null
  }
 ]
}