{
 "type": "FeatureCollection",
 "features": [
  {
   "type": "Feature",
   "bbox": [
    -66.72741707005511,
    -72.13204461217603,
    -66.64911198638487,
    -72.08608500228166
   ],
   "properties": {
    "pond_id": "19DEA-30129",
    "area_km2": 3.15,
    "scene_date": "2023-02-23"
   },
   "geometry": null
  },
  {
   "type": "Feature",
   "bbox": [
    -67.44487116771612,
    -71.91027746577717,
    -67.36772665166815,
    -71.87475684029657
   ],
   "properties": {
    "pond_id": "19DEA-4668",
    "area_km2": 2.43,
    "scene_date": "2023-02-23"
   },
   "geometry": null
  },
  {
   "type": "Feature",
   "bbox": [
    -66.77483638407325,
    -71.98573854195963,
    -66.7300412100936,
    -71.93937939749561
   ],
   "properties": {
    "pond_id": "19DEA-9874",
    "area_km2": 2.31,
    "scene_date": "2023-02-23"
   },
   "geometry": null
  },
  {
   "type": "Feature",
   "bbox": [
    -67.3732220688999,
    -71.83130676521915,
    -67.29513252373123,
    -71.81126124056159
   ],
   "properties": {
    "pond_id": "19DEA-4433",
    "area_km2": 2.15,
    "scene_date": "2023-02-23"
   },
   "geometry": null
  },
  {
   "type": "Feature",
   "bbox": [
    -67.53414893408971,
    -71.93859328880734,
    -67.46931014378949,
    -71.90437369084442
   ],
   "properties": {
    "pond_id": "19DEA-5097",
    "area_km2": 1.85,
    "scene_date": "2023-02-23"
   },
   "geometry": null
  },
  {
   "type": "Feature",
   "bbox": [
    -66.65878330400099,
    -71.28127158630635,
    -66.62566384281224,
    -71.25510696617047
   ],
   "properties": {
    "pond_id": "19DEA-9",
    "area_km2": 1.53,
    "scene_date": "2023-02-23"
   },
   "geometry": null
  },
  {
   "type": "Feature",
   "bbox": [
    -67.4566982652714,
    -71.9208644629251,
    -67.40723867905139,
    -71.90817842952006
   ],
   "properties": {
    "pond_id": "19DEA-5350",
    "area_km2": 1.32,
    "scene_date": "2023-02-23"
   },
   "geometry": null
  },
  {
   "type": "Feature",
   "bbox": [
    -67.43747441936108,
    -71.87093792647127,
    -67.27518348487749,
    -71.85350593416545
   ],
   "properties": {
    "pond_id": "19DEA-4538",
    "area_km2": 1.09,
    "scene_date": "2023-02-23"
   },
   "geometry": null
  },
  {
   "type": "Feature",
   "bbox": [
    -66.77069945816476,
    -72.03000670731026,
    -66.73807666852457,
    -71.99482391036838
   ],
   "properties": {
    "pond_id": "19DEA-19790",
    "area_km2": 0.95,
    "scene_date": "2023-02-23"
   },
   "geometry": null
  },
  {
   "type": "Feature",
   "bbox": [
    -67.35503925602907,
    -71.815727157777,
    -67.30022444661752,
    -71.80574560282324
   ],
   "properties": {
    "pond_id": "19DEA-4427",
    "area_km2": 0.81,
    "scene_date": "2023-02-23"
   },
   "geometry": null
  },
  {
   "type": "Feature",
   "bbox": [
    -66.78131150797685,
    -72.05551473174093,
    -66.73814762091187,
    -72.03483498465906
   ],
   "properties": {
    "pond_id": "19DEA-26666",
    "area_km2": 0.81,
    "scene_date": "2023-02-23"
   },
   "geometry": null
  },
  {
   "type": "Feature",
   "bbox": [
    -67.27728630384746,
    -71.86509425133089,
    -67.21552940392269,
    -71.85135032705371
   ],
   "properties": {
    "pond_id": "19DEA-4530",
    "area_km2": 0.68,
    "scene_date": "2023-02-23"
   },
   "geometry": null
  },
  {
   "type": "Feature",
   "bbox": [
    -67.38408124513565,
    -71.88556624918255,
    -67.31661337772286,
    -71.87288420643384
   ],
   "properties": {
    "pond_id": "19DEA-4663",
    "area_km2": 0.64,
    "scene_date": "2023-02-23"
   },
   "geometry": null
  },
  {
   "type": "Feature",
   "bbox": [
    -67.27851915812391,
    -71.85793029695806,
    -67.21386833701912,
    -71.84460830377857
   ],
   "properties": {
    "pond_id": "19DEA-4507",
    "area_km2": 0.56,
    "scene_date": "2023-02-23"
   },
   "geometry": null
  },
  {
   "type": "Feature",
   "bbox": [
    -66.75525569476818,
    -72.06885250874011,
    -66.7150539247222,
    -72.05717274080396
   ],
   "properties": {
    "pond_id": "19DEA-28960",
    "area_km2": 0.55,
    "scene_date": "2023-02-23"
   },
   "geometry": null
  },
  {
   "type": "Feature",
   "bbox": [
    -68.71830169567252,
    -72.26030354664672,
    -68.58302322157611,
    -72.22214108652105
   ],
   "properties": {
    "pond_id": "19CEV-484",
    "area_km2": 1.98,
    "scene_date": "2023-01-16"
   },
   "geometry": null
  },
  {
   "type": "Feature",
   "bbox": [
    -68.71834940756807,
    -72.31463204390735,
    -68.62872618836171,
    -72.2839130153504
   ],
   "properties": {
    "pond_id": "19CEV-752",
    "area_km2": 1.16,
    "scene_date": "2023-01-16"
   },
   "geometry": null
  },
  {
   "type": "Feature",
   "bbox": [
    -68.82060561164121,
    -72.32299900081905,
    -68.75359683317686,
    -72.28150837399313
   ],
   "properties": {
    "pond_id": "19CEV-749",
    "area_km2": 0.84,
    "scene_date": "2023-01-16"
   },
   "geometry": null
  },
  {
   "type": "Feature",
   "bbox": [
    -68.72343490537664,
    -72.23189137186057,
    -68.65795170037919,
    -72.21672706001748
   ],
   "properties": {
    "pond_id": "19CEV-438",
    "area_km2": 0.75,
    "scene_date": "2023-01-16"
   },
   "geometry": null
  },
  {
   "type": "Feature",
   "bbox": [
    -68.76554206874302,
    -72.26825460865666,
    -68.71683500358267,
    -72.24102643501128
   ],
   "properties": {
    "pond_id": "19CEV-531",
    "area_km2": 0.57,
    "scene_date": "2023-01-16"
   },
   "geometry": null
  }
 ]
}