{
 "type": "FeatureCollection",
 "features": [
  {
   "type": "Feature",
   "bbox": [
    -68.09833895092213,
    -72.02254786506974,
    -67.76717741187967,
    -71.95527672868351
   ],
   "properties": {
    "pond_id": "19DEA-5387",
    "area_km2": 18.01,
    "scene_date": "2026-02-07"
   },
   "geometry": null
  },
  {
   "type": "Feature",
   "bbox": [
    -68.34138674511938,
    -72.16840505782054,
    -68.18373171064214,
    -72.09438255935098
   ],
   "properties": {
    "pond_id": "19DEA-18115",
    "area_km2": 4.53,
    "scene_date": "2026-02-07"
   },
   "geometry": null
  },
  {
   "type": "Feature",
   "bbox": [
    -67.8253833104278,
    -71.99114574414979,
    -67.71579060869244,
    -71.96211772002829
   ],
   "properties": {
    "pond_id": "19DEA-6069",
    "area_km2": 4.04,
    "scene_date": "2026-02-07"
   },
   "geometry": null
  },
  {
   "type": "Feature",
   "bbox": [
    -68.0778927349915,
    -71.9547573480281,
    -67.97506909187233,
    -71.93083988336315
   ],
   "properties": {
    "pond_id": "19DEA-2163",
    "area_km2": 3.1,
    "scene_date": "2026-02-07"
   },
   "geometry": null
  },
  {
   "type": "Feature",
   "bbox": [
    -68.18749350482341,
    -72.0551274588731,
    -68.0632744374113,
    -72.02704502741186
   ],
   "properties": {
    "pond_id": "19DEA-13452",
    "area_km2": 2.02,
    "scene_date": "2026-02-07"
   },
   "geometry": null
  },
  {
   "type": "Feature",
   "bbox": [
    -68.2383206720641,
    -72.09926485323734,
    -68.12707375525788,
    -72.06598469577322
   ],
   "properties": {
    "pond_id": "19DEA-17002",
    "area_km2": 1.89,
    "scene_date": "2026-02-07"
   },
   "geometry": null
  },
  {
   "type": "Feature",
   "bbox": [
    -67.49347361675596,
    -71.96626160142685,
    -67.41966389702387,
    -71.93877158933628
   ],
   "properties": {
    "pond_id": "19DEA-2935",
    "area_km2": 1.74,
    "scene_date": "2026-02-07"
   },
   "geometry": null
  },
  {
   "type": "Feature",
   "bbox": [
    -68.13663281244811,
    -72.04190851370305,
    -68.02524511047964,
    -72.01574049283296
   ],
   "properties": {
    "pond_id": "19DEA-12203",
    "area_km2": 1.22,
    "scene_date": "2026-02-07"
   },
   "geometry": null
  },
  {
   "type": "Feature",
   "bbox": [
    -67.68891393974009,
    -71.76779667329856,
    -67.60666339279426,
    -71.75287114713734
   ],
   "properties": {
    "pond_id": "19DEA-585",
    "area_km2": 1.16,
    "scene_date": "2026-02-07"
   },
   "geometry": null
  },
  {
   "type": "Feature",
   "bbox": [
    -66.77192982971575,
    -71.97852867185999,
    -66.73728887554121,
    -71.94161702795631
   ],
   "properties": {
    "pond_id": "19DEA-4625",
    "area_km2": 1.13,
    "scene_date": "2026-02-07"
   },
   "geometry": null
  },
  {
   "type": "Feature",
   "bbox": [
    -68.28440745655297,
    -72.10607339532612,
    -68.15121673248869,
    -72.07891241241641
   ],
   "properties": {
    "pond_id": "19DEA-17622",
    "area_km2": 1.13,
    "scene_date": "2026-02-07"
   },
   "geometry": null
  },
  {
   "type": "Feature",
   "bbox": [
    -68.09569882426301,
    -72.02908092644644,
    -68.0321607342893,
    -72.01111247769134
   ],
   "properties": {
    "pond_id": "19DEA-11738",
    "area_km2": 1.1,
    "scene_date": "2026-02-07"
   },
   "geometry": null
  },
  {
   "type": "Feature",
   "bbox": [
    -68.28840813151679,
    -72.13854385206376,
    -68.19973814397987,
    -72.12188423852223
   ],
   "properties": {
    "pond_id": "19DEA-21055",
    "area_km2": 1.02,
    "scene_date": "2026-02-07"
   },
   "geometry": null
  },
  {
   "type": "Feature",
   "bbox": [
    -68.02963729339496,
    -71.9259197675397,
    -67.98597746497678,
    -71.91081226233632
   ],
   "properties": {
    "pond_id": "19DEA-985",
    "area_km2": 0.99,
    "scene_date": "2026-02-07"
   },
   "geometry": null
  },
  {
   "type": "Feature",
   "bbox": [
    -67.57073602680398,
    -71.96666542946289,
    -67.50834082016581,
    -71.94323938051397
   ],
   "properties": {
    "pond_id": "19DEA-3497",
    "area_km2": 0.98,
    "scene_date": "2026-02-07"
   },
   "geometry": null
  },
  {
   "type": "Feature",
   "bbox": [
    -68.15543756702552,
    -72.0437839799072,
    -68.06035269139583,
    -72.02165124437181
   ],
   "properties": {
    "pond_id": "19DEA-12822",
    "area_km2": 0.98,
    "scene_date": "2026-02-07"
   },
   "geometry": null
  },
  {
   "type": "Feature",
   "bbox": [
    -68.2079544885304,
    -72.05951513003906,
    -68.09009001568509,
    -72.0309377386527
   ],
   "properties": {
    "pond_id": "19DEA-13796",
    "area_km2": 0.81,
    "scene_date": "2026-02-07"
   },
   "geometry": null
  },
  {
   "type": "Feature",
   "bbox": [
    -67.71400985852415,
    -71.97116274301095,
    -67.65957636942754,
    -71.95904813165559
   ],
   "properties": {
    "pond_id": "19DEA-5855",
    "area_km2": 0.81,
    "scene_date": "2026-02-07"
   },
   "geometry": null
  },
  {
   "type": "Feature",
   "bbox": [
    -68.42364238864661,
    -72.1859670024563,
    -68.38750374487162,
    -72.12776105941163
   ],
   "properties": {
    "pond_id": "19DEA-21372",
    "area_km2": 0.75,
    "scene_date": "2026-02-07"
   },
   "geometry": null
  },
  {
   "type": "Feature",
   "bbox": [
    -68.20676056629418,
    -72.12827854019015,
    -68.1612398821701,
    -72.11481947339037
   ],
   "properties": {
    "pond_id": "19DEA-20359",
    "area_km2": 0.73,
    "scene_date": "2026-02-07"
   },
   "geometry": null
  },
  {
   "type": "Feature",
   "bbox": [
    -68.33939694562322,
    -72.17494325604788,
    -68.14776408401443,
    -72.09700868994821
   ],
   "properties": {
    "pond_id": "19CEV-7",
    "area_km2": 16.06,
    "scene_date": "2026-02-10"
   },
   "geometry": null
  },
  {
   "type": "Feature",
   "bbox": [
    -68.73241586723832,
    -72.3409191425217,
    -68.59845054828713,
    -72.26816471026065
   ],
   "properties": {
    "pond_id": "19CEV-11667",
    "area_km2": 3.32,
    "scene_date": "2026-02-10"
   },
   "geometry": null
  },
  {
   "type": "Feature",
   "bbox": [
    -68.53259213173982,
    -72.26667495185436,
    -68.46049169561769,
    -72.24775344776187
   ],
   "properties": {
    "pond_id": "19CEV-10788",
    "area_km2": 1.5,
    "scene_date": "2026-02-10"
   },
   "geometry": null
  },
  {
   "type": "Feature",
   "bbox": [
    -68.83060173700142,
    -72.32686275757703,
    -68.6998723197115,
    -72.25444904158923
   ],
   "properties": {
    "pond_id": "19CEV-11212",
    "area_km2": 1.37,
    "scene_date": "2026-02-10"
   },
   "geometry": null
  },
  {
   "type": "Feature",
   "bbox": [
    -66.69347254184373,
    -72.10904098294914,
    -66.6440960208825,
    -72.08656291029631
   ],
   "properties": {
    "pond_id": "19CEV-326",
    "area_km2": 1.24,
    "scene_date": "2026-02-10"
   },
   "geometry": null
  },
  {
   "type": "Feature",
   "bbox": [
    -68.89818523600492,
    -72.43251588659132,
    -68.84809688516869,
    -72.38783868956577
   ],
   "properties": {
    "pond_id": "19CEV-12515",
    "area_km2": 1.03,
    "scene_date": "2026-02-10"
   },
   "geometry": null
  },
  {
   "type": "Feature",
   "bbox": [
    -68.42271527531517,
    -72.21555026275348,
    -68.38750374487162,
    -72.12776105941163
   ],
   "properties": {
    "pond_id": "19CEV-4183",
    "area_km2": 0.95,
    "scene_date": "2026-02-10"
   },
   "geometry": null
  },
  {
   "type": "Feature",
   "bbox": [
    -68.89504560897416,
    -72.35945022111183,
    -68.85438763186573,
    -72.34176354957334
   ],
   "properties": {
    "pond_id": "19CEV-12436",
    "area_km2": 0.9,
    "scene_date": "2026-02-10"
   },
   "geometry": null
  },
  {
   "type": "Feature",
   "bbox": [
    -68.89816600339852,
    -72.38302962476652,
    -68.83891505085396,
    -72.35466113255802
   ],
   "properties": {
    "pond_id": "19CEV-12457",
    "area_km2": 0.78,
    "scene_date": "2026-02-10"
   },
   "geometry": null
  },
  {
   "type": "Feature",
   "bbox": [
    -68.65074827570562,
    -72.30251099713782,
    -68.6080266397922,
    -72.28808665568279
   ],
   "properties": {
    "pond_id": "19CEV-12041",
    "area_km2": 0.72,
    "scene_date": "2026-02-10"
   },
   "geometry": null
  },
  {
   "type": "Feature",
   "bbox": [
    -68.57459942205648,
    -72.2564599564047,
    -68.48528942842444,
    -72.24369568476088
   ],
   "properties": {
    "pond_id": "19CEV-10553",
    "area_km2": 0.62,
    "scene_date": "2026-02-10"
   },
   "geometry": null
  },
  {
   "type": "Feature",
   "bbox": [
    -66.79378026003745,
    -72.56912166768967,
    -66.76590604452679,
    -72.55499830284825
   ],
   "properties": {
    "pond_id": "19CEV-14677",
    "area_km2": 0.62,
    "scene_date": "2026-02-10"
   },
   "geometry": null
  },
  {
   "type": "Feature",
   "bbox": [
    -68.40261836648055,
    -72.22015234525774,
    -68.35005233172046,
    -72.1964961400272
   ],
   "properties": {
    "pond_id": "19CEV-9430",
    "area_km2": 0.6,
    "scene_date": "2026-02-10"
   },
   "geometry": null
  },
  {
   "type": "Feature",
   "bbox": [
    -66.71546167719764,
    -72.12948345641294,
    -66.69561282696533,
    -72.1082587954345
   ],
   "properties": {
    "pond_id": "19CEV-3340",
    "area_km2": 0.59,
    "scene_date": "2026-02-10"
   },
   "geometry": null
  }
 ]
}