{"type": "FeatureCollection", "features": [{"type": "Feature", "properties": {"recnum": 0, "featurecla": "Antarctic Ice Shelf", "name": null, "scalerank": 0, "min_zoom": 0}, "bbox": [-75.499989, -73.736141, -66.747975, -70.034602], "geometry": {"type": "Polygon", "coordinates": [[[-75.499989, -73.694637], [-75.499989, -73.424983], [-75.046559, -73.519771], [-74.593129, -73.614558], [-74.519399, -73.606014], [-74.465321, -73.583064], [-74.439504, -73.566707], [-74.418446, -73.548274], [-74.403249, -73.525447], [-74.381886, -73.480281], [-74.36089, -73.460384], [-74.441213, -73.433772], [-74.458547, -73.41534], [-74.474477, -73.401912], [-74.501943, -73.393367], [-74.552358, -73.387386], [-74.53008, -73.354915], [-74.532399, -73.331722], [-74.554616, -73.316829], [-74.591908, -73.308772], [-74.71703, -73.309383], [-74.757985, -73.303157], [-74.694692, -73.276546], [-74.508412, -73.252376], [-74.500234, -73.207942], [-74.432973, -73.182063], [-74.414723, -73.167659], [-74.405751, -73.1524], [-74.39507, -73.118221], [-74.386098, -73.10284], [-74.323232, -73.067195], [-74.287282, -73.091609], [-74.236928, -73.103206], [-74.024892, -73.098933], [-73.937306, -73.116878], [-73.907704, -73.119563], [-73.887196, -73.120906], [-73.898305, -73.149226], [-73.885121, -73.157771], [-73.87328, -73.162532], [-73.866383, -73.16888], [-73.867909, -73.182185], [-73.874928, -73.189754], [-73.887257, -73.196468], [-73.911244, -73.205257], [-73.990102, -73.218074], [-74.045766, -73.217708], [-74.063588, -73.220271], [-74.047841, -73.226253], [-74.017506, -73.248103], [-74.002919, -73.251521], [-74.129994, -73.272029], [-74.150868, -73.279231], [-74.151357, -73.289363], [-74.15453, -73.295467], [-74.157887, -73.300594], [-74.159169, -73.30804], [-74.145619, -73.323543], [-74.063161, -73.353206], [-74.067311, -73.365657], [-74.066823, -73.379207], [-74.062001, -73.391902], [-74.053029, -73.401546], [-74.035878, -73.407039], [-74.014699, -73.406307], [-73.999562, -73.397884], [-74.000478, -73.380306], [-73.979726, -73.368465], [-73.957265, -73.369197], [-73.933888, -73.373714], [-73.91039, -73.373103], [-73.891652, -73.365535], [-73.838857, -73.334651], [-73.76061, -73.31451], [-73.708363, -73.29156], [-73.695302, -73.282771], [-73.687734, -73.273006], [-73.688466, -73.261165], [-73.694447, -73.248225], [-73.701527, -73.238704], [-73.705678, -73.236507], [-73.692128, -73.216975], [-73.673573, -73.20428], [-73.52245, -73.130183], [-73.538319, -73.130183], [-73.522756, -73.128474], [-73.505116, -73.129939], [-73.449635, -73.125301], [-73.255971, -73.084895], [-73.244679, -73.080623], [-73.234853, -73.072322], [-73.216542, -73.051082], [-73.205129, -73.041072], [-73.193898, -73.035823], [-73.171437, -73.038509], [-73.03423, -73.101863], [-73.015248, -73.114314], [-72.987782, -73.137874], [-72.974721, -73.143001], [-72.967397, -73.140926], [-72.94988, -73.124446], [-72.937184, -73.119075], [-72.913075, -73.119075], [-72.649037, -73.148128], [-72.357472, -73.109187], [-72.341603, -73.117488], [-72.331471, -73.125301], [-72.312611, -73.124446], [-72.275075, -73.115779], [-72.258168, -73.116756], [-72.245351, -73.123592], [-72.234975, -73.131526], [-72.225209, -73.136165], [-72.216298, -73.133601], [-72.182546, -73.110408], [-72.174611, -73.106624], [-72.166615, -73.104793], [-72.158803, -73.101741], [-72.151357, -73.094417], [-72.15276, -73.089656], [-72.157338, -73.081233], [-72.160817, -73.071346], [-72.158742, -73.061946], [-72.146413, -73.052058], [-72.131154, -73.044856], [-72.117787, -73.035945], [-72.110951, -73.020931], [-72.114125, -73.007137], [-72.123158, -72.989558], [-72.134389, -72.974056], [-72.144399, -72.966853], [-72.204213, -72.950984], [-72.220876, -72.956111], [-72.235341, -72.95721], [-72.302541, -72.947933], [-72.397084, -72.914119], [-72.382802, -72.906307], [-72.348378, -72.895198], [-72.341176, -72.883968], [-72.347218, -72.864558], [-72.362904, -72.845516], [-72.399342, -72.816097], [-72.412892, -72.798152], [-72.411488, -72.780818], [-72.40746, -72.764705], [-72.412953, -72.750301], [-72.413442, -72.739436], [-72.394643, -72.733577], [-72.355275, -72.729183], [-72.335866, -72.720882], [-72.330617, -72.710262], [-72.336293, -72.697566], [-72.352345, -72.680721], [-72.363332, -72.672298], [-71.911702, -72.650813], [-71.460072, -72.629329], [-71.191579, -72.640132], [-70.923085, -72.650935], [-70.894643, -72.646175], [-70.873769, -72.633724], [-70.866383, -72.61993], [-70.865041, -72.605159], [-70.861684, -72.591609], [-70.84789, -72.580989], [-70.839345, -72.579036], [-70.813527, -72.57867], [-70.805287, -72.576228], [-70.780568, -72.565486], [-70.762563, -72.560725], [-70.743337, -72.558894], [-70.724843, -72.561824], [-70.709279, -72.5722], [-70.698232, -72.594905], [-70.695546, -72.619808], [-70.690053, -72.642757], [-70.670888, -72.659724], [-70.646169, -72.667049], [-70.523793, -72.667537], [-70.25652, -72.63055], [-70.069814, -72.6347], [-69.643971, -72.588802], [-69.218129, -72.542903], [-69.140309, -72.502132], [-69.191823, -72.475276], [-69.213368, -72.469539], [-69.227467, -72.426692], [-69.194081, -72.425716], [-69.170277, -72.421809], [-69.157521, -72.414607], [-69.156361, -72.406184], [-69.157399, -72.398738], [-69.157338, -72.391414], [-69.152943, -72.383357], [-69.146474, -72.37823], [-69.138783, -72.375423], [-69.006093, -72.366145], [-68.949696, -72.37054], [-68.931874, -72.368099], [-68.915395, -72.361141], [-68.900075, -72.348933], [-68.900441, -72.34576], [-68.907582, -72.335872], [-68.909535, -72.332088], [-68.908681, -72.327083], [-68.903859, -72.319637], [-68.902943, -72.315364], [-68.90453, -72.309871], [-68.910695, -72.298641], [-68.912831, -72.293025], [-68.854237, -72.293636], [-68.770192, -72.274349], [-68.7506, -72.264827], [-68.763173, -72.257625], [-68.772694, -72.246761], [-68.774098, -72.234554], [-68.762746, -72.223445], [-68.741078, -72.216365], [-68.71642, -72.213924], [-68.668691, -72.216731], [-68.555409, -72.243953], [-68.496693, -72.251643], [-68.436086, -72.240779], [-68.414113, -72.219661], [-68.408864, -72.154109], [-68.390248, -72.120418], [-68.351003, -72.083431], [-68.343678, -72.071224], [-68.341847, -72.057063], [-68.3438, -72.044002], [-68.349416, -72.032039], [-68.358632, -72.021175], [-68.367177, -72.014217], [-68.40984, -71.993587], [-68.416127, -71.988948], [-68.418691, -71.98199], [-68.420461, -71.968929], [-68.428822, -71.948421], [-68.445058, -71.927791], [-68.464711, -71.909724], [-68.483144, -71.896907], [-68.425526, -71.890926], [-68.307362, -71.89532], [-68.249745, -71.883113], [-68.220509, -71.858333], [-68.208608, -71.821101], [-68.211659, -71.699275], [-68.207326, -71.663753], [-68.192128, -71.633357], [-68.161244, -71.606502], [-68.189259, -71.580013], [-68.197316, -71.569637], [-68.206654, -71.551936], [-68.223805, -71.505672], [-68.236928, -71.481014], [-68.253468, -71.458308], [-68.273915, -71.43658], [-68.270497, -71.429134], [-68.268727, -71.422176], [-68.264943, -71.41534], [-68.255605, -71.408992], [-68.263417, -71.388484], [-68.267323, -71.367854], [-68.258107, -71.350887], [-68.226796, -71.341243], [-68.234364, -71.327693], [-68.237294, -71.317561], [-68.237355, -71.309139], [-68.236379, -71.300227], [-68.243398, -71.235652], [-68.243276, -71.196712], [-68.238088, -71.16888], [-68.283559, -71.115657], [-68.295705, -71.097957], [-68.286977, -71.093562], [-68.279103, -71.087093], [-68.273793, -71.080379], [-68.272511, -71.074397], [-68.280751, -71.056819], [-68.309987, -71.016536], [-68.296498, -70.996639], [-68.293874, -70.990291], [-68.308034, -70.903011], [-68.299123, -70.869075], [-68.308644, -70.854183], [-68.345631, -70.835506], [-68.45403, -70.823177], [-68.481191, -70.809505], [-68.46996, -70.811092], [-68.330129, -70.799739], [-68.335072, -70.796321], [-68.357106, -70.774959], [-68.385915, -70.762874], [-68.39391, -70.757137], [-68.392751, -70.753474], [-68.38561, -70.738704], [-68.384694, -70.733211], [-68.389027, -70.727351], [-68.395314, -70.725276], [-68.402638, -70.724544], [-68.410085, -70.722957], [-68.427419, -70.707332], [-68.426503, -70.668636], [-68.439992, -70.65179], [-68.470631, -70.644832], [-68.476552, -70.639461], [-68.475392, -70.635188], [-68.466298, -70.625423], [-68.464467, -70.619441], [-68.466298, -70.614558], [-68.46996, -70.61053], [-68.478566, -70.604183], [-68.503957, -70.589412], [-68.55956, -70.567806], [-68.584706, -70.552791], [-68.604665, -70.528743], [-68.635854, -70.464534], [-68.65984, -70.430354], [-68.720387, -70.369075], [-69.027455, -70.159724], [-69.141164, -70.048641], [-69.158803, -70.035823], [-69.132314, -70.040706], [-69.08788, -70.067928], [-69.075978, -70.06512], [-69.053273, -70.048518], [-69.040517, -70.041438], [-69.008107, -70.034602], [-68.842275, -70.041316], [-68.552541, -70.090877], [-68.502553, -70.08514], [-68.430287, -70.085628], [-68.427968, -70.086482], [-68.343434, -70.100887], [-68.32311, -70.109187], [-68.305776, -70.122615], [-68.285817, -70.152034], [-68.271596, -70.163997], [-68.251881, -70.176326], [-68.235402, -70.190242], [-68.206288, -70.22491], [-68.190663, -70.23492], [-68.068593, -70.25555], [-68.05132, -70.261409], [-68.041249, -70.267757], [-68.024159, -70.282405], [-68.012746, -70.286189], [-67.987233, -70.286311], [-67.980397, -70.287776], [-67.949391, -70.311824], [-67.921559, -70.348933], [-67.900441, -70.390559], [-67.884084, -70.443782], [-67.855885, -70.501033], [-67.846303, -70.51031], [-67.79247, -70.532039], [-67.759267, -70.554012], [-67.683583, -70.626155], [-67.674428, -70.639827], [-67.673818, -70.659114], [-67.680104, -70.674129], [-67.683949, -70.687557], [-67.667592, -70.720149], [-67.678151, -70.73492], [-67.694814, -70.74847], [-67.704579, -70.763362], [-67.701222, -70.775325], [-67.691396, -70.787532], [-67.6704, -70.807308], [-67.659963, -70.822444], [-67.64269, -70.854915], [-67.631215, -70.868709], [-67.613088, -70.880061], [-67.569814, -70.896785], [-67.551259, -70.90887], [-67.524831, -70.941341], [-67.512196, -70.953304], [-67.411061, -70.992854], [-67.420033, -71.014827], [-67.425221, -71.036189], [-67.420888, -71.055476], [-67.401418, -71.070491], [-67.465749, -71.078548], [-67.498402, -71.090755], [-67.514027, -71.111263], [-67.506642, -71.131404], [-67.467275, -71.167293], [-67.45818, -71.189876], [-67.523061, -71.198787], [-67.544606, -71.207454], [-67.486501, -71.213069], [-67.458241, -71.222224], [-67.443959, -71.238948], [-67.46111, -71.242244], [-67.472951, -71.248348], [-67.481923, -71.258113], [-67.490468, -71.272517], [-67.499013, -71.28094], [-67.536244, -71.296199], [-67.567006, -71.325618], [-67.591847, -71.34344], [-67.601125, -71.353206], [-67.617421, -71.377254], [-67.622609, -71.433406], [-67.57842, -71.474422], [-67.524709, -71.507625], [-67.501088, -71.54034], [-67.481313, -71.587093], [-67.424123, -71.62054], [-67.14214, -71.722713], [-67.102895, -71.752986], [-67.162221, -71.761287], [-67.181264, -71.766902], [-66.995046, -71.877132], [-66.970693, -71.886043], [-66.916493, -71.890315], [-66.890004, -71.898128], [-66.869313, -71.907527], [-66.865468, -71.914729], [-66.861134, -71.931575], [-66.855702, -71.944637], [-66.848683, -71.946712], [-66.838918, -71.945369], [-66.825063, -71.948055], [-66.809682, -71.953426], [-66.800099, -71.955623], [-66.792165, -71.960628], [-66.781667, -71.974422], [-66.779042, -71.985408], [-66.786488, -72.025325], [-66.778127, -72.047176], [-66.761159, -72.069879], [-66.761159, -72.069881], [-66.747975, -72.092098], [-66.750844, -72.113094], [-66.771718, -72.139217], [-66.790456, -72.157405], [-66.812245, -72.171687], [-66.90276, -72.213435], [-66.919362, -72.223933], [-66.929433, -72.236263], [-66.930226, -72.248348], [-66.927724, -72.261409], [-66.928029, -72.277522], [-66.939137, -72.291438], [-66.957326, -72.299007], [-66.972524, -72.308284], [-66.978261, -72.349544], [-66.99944, -72.362483], [-67.052846, -72.380794], [-67.083791, -72.406917], [-67.095387, -72.412776], [-67.1386, -72.423274], [-67.151296, -72.42889], [-67.189504, -72.461238], [-67.208791, -72.482723], [-67.218434, -72.500301], [-67.21996, -72.518611], [-67.218495, -72.554012], [-67.220631, -72.587337], [-67.221852, -72.593684], [-67.266347, -72.621028], [-67.375295, -72.664607], [-67.452931, -72.71429], [-67.492787, -72.730281], [-67.504079, -72.736385], [-67.507253, -72.741023], [-67.529408, -72.765559], [-67.533803, -72.768123], [-67.528981, -72.791072], [-67.515126, -72.81451], [-67.511037, -72.834041], [-67.535573, -72.845149], [-67.586842, -72.85345], [-67.609547, -72.860774], [-67.63622, -72.872737], [-67.662709, -72.877864], [-67.688161, -72.87115], [-67.713307, -72.860164], [-67.738759, -72.852107], [-67.764027, -72.850642], [-67.78893, -72.853694], [-67.836903, -72.869563], [-67.913075, -72.918147], [-67.942433, -72.928279], [-68.20461, -72.97198], [-68.466786, -73.015682], [-68.537526, -73.053767], [-68.596669, -73.05743], [-68.620839, -73.065242], [-68.644887, -73.079768], [-68.667348, -73.088191], [-68.779714, -73.107967], [-68.841542, -73.112239], [-68.916737, -73.103572], [-69.336964, -73.18011], [-69.627889, -73.199336], [-69.918813, -73.218562], [-70.292958, -73.293391], [-70.31841, -73.294856], [-70.346669, -73.290584], [-70.426381, -73.269222], [-70.45287, -73.268733], [-70.507741, -73.275447], [-70.882924, -73.256038], [-71.062001, -73.266414], [-71.422902, -73.353816], [-71.542409, -73.361263], [-71.749318, -73.351619], [-71.863637, -73.378841], [-72.001637, -73.373348], [-72.239247, -73.388973], [-72.417348, -73.436092], [-72.355763, -73.454036], [-72.384511, -73.469905], [-72.429006, -73.470027], [-72.513539, -73.460872], [-72.643422, -73.469661], [-72.828908, -73.443904], [-73.073048, -73.444392], [-73.096852, -73.449764], [-73.118764, -73.457698], [-73.139089, -73.468929], [-73.158193, -73.484065], [-73.207082, -73.548396], [-73.228505, -73.559749], [-73.310292, -73.569637], [-73.405141, -73.562557], [-73.450429, -73.564998], [-73.497487, -73.581966], [-73.515187, -73.593929], [-73.55901, -73.640559], [-73.572804, -73.645198], [-73.589467, -73.640315], [-73.59911, -73.627986], [-73.59203, -73.611141], [-73.626698, -73.59283], [-73.657216, -73.583308], [-73.686513, -73.589046], [-73.738637, -73.63409], [-73.76946, -73.648738], [-73.802663, -73.658626], [-73.863515, -73.66656], [-73.949086, -73.709651], [-74.025319, -73.723933], [-74.105153, -73.716121], [-74.257802, -73.665462], [-74.27715, -73.662654], [-74.341054, -73.673518], [-74.41161, -73.671565], [-74.433278, -73.675838], [-74.453725, -73.684993], [-74.491872, -73.707698], [-74.512807, -73.716853], [-74.612233, -73.736141], [-74.662831, -73.735408], [-74.701527, -73.714778], [-74.738026, -73.688167], [-74.781728, -73.669368], [-74.907582, -73.642391], [-75.268117, -73.62115], [-75.312734, -73.624934], [-75.356679, -73.635677], [-75.499989, -73.694637]], [[-73.759206, -73.387264], [-73.746144, -73.379205], [-73.746144, -73.379207], [-73.735097, -73.370052], [-73.755238, -73.355647], [-73.779347, -73.359309], [-73.803578, -73.372493], [-73.823842, -73.387508], [-73.82195, -73.391658], [-73.795033, -73.396053], [-73.787587, -73.396419], [-73.773366, -73.393367], [-73.759206, -73.387264]], [[-71.920277, -73.258601], [-71.854482, -73.245538], [-71.854482, -73.24554], [-71.796559, -73.219783], [-71.840382, -73.20013], [-71.885671, -73.188899], [-71.980824, -73.181087], [-72.032521, -73.183772], [-72.080861, -73.194637], [-72.096181, -73.214534], [-72.049062, -73.243709], [-71.987294, -73.258357], [-71.920277, -73.258601]]]}}]}